"ATCOCode","NaptanCode","PlateCode","CleardownCode","CommonName","CommonNameLang","ShortCommonName","ShortCommonNameLang","Landmark","LandmarkLang","Street","StreetLang","Crossing","CrossingLang","Indicator","IndicatorLang","Bearing","NptgLocalityCode","LocalityName","ParentLocalityName","GrandParentLocalityName","Town","TownLang","Suburb","SuburbLang","LocalityCentre","GridType","Easting","Northing","Longitude","Latitude","StopType","BusStopType","TimingStatus","DefaultWaitTime","Notes","NotesLang","AdministrativeAreaCode","CreationDateTime","ModificationDateTime","RevisionNumber","Modification","Status"
"1400EB0419","esuagatj",,,"South Downs Way",,,,"Golf Course",,"East Dean Road",,,,"after",,"SW","E0010505","Old Town","Eastbourne",,,,,,0,"U",558486,98552,0.24595937567,50.7649185255,"BCT","MKD","OTH",,,,"079",2005-08-08 00:00:00,2014-01-20 10:00:00,2,"rev","act"
"1400EB0420","esuagatm",,,"South Downs Way",,,,"Golf Course",,"East Dean Road",,,,"before",,"NE","E0010505","Old Town","Eastbourne",,,,,,0,"U",558449,98545,0.24543213532,50.7648657229,"BCT","MKD","OTH",,,,"079",2005-08-08 00:00:00,2017-01-11 12:57:00,3,"rev","act"
"1400EB75108","esuagjgt",,,"Brodrick Close",,,,"Somerfields",,"Brodrick Road",,,,"adj",,"S","E0010502","Hampden Park","Eastbourne",,,,,,0,"U",560554,102224,0.27686133894,50.7973450943,"BCT","MKD","OTH",,,,"079",2005-08-08 00:00:00,2018-03-20 08:55:00,6,"del","del"
"1400EB75138","esuagjpg",,,"Sussex Downs College",,,,"College",,"College Grounds",,,,"o/s",,"NE","E0010502","Hampden Park","Eastbourne",,,,,,0,"U",560325,101353,0.27323480776,50.7895820923,"BCT","MKD","OTH",,,,"079",2005-08-08 00:00:00,2010-08-13 12:12:00,2,"rev","act"
"1400HMPDNPK0",,,,"Hampden Park (Sussex) Rail Station",,,,"Station entrance",,"Station Approach",,,,"Main entrance",,,"E0010502","Hampden Park","Eastbourne",,,,,,0,"U",560718,102113,0.27913797166,50.7963022914,"RSE",,,,,,"079",2006-11-03 00:00:00,2011-04-04 15:14:00,5,"rev","act"
"1400EB10045","esudjgmp",,,"Coopers Hill",,,,"Coopers Hill",,"Willingdon Road",,,,"adj",,"NW","E0010509","Willingdon","Eastbourne",,"Eastbourne",,,,0,"U",558665,102823,0.25033760165,50.8032472942,"BCT","MKD","OTH",,,,"079",2010-09-17 15:41:00,2010-09-17 15:41:00,0,"new","act"
"1400EB0071","esuadgma",,,"Chalk Farm Hotel",,,,"Tas Combe Way",,"Coopers Hill",,,,"o/s",,"N","E0010509","Willingdon","Eastbourne",,,,,,0,"U",558652,102496,0.25001209619,50.8003125584,"BCT","MKD","OTH",,,,"079",2005-08-08 00:00:00,2018-03-06 12:10:00,3,"rev","act"
"1400EB0001","esuadada",,,"St Leonard's Place",,,,"East Dean Road",,"Longland Road",,,,"adj",,"SE","E0010505","Old Town","Eastbourne",,,,,,0,"U",559344,99254,0.25841951828,50.7709916139,"BCT","MKD","TIP",,,,"079",2005-08-08 00:00:00,2010-08-18 10:49:00,2,"rev","act"
"1400EB0002","esuadadg",,,"St Leonard's Place",,,,"East Dean Road",,"Longland Road",,,,"opp",,"NW","E0010505","Old Town","Eastbourne",,,,,,0,"U",559303,99256,0.25783941148,50.7710208368,"BCT","MKD","OTH",,,,"079",2005-08-08 00:00:00,2010-08-18 10:50:00,2,"rev","act"
"1400HMPDNPK1",,,,"Hampden Park (Sussex) Rail Station",,,,"Station entrance",,"Brampton Road",,,,"entrance",,,"E0010502","Hampden Park","Eastbourne",,,,,,0,"U",560804,102134,0.28036642168,50.7964671499,"RSE",,,,,,"079",2006-11-03 00:00:00,2011-04-01 11:53:00,3,"rev","act"
"1400RA0025","esuapgjp",,,"Hampden Park Railway Station",,,,"Mountfield Road",,"Station Approach",,,,"o/s",,"N","E0010502","Hampden Park","Eastbourne",,,,,,0,"U",560731,102106,0.27931921855,50.7962357912,"BCT","CUS","OTH",,,,"079",2005-08-08 00:00:00,2016-12-21 15:38:00,6,"rev","act"
"1400EB0086","esuadgtd",,,"Church Street",,,,"Church Street",,"Willingdon Road",,,,"SE-bound",,"SE","E0010509","Willingdon","Eastbourne",,,,,,0,"U",559075,102395,0.25596607915,50.7992891463,"BCT","MKD","OTH",,,,"079",2005-08-08 00:00:00,2018-03-06 12:13:00,3,"rev","act"
"1400EB0088","esuadgtj",,,"Woodland Avenue",,,,"Woodland Avenue",,"King's Drive",,,,"adj",,"SE","E0010509","Willingdon","Eastbourne",,,,,,0,"U",559289,101860,0.2587684774,50.794423138,"BCT","MKD","OTH",,,,"079",2005-08-08 00:00:00,2017-01-17 14:52:00,5,"rev","act"
"1400EB0003","esuadadj",,,"Recreation Ground",,,,"Recreation Ground",,"Longland Road",,,,"adj",,"NW","E0010505","Old Town","Eastbourne",,,,,,0,"U",559115,99461,0.25526404261,50.7729144449,"BCT","MKD","TIP",,,,"079",2006-11-21 00:00:00,2010-08-18 10:52:00,3,"rev","act"
"1400EB0004","esuadadm",,,"Recreation Ground",,,,"Recreation Ground",,"Longland Road",,,,"opp",,"SE","E0010505","Old Town","Eastbourne",,,,,,0,"U",559113,99499,0.25525212685,50.7732564465,"BCT","MKD","TIP",,,,"079",2006-11-21 00:00:00,2010-08-18 10:54:00,2,"rev","act"
"1400EB0109","esuadjdm",,,"Kings Drive",,,,"Kings Drive",,"Decoy Drive",,,,"o/s 2",,"SW","E0010502","Hampden Park","Eastbourne",,,,,,0,"U",559622,101743,0.26343865436,50.7932802932,"BCT","MKD","OTH",,,,"079",2005-08-08 00:00:00,2016-12-21 15:39:00,4,"rev","act"
"1400EB0021","esuadajw",,,"Sainsburys",,,,"Sainsburys Superstore",,"Broadwater Way",,,,"o/s",,"S","E0010502","Hampden Park","Eastbourne",,,,,,0,"U",560694,101737,0.27863336834,50.7929304164,"BCT","MKD","PTP",,,,"079",2006-11-21 00:00:00,2011-04-01 11:44:00,2,"rev","act"
"1400EB0089","esuadgtm",,,"Woodland Avenue",,,,"Woodland Avenue",,"King's Drive",,,,"opp",,"W","E0010509","Willingdon","Eastbourne",,,,,,0,"U",559413,101749,0.26047831249,50.7933916781,"BCT","MKD","OTH",,,,"079",2005-08-08 00:00:00,2018-03-06 12:34:00,4,"rev","act"
"1400EB0074","esuadgmj",,,"Coopers Hill",,,,"Willingdon Road",,"Coopers Hill",,,,"N-bound",,"N","E0010509","Willingdon","Eastbourne",,,,,,0,"U",558630,102851,0.24985339274,50.8035084664,"BCT","MKD","OTH",,,,"079",2005-08-08 00:00:00,2017-01-17 14:40:00,3,"rev","act"
"1400EB0013","esuadagt",,,"Greenfield Road",,,,"Greenfield Road",,"Green Street",,,,"opp",,"NW","E0010505","Old Town","Eastbourne",,,,,,0,"U",559551,99474,0.26144806481,50.7729115901,"BCT","MKD","OTH",,,,"079",2005-08-08 00:00:00,2010-08-18 11:09:00,2,"rev","act"
"1400EB0014","esuadagw",,,"Motcombe Road",,,,"Salehurst Road",,"Green Street",,,,"adj",,"SE","E0010505","Old Town","Eastbourne",,,,,,0,"U",559500,99597,0.26077866139,50.7740308314,"BCT","MKD","OTH",,,,"079",2005-08-08 00:00:00,2006-12-20 11:39:00,1,"rev","act"
"1400EB0110","esuadjdp",,,"Kings Drive",,"Kings Drive",,"Kings Drive",,"Decoy Drive",,,,"nr",,"NE","E0010502","Hampden Park","Eastbourne",,,,,,0,"U",559631,101776,0.26358057233,50.7935743393,"BCT","MKD","OTH",,,,"079",2005-08-08 00:00:00,2010-08-12 16:52:00,3,"rev","act"
"1400EB0111","esuadjdt",,,"Park Gates",,"Park Gates",,"Hampden Park Drive",,"Decoy Drive",,,,"adj",,"SW","E0010502","Hampden Park","Eastbourne",,,,,,0,"U",559767,101877,0.26555250776,50.7944444363,"BCT","MKD","TIP",,,,"079",2005-08-08 00:00:00,2010-08-12 16:54:00,2,"rev","act"
"1400EB0016","esuadajd",,,"Broomfield Street",,,,"Broomfield Street",,"Green Street",,,,"adj",,"NW","E0010505","Old Town","Eastbourne",,,,,,0,"U",559389,99771,0.25928103491,50.7756248123,"BCT","MKD","TIP",,,,"079",2005-08-08 00:00:00,2017-01-11 12:46:00,4,"rev","act"
"1400EB0020","esuadajt",,,"Albert Parade",,,,"Milton Road",,"Green Street",,,,"adj",,"SE","E0010505","Old Town","Eastbourne",,,,,,0,"U",559147,100024,0.25596094589,50.7779645713,"BCT","MKD","TIP",,,,"079",2006-11-21 00:00:00,2017-01-11 13:49:00,3,"rev","act"
"1400EB0048","esuadawp",,,"Golf Club",,,,"Southdown Road",,"Victoria Drive",,,,"adj",,"NE","E0010509","Willingdon","Eastbourne",,,,,,0,"U",559117,101161,0.2560275424,50.7881894214,"BCT","MKD","OTH",,,,"079",2006-11-21 00:00:00,2018-03-06 12:21:00,2,"rev","act"
"1400EB0062","esuadgdt",,,"Wish Hill",,,,"Willingdon Roundabout",,"Willingdon Road",,,,"adj",,"N","E0010509","Willingdon","Eastbourne",,,,,,0,"U",559117,101768,0.25629019208,50.7936436706,"BCT","MKD","OTH",,,,"079",2006-11-21 00:00:00,2018-03-06 12:29:00,2,"rev","act"
"1400EB0113","esuadjga",,,"Dene Drive",,"Dene Drive",,"Dene Drive",,"Willingdon Park Drive",,,,"opp",,"S","E0010502","Hampden Park","Eastbourne",,,,,,0,"U",559611,102237,0.26349718446,50.7977221726,"BCT","MKD","PTP",,,,"079",2006-11-21 00:00:00,2010-08-12 17:05:00,1,"rev","act"
"1400EB0114","esuadjgd",,,"Dene Drive",,"Dene Drive",,"Dene Drive",,"Willingdon Park Drive",,,,"adj",,"N","E0010502","Hampden Park","Eastbourne",,,,,,0,"U",559583,102260,0.26311018329,50.7979365443,"BCT","MKD","PPT",,,,"079",2006-11-21 00:00:00,2010-08-12 17:09:00,1,"rev","act"
"1400EB0006","esuadadt",,,"Longland Road",,,,"Northiam Road",,"Longland Road",,,,"SE-bound",,"SE","E0010505","Old Town","Eastbourne",,,,,,0,"U",559027,99659,0.25410256667,50.7747177116,"BCT","MKD","OTH",,,,"079",2005-08-08 00:00:00,2017-01-11 12:51:00,2,"rev","act"
"1400EB0007","esuadadw",,,"Osborne Road",,,,"29",,"Osborne Road",,,,"o/s 29",,"SW","E0010505","Old Town","Eastbourne",,,,,,0,"U",558890,99574,0.25212441517,50.7739914487,"BCT","MKD","OTH",,,,"079",2005-08-08 00:00:00,2010-08-18 10:57:00,2,"rev","act"
"1400EB0065","esuadgjd",,,"Walnut Tree Walk",,,,"Walnut Tree Walk",,"Wish Hill",,,,"adj",,"N","E0010509","Willingdon","Eastbourne",,,,,,0,"U",559064,101701,0.25550982973,50.7930561718,"BCT","MKD","OTH",,,,"079",2005-08-08 00:00:00,2018-03-06 12:24:00,4,"rev","act"
"1400EB0061","esuadgdp",,,"Wish Hill",,,,"Willingdon Roundabout",,"Willingdon Road",,,,"opp",,"S","E0010509","Willingdon","Eastbourne",,,,,,0,"U",559135,101777,0.25654927195,50.7937196032,"BCT","MKD","OTH",,,,"079",2006-11-21 00:00:00,2018-03-06 12:30:00,2,"rev","act"
"1400EB0119","esuadjgw",,,"The Broadway",,"The Broadway",,"Parkfield PH",,"Lindfield Road",,,,"opp",,"S","E0010502","Hampden Park","Eastbourne",,,,,,0,"U",559848,102450,0.26695001318,50.7995708174,"BCT","MKD","PTP",,,,"079",2005-08-08 00:00:00,2010-08-12 17:37:00,4,"rev","act"
"1400EB0120","esuadjma",,,"The Broadway",,"The Broadway",,"Parkfield PH",,"Lindfield Road",,,,"adj",,"N","E0010502","Hampden Park","Eastbourne",,,,,,0,"U",559841,102413,0.26683467233,50.799240283,"BCT","MKD","PPT",,,,"079",2005-08-08 00:00:00,2010-08-12 17:24:00,2,"rev","act"
"1400EB0008","esuadaga",,,"Osborne Road",,,,"30",,"Osborne Road",,,,"o/s 30",,"NE","E0010505","Old Town","Eastbourne",,,,,,0,"U",558855,99573,0.25162799784,50.773992042,"BCT","MKD","OTH",,,,"079",2005-08-08 00:00:00,2010-08-18 10:58:00,3,"rev","act"
"1400EB0009","esuadagd",,,"Sancroft Road",,,,"48",,"Sancroft Road",,,,"o/s 48",,"SE","E0010505","Old Town","Eastbourne",,,,,,0,"U",558814,99389,0.25096760051,50.7723499021,"BCT","MKD","TIP",,,,"079",2005-08-08 00:00:00,2010-08-18 11:00:00,2,"rev","act"
"1400EB0066","esuadgjg",,,"Walnut Tree Walk",,,,"Walnut Tree Walk",,"Wish Hill",,,,"opp",,"S","E0010509","Willingdon","Eastbourne",,,,,,0,"U",559069,101731,0.25559369227,50.7933243683,"BCT","MKD","OTH",,,,"079",2005-08-08 00:00:00,2018-03-06 12:24:00,3,"rev","act"
"1400EB0067","esuadgjm",,,"Wedderburn Road",,,,"Upper Wish Hill",,"Wish Hill",,,,"opp",,"SE","E0010509","Willingdon","Eastbourne",,,,,,0,"U",558905,102022,0.25339446453,50.7959841238,"BCT","MKD","OTH",,,,"079",2005-08-08 00:00:00,2018-03-06 12:26:00,2,"rev","act"
"1400EB0121","esuadjmd",,,"Meadowlands Avenue",,"Meadowlands Avenue",,"Meadowlands Avenue",,"Lindfield Road",,,,"adj",,"N","E0010502","Hampden Park","Eastbourne",,,,,,0,"U",559816,102142,0.26636238451,50.7968120995,"BCT","MKD","TIP",,,,"079",2006-12-05 00:00:00,2010-08-13 11:16:00,2,"rev","act"
"1400EB0010","esuadagj",,,"Manvers Road",,,,"Cherry Garden Road",,"Manvers Road",,,,"o/s 12",,"N","E0010505","Old Town","Eastbourne",,,,,,0,"U",558784,99234,0.25047562942,50.7709653328,"BCT","MKD","TIP",,,,"079",2005-08-08 00:00:00,2010-08-18 11:01:00,3,"rev","act"
"1400EB0011","esuadagm",,,"Peppercombe Road",,,,"o/s 146",,"Cherry Garden Road",,,,"nr",,"N","E0010505","Old Town","Eastbourne",,,,,,0,"U",558713,99503,0.24958552776,50.7734018879,"BCT","MKD","PTP",,,,"079",2005-08-08 00:00:00,2011-04-04 09:56:00,4,"rev","act"
"1400EB0122","esuadjmg",,,"Meadowlands Avenue",,"Meadowlands Avenue",,"Meadowlands Avenue",,"Lindfield Road",,,,"opp",,"SW","E0010502","Hampden Park","Eastbourne",,,,,,0,"U",559803,102095,0.26615764209,50.7963933621,"BCT","MKD","TIP",,,,"079",2006-12-05 00:00:00,2010-08-13 11:15:00,1,"rev","act"
"1400EB0068","esuadgjp",,,"Wedderburn Road",,,,"Upper Wish Hill",,"Wish Hill",,,,"adj",,"NW","E0010509","Willingdon","Eastbourne",,,,,,0,"U",558876,102023,0.25298374461,50.7960010533,"BCT","MKD","OTH",,,,"079",2005-08-08 00:00:00,2018-03-06 12:25:00,2,"rev","act"
"1400EB0070","esuadgjw",,,"Wish Hill Post Office",,,,"Butts Lane",,"Wish Hill",,,,"opp",,"N","E0010509","Willingdon","Eastbourne",,,,,,0,"U",558690,102324,0.25047663671,50.7987566378,"BCT","MKD","OTH",,,,"079",2005-08-08 00:00:00,2018-03-06 12:32:00,3,"rev","act"
"1400EB0116","esuadjgm",,,"Friston Avenue",,"Friston Avenue",,"Friston Avenue",,"Willingdon Park Drive",,,,"adj",,"N","E0010502","Hampden Park","Eastbourne",,,,,,0,"U",559518,102523,0.26230274373,50.8003176201,"BCT","MKD","TIP",,,,"079",2006-11-21 00:00:00,2010-08-12 17:12:00,1,"rev","act"
"1400EB0012","esuadagp",,,"Greenfield Road",,,,"Bradford Street",,"Green Street",,,,"adj",,"SE","E0010505","Old Town","Eastbourne",,,,,,0,"U",559584,99443,0.26190225528,50.7726239665,"BCT","MKD","TIP",,,,"079",2005-08-08 00:00:00,2015-06-15 15:50:00,3,"rev","act"
"1400EB0170","esuadmja",,,"Youth Hostel",,,,"Youth Hostel",,"East Dean Road",,,,"opp",,"SW","E0010505","Old Town","Eastbourne",,,,,,0,"U",558852,99029,0.25135074626,50.7691046734,"BCT","MKD","OTH",,,,"079",2005-08-08 00:00:00,2017-01-11 13:42:00,4,"rev","act"
"1400EB0115","esuadjgj",,,"Friston Avenue",,,,"Friston Avenue",,"Willingdon Park Drive",,,,"opp",,"S","E0010502","Hampden Park","Eastbourne",,,,,,0,"U",559537,102489,0.26255738395,50.8000068858,"BCT","MKD","TIP",,,,"079",2006-11-21 00:00:00,2010-08-12 17:10:00,1,"rev","act"
"1400EB0117","esuadjgp",,,"Lindfield Road",,"Lindfield Road",,"Lindfield Road",,"Brodrick Road",,,,"adj",,"W","E0010502","Hampden Park","Eastbourne",,,,,,0,"U",559739,102676,0.26550277072,50.8016315746,"BCT","MKD","OTH",,,,"079",2006-11-21 00:00:00,2011-06-07 12:03:00,3,"rev","act"
"1400EB0171","esuadmjd",,,"Youth Hostel",,,,"Youth Hostel",,"East Dean Road",,,,"adj",,"NE","E0010505","Old Town","Eastbourne",,,,,,0,"U",558850,99046,0.25132974166,50.7692579766,"BCT","MKD","OTH",,,,"079",2005-08-08 00:00:00,2017-01-11 13:43:00,4,"rev","act"
"1400EB0019","esuadajp",,,"Albert Parade",,,,"Victoria Gardens",,"Victoria Drive",,,,"opp",,"S","E0010505","Old Town","Eastbourne",,,,,,0,"U",559152,99975,0.25601061565,50.7775229056,"BCT","MKD","TIP",,,,"079",2006-11-21 00:00:00,2017-01-11 13:50:00,6,"rev","act"
"1400EB0073","esuadgmg",,,"Coopers Hill",,,,"Willingdon Road",,"Coopers Hill",,,,"S-bound",,"S","E0010509","Willingdon","Eastbourne",,,,,,0,"U",558661,102813,0.25027656449,50.8031585326,"BCT","MKD","OTH",,,,"079",2005-08-08 00:00:00,2006-12-07 10:01:00,1,"rev","act"
"1400EB0072","esuadgmd",,,"Chalk Farm Hotel",,,,"Tas Combe Way",,"Coopers Hill",,,,"opp",,"S","E0010509","Willingdon","Eastbourne",,,,,,0,"U",558673,102483,0.2503042427,50.8001900004,"BCT","MKD","OTH",,,,"079",2005-08-08 00:00:00,2018-03-06 12:11:00,3,"rev","act"
"1400EB0118","esuadjgt",,,"Brodrick Road",,"Brodrick Road",,"Brodrick Road",,"Lindfield Road",,,,"nr",,"S","E0010502","Hampden Park","Eastbourne",,,,,,0,"U",559794,102674,0.26628175927,50.8015984514,"BCT","MKD","TIP",,,,"079",2006-11-21 00:00:00,2011-06-07 12:04:00,3,"rev","act"
"1400EB0149","esuadmad",,,"Freeman Avenue",,"Freeman Avenue",,"Glynde Ave",,"Brodrick Road",,,,"adj",,"N","E0010502","Hampden Park","Eastbourne",,,,,,0,"U",560525,102517,0.27657814172,50.7999858565,"BCT","MKD","OTH",,,,"079",2006-11-21 00:00:00,2010-08-13 10:35:00,1,"rev","act"
"1400EB0177","esuadmpa",,,"The Lamb",,,,"Waitrose",,"High Street",,,,"opp",,"W","E0010505","Old Town","Eastbourne",,,,,,0,"U",559964,99435,0.26728355638,50.7724474972,"BCT","MKD","PTP",,,,"079",2006-11-21 00:00:00,2010-08-18 11:40:00,2,"rev","act"
"1400EB0178","esuadmpd",,,"The Lamb",,,,"Waitrose",,"High Street",,,,"adj",,"E","E0010505","Old Town","Eastbourne",,,,,,0,"U",560027,99446,0.26818107327,50.7725289751,"BCT","MKD","PTP",,,,"079",2006-11-21 00:00:00,2010-08-18 11:43:00,3,"rev","act"
"1400EB0150","esuadmag",,,"Brodrick Close",,,,"RTI",,"Brodrick Road",,,,"opp",,"N","E0010502","Hampden Park","Eastbourne",,,,,,0,"U",560535,102264,0.27660942891,50.7977097713,"BCT","MKD","PTP",,,,"079",2005-08-08 00:00:00,2010-08-13 11:27:00,2,"rev","act"
"1400EB0151","esuadmaj",,,"Hampden Avenue",,,,"Hampden Avenue",,"Mountfield Road",,,,"opp",,"SW","E0010502","Hampden Park","Eastbourne",,,,,,0,"U",560828,102240,0.28075305808,50.7974129504,"BCT","MKD","TIP",,,,"079",2005-08-08 00:00:00,2016-12-21 15:30:00,3,"rev","act"
"1400EB0179","esuadmpg",,,"The Goffs",,,,"25",,"The Goffs",,,,"o/s 25",,"W","E0010505","Old Town","Eastbourne",,,,,,0,"U",560204,99401,0.27066965013,50.772075808,"BCT","MKD","OTH",,,,"079",2005-08-08 00:00:00,2010-08-18 11:46:00,3,"rev","act"
"1400EB0181","esuadmpm",,,"Southfields Road",,,,"Southfields Road",,"The Goffs",,,,"adj",,"W","E0010505","Old Town","Eastbourne",,,,,,0,"U",560474,99338,0.27446814888,50.7714351497,"BCT","MKD","OTH",,,,"079",2005-08-08 00:00:00,2010-08-18 11:50:00,3,"rev","act"
"1400EB0087","esuadgtg",,,"Church Street",,,,"Amberley Road",,"Willingdon Road",,,,"NW-bound",,"NW","E0010509","Willingdon","Eastbourne",,,,,,0,"U",559042,102407,0.25550337671,50.7994060234,"BCT","MKD","TIP",,,,"079",2005-08-08 00:00:00,2018-03-06 12:12:00,4,"rev","act"
"1400EB0063","esuadgdw",,,"Garnet Drive",,,,"Garnet Drive",,"Willingdon Road",,,,"adj",,"N","E0010509","Willingdon","Eastbourne",,,,,,0,"U",559156,101358,0.25666563189,50.7899488845,"BCT","MKD","OTH",,,,"079",2006-11-21 00:00:00,2018-03-06 12:19:00,2,"rev","act"
"1400EB0146","esuadjwm",,,"Pulborough Avenue",,,,"School",,"Brodrick Road",,,,"adj",,"NW","E0010502","Hampden Park","Eastbourne",,,,,,0,"U",560476,102751,0.27598556422,50.8021020111,"BCT","MKD","TIP",,,,"079",2006-11-21 00:00:00,2010-08-13 11:22:00,1,"rev","act"
"1400EB0147","esuadjwp",,,"Pulborough Avenue",,,,"School",,"Brodrick Road",,,,"opp",,"SE","E0010502","Hampden Park","Eastbourne",,,,,,0,"U",560510,102734,0.27646023475,50.8019398491,"BCT","MKD","OTH",,,,"079",2006-11-21 00:00:00,2010-08-13 11:23:00,1,"rev","act"
"1400EB0064","esuadgja",,,"Garnet Drive",,,,"Garnet Drive",,"Willingdon Road",,,,"opp",,"S","E0010509","Willingdon","Eastbourne",,,,,,0,"U",559175,101324,0.25692025573,50.7896381623,"BCT","MKD","TIP",,,,"079",2006-11-21 00:00:00,2018-03-06 12:19:00,3,"rev","act"
"1400EB75155","esuagjtj",,,"Coopers Hill",,,,"Coopers Hill",,"Willingdon Road",,,,"opp",,"SE","E0010509","Willingdon","Eastbourne",,,,,,0,"U",558679,102830,0.25053914268,50.8033063627,"BCT","MKD","OTH",,,,"079",2006-11-21 00:00:00,2018-03-06 12:16:00,1,"rev","act"
"1400EB0172","esuadmjg",,,"Cherry Garden Road",,,,"Upland Road",,"East Dean Road",,,,"opp",,"SW","E0010505","Old Town","Eastbourne",,,,,,0,"U",559237,99171,0.25686742178,50.7702751664,"BCT","MKD","OTH",,,,"079",2005-08-08 00:00:00,2009-02-25 14:10:00,2,"rev","act"
"1400EB0174","esuadmjp",,,"Summerdown Road",,,,"Traffic Lights",,"East Dean Road",,,,"adj",,"SW","E0010505","Old Town","Eastbourne",,,,,,0,"U",559408,99267,0.25933203007,50.7710908572,"BCT","MKD","TIP",,,,"079",2005-08-08 00:00:00,2010-08-18 11:32:00,2,"rev","act"
"1400EB0148","esuadjwt",,,"Freeman Avenue",,"Freeman Avenue",,"Glynde Ave",,"Brodrick Road",,,,"opp",,"S","E0010502","Hampden Park","Eastbourne",,,,,,0,"U",560537,102533,0.27675527402,50.800126302,"BCT","MKD","OTH",,,,"079",2006-11-21 00:00:00,2010-08-13 10:35:00,1,"rev","act"
"1400EB0154","esuadmat",,,"Frenchgate Road",,,,"Frenchgate Road",,"Lottbridge Drive",,,,"opp",,"N","E0010502","Hampden Park","Eastbourne",,,,,,0,"U",560713,102527,0.27924809451,50.8000236446,"BCT","MKD","OTH",,,,"079",2005-08-08 00:00:00,2006-12-18 22:11:00,1,"rev","act"
"1400EB0069","esuadgjt",,,"Wish Hill Post Office",,,,"Butts Lane",,"Wish Hill",,,,"o/s",,"SE","E0010509","Willingdon","Eastbourne",,,,,,0,"U",558741,102286,0.25118333012,50.7984012286,"BCT","MKD","OTH",,,,"079",2005-08-08 00:00:00,2015-07-20 08:43:00,2,"rev","act"
"1400EB0047","esuadawm",,,"Golf Club",,,,"Farlaine Road",,"Victoria Drive",,,,"opp",,"S","E0010509","Willingdon","Eastbourne",,,,,,0,"U",559096,101088,0.25569828411,50.7875392319,"BCT","MKD","OTH",,,,"079",2006-11-21 00:00:00,2018-03-06 12:22:00,3,"rev","act"
"1400EB0175","esuadmjt",,,"Tally Ho",,,,"Letheren Place",,"Church Street",,,,"adj",,"NE","E0010505","Old Town","Eastbourne",,,,,,0,"U",559557,99375,0.26149017757,50.7720203687,"BCT","MKD","OTH",,,,"079",2005-08-08 00:00:00,2010-08-25 15:15:00,3,"rev","act"
"1400EB0176","esuadmjw",,,"Tally Ho",,,,"Tally Ho! PH",,"Church Street",,,,"opp",,"SW","E0010505","Old Town","Eastbourne",,,,,,0,"U",559564,99362,0.26158373504,50.7719016322,"BCT","MKD","TIP",,,,"079",2005-08-08 00:00:00,2010-08-25 15:16:00,4,"rev","act"
"1400EB0152","esuadmam",,,"Brassey Parade",,,,"Shops",,"Brassey Avenue",,,,"adj",,"E","E0010502","Hampden Park","Eastbourne",,,,,,0,"U",560581,102192,0.27723016158,50.7970500857,"BCT","MKD","PPT",,,,"079",2005-08-08 00:00:00,2011-04-01 11:50:00,5,"rev","act"
"1400EB0153","esuadmap",,,"Mountfield Road",,,,"Hampden Avenue",,"Lottbridge Drive",,,,"adj",,"NW","E0010502","Hampden Park","Eastbourne",,,,,,0,"U",560823,102320,0.28071716999,50.7981331705,"BCT","MKD","TIP",,,,"079",2005-08-08 00:00:00,2010-08-13 11:44:00,3,"rev","act"
"1400WE0176","esuawgwp",,,"Willingdon Community School",,,,"Willingdon Community School",,"Broad Road",,,,"o/s",,"NE","E0010509","Willingdon","Eastbourne",,,,,,0,"U",557928,103625,0.24023171724,50.8106549742,"BCT","MKD","OTH",,,,"079",2006-11-21 00:00:00,2018-03-06 12:15:00,3,"rev","act"
"1400EB0180","esuadmpj",,,"The Goffs",,,,"44",,"The Goffs",,,,"o/s 44",,"E","E0010505","Old Town","Eastbourne",,,,,,0,"U",560245,99404,0.27125193642,50.7720914487,"BCT","MKD","OTH",,,,"079",2005-08-08 00:00:00,2010-08-18 11:48:00,2,"rev","act"
"1400EB0005","esuadadp",,,"Longland Road",,,,"Broomfield Street",,"Longland Road",,,,"NW-bound",,"NW","E0010505","Old Town","Eastbourne",,,,,,0,"U",559033,99614,0.25416815086,50.7743117149,"BCT","MKD","TIP",,,,"079",2005-08-08 00:00:00,2017-01-11 12:50:00,4,"rev","act"
"1400EB0159","esuadmdm",,,"Sackville Road",,,,"Sackville Road",,"Kingston Road",,,,"opp",,"NE","E0010502","Hampden Park","Eastbourne",,,,,,0,"U",560809,102712,0.28069018823,50.801659336,"BCT","MKD","OTH",,,,"079",2005-08-08 00:00:00,2010-08-13 11:44:00,3,"rev","act"
"1400EB0160","esuadmdp",,,"The Hydneye",,"Benjamin Close",,"Midhurst Road",,"Cade Street",,,,"nr",,"SE","E0010502","Hampden Park","Eastbourne",,,,,,0,"U",560981,102777,0.28315746387,50.8021956671,"BCT","MKD","PTP",,,,"079",2005-08-08 00:00:00,2010-08-13 11:48:00,2,"rev","act"
"1400EB0161","esuadmdt",,,"Knoll Crescent",,,,"Frenchgate Road",,"The Hydneye",,,,"adj",,"SW","E0010502","Hampden Park","Eastbourne",,,,,,0,"U",560966,102540,0.28284097261,50.8000702907,"BCT","MKD","OTH",,,,"079",2005-08-08 00:00:00,2011-04-04 09:21:00,2,"rev","act"
"1400EB0112","esuadjdw",,,"Stanmer Drive",,"Stanmer Drive",,"Stanmer Drive",,"Willingdon Park Drive",,,,"adj",,"NW","E0010502","Hampden Park","Eastbourne",,,,,,0,"U",559747,101976,0.26531198314,50.795339511,"BCT","MKD","TIP",,,,"079",2006-11-21 00:00:00,2016-12-21 15:45:00,3,"rev","act"
"1400EB0173","esuadmjm",,,"Cherry Garden Road",,,,"Longland Road",,"East Dean Road",,,,"adj",,"NE","E0010505","Old Town","Eastbourne",,,,,,0,"U",559320,99231,0.25806948353,50.7707915318,"BCT","MKD","OTH",,,,"079",2005-08-08 00:00:00,2017-01-11 12:49:00,2,"rev","act"
"1400EB0015","esuadaja",,,"Broomfield Street",,,,"Charleston Road",,"Green Street",,,,"opp",,"SE","E0010505","Old Town","Eastbourne",,,,,,0,"U",559428,99728,0.25981509486,50.7752277219,"BCT","MKD","TIP",,,,"079",2005-08-08 00:00:00,2017-01-11 12:45:00,3,"rev","act"
"1400EB0304","esuadtpd",,,"Carroll Walk",,,,"Jerome Close",,"The Rising",,,,"adj",,"SW","E0010503","Langney","Eastbourne",,,,,,0,"U",563005,102826,0.31187752392,50.8020705647,"BCT","MKD","TIP",,,,"079",2005-08-08 00:00:00,2010-08-16 12:17:00,4,"rev","act"
"1400EB0298","esuadtmt",,,"Chaffinch Road",,,,"Chaffinch Road",,"Sevenoaks Road",,,,"opp",,"W","E0010503","Langney","Eastbourne",,,,,,0,"U",562269,102578,0.30133227791,50.8000486255,"BCT","MKD","OTH",,,,"079",2005-08-08 00:00:00,2010-10-04 15:35:00,4,"del","del"
"1400EB75073","esuagjam",,,"Five Acre Field",,,,"Five Acre Field",,"Lottbridge Drove",,,,"opp",,"NW","E0010506","Roselands","Eastbourne",,,,,,0,"U",562795,100948,0.30806841228,50.7852552513,"BCT","MKD","PTP",,,,"079",2005-08-08 00:00:00,2018-01-24 09:30:00,4,"rev","act"
"1400EB0427","esuagawm",,,"Horsye Road",,,,"Horsye Road",,"Bridgemere Road",,,,"adj",,"NE","E0010506","Roselands","Eastbourne",,,,,,0,"U",561664,101007,0.29206355066,50.7861015947,"BCT","MKD","OTH",,,,"079",2006-11-21 00:00:00,2018-01-24 09:34:00,1,"rev","act"
"1400EB0300","esuadtmw",,,"Linnet Close",,,,"Linnet Close",,"Kingfisher Drive",,,,"opp",,"N","E0010503","Langney","Eastbourne",,,,,,0,"U",562128,102611,0.29934767666,50.8003845743,"BCT","MKD","TIP",,,,"079",2005-08-08 00:00:00,2010-08-16 11:35:00,3,"rev","act"
"1400EB0302","esuadtpa",,,"Shopping Centre",,,,"Kingfisher Drive",,"Shopping centre",,,,"outside",,"W","E0010503","Langney","Eastbourne",,,,,,0,"U",562350,102963,0.30265080933,50.803485288,"BCT","MKD","PTP",,,,"079",2005-08-08 00:00:00,2018-03-20 08:57:00,6,"del","del"
"1400EB0442","esuagdgt",,,"Fire Station",,,,"Chawbrook Road",,"Whitley Road",,,,"o/s",,"SW","E0010506","Roselands","Eastbourne",,,,,,0,"U",561594,99950,0.29060711501,50.7766235444,"BCT","MKD","TIP",,,,"079",2005-08-08 00:00:00,2018-01-24 09:20:00,3,"rev","act"
"1400EB0422","esuagatw",,,"Southbourne Road",,,,"Hudson Court",,"Churchdale Road",,,,"opp",,"NW","E0010506","Roselands","Eastbourne",,,,,,0,"U",562098,100726,0.29809134557,50.7834556363,"BCT","MKD","OTH",,,,"079",2006-11-21 00:00:00,2018-01-24 09:40:00,2,"rev","act"
"1400EB0309","esuadtpw",,,"Shelley Walk",,,,"Shelley Walk",,"Priory Road",,,,"adj",,"N","E0010503","Langney","Eastbourne",,,,,,0,"U",563460,102842,0.31833602537,50.802086256,"BCT","MKD","TIP",,,,"079",2005-08-08 00:00:00,2016-12-22 12:50:00,3,"rev","act"
"1400EB0310","esuadtwa",,,"Shelley Walk",,,,"Shelley Walk",,"Priory Road",,,,"opp",,"S","E0010503","Langney","Eastbourne",,,,,,0,"U",563473,102855,0.31852613337,50.8021993988,"BCT","MKD","TIP",,,,"079",2005-08-08 00:00:00,2010-08-16 12:31:00,3,"rev","act"
"1400EB75075","esuagjap",,,"Five Acre Field",,,,"Five Acre Field",,"Lottbridge Drove",,,,"adj",,"SE","E0010506","Roselands","Eastbourne",,,,,,0,"U",562771,100994,0.30774859449,50.7856753065,"BCT","MKD","PTP",,,,"079",2005-08-08 00:00:00,2018-01-24 09:29:00,4,"rev","act"
"1400EB0434","esuagdap",,,"Ringwood Road",,,,"Ringwood Road",,"St Philip's Avenue",,,,"just after",,"SW","E0010506","Roselands","Eastbourne",,,,,,0,"U",561721,100183,0.29250927791,50.7786817669,"BCT","MKD","TIP",,,,"079",2005-08-08 00:00:00,2018-01-24 09:37:00,5,"rev","act"
"1400EB0311","esuadtwd",,,"Spring Lodge Close",,,,"Netherfield Avenue",,"Priory Road",,,,"opp",,"S","E0010503","Langney","Eastbourne",,,,,,0,"U",563482,102642,0.31855899327,50.8002830192,"BCT","MKD","TIP",,,,"079",2005-08-08 00:00:00,2010-08-16 12:34:00,4,"rev","act"
"1400EB0313","esuadtwj",,,"Netherfield Avenue",,,,"21",,"Netherfield Avenue",,,,"opp 21",,"W","E0010503","Langney","Eastbourne",,,,,,0,"U",563621,102612,0.32051642077,50.799974265,"BCT","MKD","OTH",,,,"079",2005-08-08 00:00:00,2010-08-16 12:57:00,2,"rev","act"
"1400EB0435","esuagdat",,,"Ringwood Road",,,,"Ringwood Road",,"St Philip's Avenue",,,,"just before",,"NE","E0010506","Roselands","Eastbourne",,,,,,0,"U",561705,100187,0.29228428301,50.7787221664,"BCT","MKD","TIP",,,,"079",2005-08-08 00:00:00,2018-01-24 09:38:00,5,"rev","act"
"1400EB0436","esuagdaw",,,"St Philip's Place",,,,"St Philip's Place",,"St Philip's Avenue",,,,"adj",,"NE","E0010506","Roselands","Eastbourne",,,,,,0,"U",561638,100078,0.29128687755,50.7777614226,"BCT","MKD","OTH",,,,"079",2005-08-08 00:00:00,2018-01-24 09:46:00,6,"rev","act"
"1400EB0315","esuadtwp",,,"Tidebrook Gardens",,,,"Garages",,"Telscombe Road",,,,"adj",,"S","E0010503","Langney","Eastbourne",,,,,,0,"U",563828,102526,0.32341296976,50.7991431054,"BCT","MKD","OTH",,,,"079",2005-08-08 00:00:00,2006-12-20 16:58:00,1,"rev","act"
"1400EB0314","esuadtwm",,,"Netherfield Avenue",,,,"27",,"Netherfield Avenue",,,,"o/s 27",,"E","E0010503","Langney","Eastbourne",,,,,,0,"U",563655,102630,0.32100649436,50.8001264047,"BCT","MKD","OTH",,,,"079",2005-08-08 00:00:00,2010-08-16 12:57:00,2,"rev","act"
"1400EB0238","esuadpmd",,,"Sovereign Centre",,,,"Monarch House",,"Royal Parade",,,,"opp",,"N","E0010506","Roselands","Eastbourne",,,,,,0,"U",563106,100596,0.31232040991,50.78200511,"BCT","MKD","OTH",,,,"079",2006-11-21 00:00:00,2018-01-24 09:42:00,2,"rev","act"
"1400EB0443","esuagdgw",,,"Dursley Road",,,,"Cavendish Avenue",,"Firle Road",,,,"adj",,"NW","E0010506","Roselands","Eastbourne",,,,,,0,"U",561555,99777,0.28997848933,50.7750799272,"BCT","MKD","OTH",,,,"079",2005-08-08 00:00:00,2018-01-24 09:18:00,4,"rev","act"
"1400EB0326","esuadwdj",,,"Trossachs Close",,,,"Trossachs Close",,"Pennine Way",,,,"adj",,"NW","E0010503","Langney","Eastbourne",,,,,,0,"U",562662,103519,0.3073209367,50.8083936481,"BCT","MKD","OTH",,,,"079",2005-08-08 00:00:00,2006-12-20 16:50:00,1,"rev","act"
"1400EB0327","esuadwdm",,,"Friday Street",,,,"Friday Street",,"Pennine Way",,,,"NE-bound",,"NE","E0010503","Langney","Eastbourne",,,,,,0,"U",562281,103461,0.3018923844,50.807979269,"BCT","MKD","OTH",,,,"079",2005-08-08 00:00:00,2006-12-20 14:24:00,1,"rev","act"
"1400EB0242","esuadpmt",,,"Bus Garage",,,,"Bus Garage",,"Birch Road",,,,"adj",,"SE","E0010506","Roselands","Eastbourne",,,,,,0,"U",562445,101434,0.30332219487,50.7897201933,"BCT","MKD","PTP",,,,"079",2005-08-08 00:00:00,2010-08-18 16:12:00,3,"rev","act"
"1400EB0243","esuadpmw",,,"Hawthorn Road",,,,"Nissan Garage",,"Hawthorn Road",,,,"adj",,"NE","E0010506","Roselands","Eastbourne",,,,,,0,"U",562283,101393,0.30100770597,50.7893971325,"BCT","MKD","OTH",,,,"079",2005-08-08 00:00:00,2010-08-18 17:14:00,3,"rev","act"
"1400EB0323","esuadwaw",,,"Brendon Close",,,,"Brendon Close",,"Pennine Way",,,,"opp",,"NW","E0010503","Langney","Eastbourne",,,,,,0,"U",563124,103505,0.3138662619,50.808138055,"BCT","MKD","OTH",,,,"079",2005-08-08 00:00:00,2006-12-20 15:17:00,1,"rev","act"
"1400EB0324","esuadwda",,,"Brendon Close",,,,"Brendon Close",,"Pennine Way",,,,"adj",,"SE","E0010503","Langney","Eastbourne",,,,,,0,"U",563111,103535,0.31369523244,50.8084112683,"BCT","MKD","OTH",,,,"079",2005-08-08 00:00:00,2006-12-20 15:18:00,1,"rev","act"
"1400EB10020","esudjatd",,,"Langney Roundabout South",,,,"Langney Roundabout",,"St Anthony's Avenue",,,,"SW-bound",,"SW","E0010503","Langney","Eastbourne",,,,,,0,"U",563149,101725,0.31343063473,50.7921373503,"BCT","MKD","OTH",,,,"079",2010-06-21 09:50:00,2016-12-22 12:24:00,1,"rev","act"
"1400EB0233","esuadpjm",,,"Desmond Road",,,,"Channel View Road",,"Royal Parade",,,,"adj",,"NE","E0010506","Roselands","Eastbourne",,,,,,0,"U",562732,100172,0.30683222933,50.7783003457,"BCT","MKD","OTH",,,,"079",2005-08-08 00:00:00,2006-12-19 14:42:00,1,"rev","act"
"1400EB0234","esuadpjp",,,"Desmond Road",,,,"Channel View Road",,"Royal Parade",,,,"opp",,"SW","E0010506","Roselands","Eastbourne",,,,,,0,"U",562743,100160,0.30698281196,50.7781894381,"BCT","MKD","OTH",,,,"079",2005-08-08 00:00:00,2006-12-19 14:43:00,1,"rev","act"
"1400EB0325","esuadwdg",,,"Trossachs Close",,,,"Trossachs Close",,"Pennine Way",,,,"opp",,"SE","E0010503","Langney","Eastbourne",,,,,,0,"U",562699,103517,0.30784474328,50.8083652959,"BCT","MKD","OTH",,,,"079",2005-08-08 00:00:00,2006-12-20 16:50:00,1,"rev","act"
"1400EB0319","esuadwaj",,,"Martello Inn",,,,"Martello Inn",,"Langney Rise",,,,"opp",,"NW","E0010503","Langney","Eastbourne",,,,,,0,"U",563016,102283,0.31179265675,50.7971884976,"BCT","MKD","OTH",,,,"079",2005-08-08 00:00:00,2010-08-16 13:15:00,1,"rev","act"
"1400EB0232","esuadpjg",,,"Fishermans Club",,,,"Fishermans Club",,"Royal Parade",,,,"o/s",,"SW","E0010506","Roselands","Eastbourne",,,,,,0,"U",562475,99998,0.30311325307,50.7768089018,"BCT","MKD","OTH",,,,"079",2006-11-21 00:00:00,2006-11-21 00:00:00,0,"new","act"
"1400EB0235","esuadpjt",,,"Car Park",,,,"Car Park",,"Royal Parade",,,,"o/s",,"SW","E0010506","Roselands","Eastbourne",,,,,,0,"U",562952,100344,0.31002618293,50.7797840867,"BCT","MKD","OTH",,,,"079",2006-11-21 00:00:00,2018-01-24 09:12:00,1,"rev","act"
"1400EB0320","esuadwam",,,"Martello Inn",,,,"Martello Inn",,"Langney Rise",,,,"o/s",,"SE","E0010503","Langney","Eastbourne",,,,,,0,"U",563025,102303,0.31192912357,50.7973656726,"BCT","MKD","TIP",,,,"079",2005-08-08 00:00:00,2010-08-16 13:18:00,1,"rev","act"
"1400EB0330","esuadwdw",,,"Priory Road north",,"Priory Road",,"Roundabout",,"Eastbourne Road",,,,"opp",,"NE","E0010503","Langney","Eastbourne",,,,,,0,"U",563245,103504,0.31558168491,50.8080950139,"BCT","MKD","OTH",,,,"079",2006-11-21 00:00:00,2011-06-09 11:58:00,2,"rev","act"
"1400EB0237","esuadpma",,,"Sovereign Centre",,,,"Monarch House",,"Royal Parade",,,,"adj",,"SW","E0010506","Roselands","Eastbourne",,,,,,0,"U",563105,100555,0.31228806095,50.781636996,"BCT","MKD","OTH",,,,"079",2006-11-21 00:00:00,2018-01-24 09:44:00,2,"rev","act"
"1400EB0239","esuadpmg",,,"Golf Club",,,,"Golf Club",,"Lottbridge Road",,,,"adj",,"NW","E0010506","Roselands","Eastbourne",,,,,,0,"U",561592,101754,0.29137123168,50.7928337199,"BCT","MKD","OTH",,,,"079",2005-08-08 00:00:00,2018-01-24 08:47:00,4,"del","del"
"1400EB0278","esuadtga",,,"Asda grounds",,,,"Eastbourne Crumbles Asda",,"Eastbourne Crumbles Asda",,,,"in",,"NW","E0010503","Langney","Eastbourne",,,,,,0,"U",563939,102221,0.32485068989,50.796371272,"BCT","MKD","OTH",,,,"079",2005-08-08 00:00:00,2011-06-09 12:12:00,4,"rev","act"
"1400EB0281","esuadtgj",,,"The Mill",,,,"The Mill",,"Willingdon Drove",,,,"o/s",,"NE","E0010503","Langney","Eastbourne",,,,,,0,"U",561910,102782,0.29633208614,50.8019819655,"BCT","MKD","OTH",,,,"079",2006-11-21 00:00:00,2016-12-22 12:56:00,2,"rev","act"
"1400EB0240","esuadpmj",,,"Golf Club",,,,"Golf Club",,"Lottbridge Drove",,,,"opp",,"SE","E0010506","Roselands","Eastbourne",,,,,,0,"U",561680,101724,0.29260555621,50.7925396397,"BCT","MKD","OTH",,,,"079",2005-08-08 00:00:00,2018-01-24 08:47:00,5,"del","del"
"1400EB0433","esuagdam",,,"Ringwood Close",,,,"Bridge",,"Ringwood Road",,,,"opp",,"NW","E0010506","Roselands","Eastbourne",,,,,,0,"U",561572,100281,0.29044067207,50.779603833,"BCT","MKD","OTH",,,,"079",2006-11-21 00:00:00,2018-01-24 09:36:00,1,"rev","act"
"1400EB0282","esuadtgm",,,"The Mill",,,,"The Mill",,"Willingdon Drove",,,,"opp",,"SW","E0010503","Langney","Eastbourne",,,,,,0,"U",561931,102792,0.29663425243,50.8020659552,"BCT","MKD","OTH",,,,"079",2006-11-21 00:00:00,2006-12-07 10:22:00,1,"rev","act"
"1400EB0294","esuadtmd",,,"Pembury Road Shops",,,,"Pembury Road Shops",,"Sevenoaks Road",,,,"adj",,"SE","E0010503","Langney","Eastbourne",,,,,,0,"U",562672,102419,0.30697578947,50.7985070732,"BCT","MKD","TIP",,,,"079",2006-11-21 00:00:00,2010-08-16 11:30:00,1,"rev","act"
"1400EB0429","esuagawt",,,"Willard Close",,,,"Willard Close",,"Bridgemere Road",,,,"adj",,"NE","E0010506","Roselands","Eastbourne",,,,,,0,"U",561555,100672,0.29037142822,50.7831218512,"BCT","MKD","PPT",,,,"079",2006-11-21 00:00:00,2018-01-24 09:56:00,3,"rev","act"
"1400EB0421","esuagatp",,,"The Archery",,,,"The Archery",,"Churchdale Road",,,,"NW-bound",,"NW","E0010506","Roselands","Eastbourne",,,,,,0,"U",562309,100493,0.30097914106,50.7813030795,"BCT","MKD","OTH",,,,"079",2005-08-08 00:00:00,2018-01-24 09:51:00,4,"rev","act"
"1400EB0284","esuadtgt",,,"Milfoil Drive",,,,"Kingfisher Drive",,"Willingdon Drove",,,,"opp",,"W","E0010503","Langney","Eastbourne",,,,,,0,"U",562246,103091,0.30123266401,50.8046645115,"BCT","MKD","TIP",,,,"079",2006-11-21 00:00:00,2010-10-04 16:03:00,4,"rev","act"
"1400EB0285","esuadtgw",,,"Milfoil Drive",,,,"Kingfisher Drive",,"Willingdon Drove",,,,"adj",,"E","E0010503","Langney","Eastbourne",,,,,,0,"U",562244,103108,0.30121181082,50.8048178209,"BCT","MKD","TIP",,,,"079",2006-11-21 00:00:00,2010-08-13 15:06:00,1,"rev","act"
"1400EB0286","esuadtja",,,"Hide Hollow Roundabout West",,,,"opp Shopping Centre",,"Willingdon Drove",,,,"E-bound",,"E","E0010503","Langney","Eastbourne",,,,,,0,"U",562505,103085,0.30490257378,50.8045380738,"BCT","MKD","OTH",,,,"079",2006-11-21 00:00:00,2011-04-04 12:47:00,3,"rev","act"
"1400EB0287","esuadtjd",,,"Hide Hollow Roundabout West",,,,"adj Shopping Centre",,"Willingdon Drove",,,,"W-bound",,"W","E0010503","Langney","Eastbourne",,,,,,0,"U",562479,103064,0.30452461464,50.8043566692,"BCT","MKD","OTH",,,,"079",2006-11-21 00:00:00,2011-04-04 12:47:00,3,"rev","act"
"1400EB0251","esuadptw",,,"Wallis Avenue",,,,"Seaville Drive",,"St Anthony's Avenue",,,,"opp",,"NE","E0010503","Langney","Eastbourne",,,,,,0,"U",563010,101553,0.3113839345,50.7906309644,"BCT","MKD","OTH",,,,"079",2005-08-08 00:00:00,2006-12-20 17:12:00,1,"rev","act"
"1400EB0252","esuadpwa",,,"Winston Crescent",,,,"Winston Crescent",,"St Anthony's Avenue",,,,"opp",,"SW","E0010503","Langney","Eastbourne",,,,,,0,"U",562911,101379,0.30990348131,50.7890953397,"BCT","MKD","PTP",,,,"079",2005-08-08 00:00:00,2010-08-13 14:28:00,2,"rev","act"
"1400EB0402","esuagama",,,"The Archery",,,,"Churchdale Road",,"Seaside",,,,"adj",,"NE","E0010506","Roselands","Eastbourne",,,,,,0,"U",562362,100517,0.30174088726,50.7815039017,"BCT","MKD","TIP",,,,"079",2005-08-08 00:00:00,2018-01-24 09:50:00,3,"rev","act"
"1400EB0231","esuadpjd",,,"Fishermans Club",,,,"Fishermans Club",,"Royal Parade",,,,"opp",,"NE","E0010506","Roselands","Eastbourne",,,,,,0,"U",562453,99993,0.30279927583,50.7767701331,"BCT","MKD","OTH",,,,"079",2006-11-21 00:00:00,2018-01-24 09:23:00,1,"rev","act"
"1400EB0291","esuadtjt",,,"Faversham Road",,,,"Faversham Road",,"Pembury Road",,,,"adj",,"E","E0010503","Langney","Eastbourne",,,,,,0,"U",562886,102450,0.31002359027,50.7987255545,"BCT","MKD","TIP",,,,"079",2005-08-08 00:00:00,2010-08-16 11:26:00,2,"rev","act"
"1400EB0292","esuadtjw",,,"Faversham Road",,,,"Faversham Road",,"Pembury Road",,,,"opp",,"W","E0010503","Langney","Eastbourne",,,,,,0,"U",562850,102427,0.30950299465,50.7985290034,"BCT","MKD","TIP",,,,"079",2005-08-08 00:00:00,2010-08-16 11:27:00,2,"rev","act"
"1400EB0400","esuagajt",,,"Arlington Arms",,,,"Arlington Arms",,"Seaside",,,,"adj",,"NE","E0010506","Roselands","Eastbourne",,,,,,0,"U",562548,100798,0.30450117779,50.7839767022,"BCT","MKD","PTP",,,,"079",2006-11-21 00:00:00,2018-01-24 08:44:00,4,"rev","act"
"1400EB0230","esuadpja",,,"Beamsley Road",,,,"Beamsley Road",,"Royal Parade",,,,"adj",,"NE","E0010506","Roselands","Eastbourne",,,,,,0,"U",562291,99854,0.30044221858,50.7755664904,"BCT","MKD","OTH",,,,"079",2006-11-21 00:00:00,2018-01-24 08:54:00,2,"rev","act"
"1400EB0297","esuadtmp",,,"Shopping Centre",,,,"Shopping Centre",,"Shopping Centre",,,,"o/s",,"W","E0010503","Langney","Eastbourne",,,,,,0,"U",562339,102960,0.30249351014,50.8034614117,"BCT","MKD","PTP",,,,"079",2005-08-08 00:00:00,2010-08-13 15:21:00,6,"rev","act"
"1400EB0246","esuadptg",,,"Middleton Drive",,,,"Beatty Road",,"Princes Road",,,,"nr",,"N","E0010503","Langney","Eastbourne",,,,,,0,"U",563183,101045,0.31361088892,50.786017834,"BCT","MKD","OTH",,,,"079",2005-08-08 00:00:00,2010-09-21 15:19:00,2,"rev","act"
"1400EB0236","esuadpjw",,,"Car Park",,,,"Car Park",,"Royal Parade",,,,"opp",,"NE","E0010506","Roselands","Eastbourne",,,,,,0,"U",562987,100413,0.31055277362,50.7803942416,"BCT","MKD","OTH",,,,"079",2006-11-21 00:00:00,2018-01-24 09:11:00,1,"rev","act"
"1400EB0241","esuadpmp",,,"Brewers",,,,"Brewers",,"Birch Road",,,,"o/s",,"SW","E0010506","Roselands","Eastbourne",,,,,,0,"U",562574,101211,0.30505222571,50.7876803419,"BCT","MKD","OTH",,,,"079",2005-08-08 00:00:00,2018-01-24 09:03:00,4,"rev","act"
"1400EB0295","esuadtmg",,,"Sidcup Close",,,,"Sidcup Close",,"Sevenoaks Road",,,,"adj",,"SE","E0010503","Langney","Eastbourne",,,,,,0,"U",562534,102495,0.30505284548,50.7992286425,"BCT","MKD","TIP",,,,"079",2006-11-21 00:00:00,2010-08-16 11:30:00,1,"rev","act"
"1400EB0296","esuadtmj",,,"Sidcup Close",,,,"Sidcup Close",,"Sevenoaks Road",,,,"opp",,"NW","E0010503","Langney","Eastbourne",,,,,,0,"U",562505,102494,0.30464123756,50.7992277836,"BCT","MKD","OTH",,,,"079",2006-11-21 00:00:00,2006-11-21 00:00:00,0,"new","act"
"1400EB0446","esuagdjg",,,"Bourne Street",,,,"Bourne Street",,"Cavendish Avenue",,,,"just after",,"N","E0010506","Roselands","Eastbourne",,,,,,0,"U",561521,99495,0.28937293061,50.7725555054,"BCT","MKD","OTH",,,,"079",2005-08-08 00:00:00,2018-01-24 08:58:00,4,"rev","act"
"1400EB0431","esuagdag",,,"Bridgemere Road",,,,"Ringwood Road",,"Bridgemere Road",,,,"o/s 2",,"SW","E0010506","Roselands","Eastbourne",,,,,,0,"U",561365,100480,0.28759426635,50.7814495185,"BCT","MKD","TIP",,,,"079",2006-11-21 00:00:00,2018-01-24 09:09:00,2,"rev","act"
"1400EB0288","esuadtjg",,,"Hide Hollow Roundabout South",,,,"adj Shopping Centre",,"Langney Rise",,,,"N-bound",,"N","E0010503","Langney","Eastbourne",,,,,,0,"U",562596,103014,0.30616151134,50.8038746115,"BCT","MKD","TIP",,,,"079",2005-08-08 00:00:00,2011-04-04 12:47:00,4,"rev","act"
"1400EB0428","esuagawp",,,"Badlesmere Road",,,,"Badlesmere Road",,"Bridgemere Road",,,,"opp",,"S","E0010506","Roselands","Eastbourne",,,,,,0,"U",561617,100768,0.29129235316,50.7839671834,"BCT","MKD","PTP",,,,"079",2006-11-21 00:00:00,2018-01-24 08:46:00,3,"rev","act"
"1400EB0405","esuagamj",,,"Beach Road",,,,"Beach Road",,"Seaside",,,,"opp",,"NE","E0010506","Roselands","Eastbourne",,,,,,0,"U",562195,100183,0.29922679888,50.7785494989,"BCT","MKD","OTH",,,,"079",2005-08-08 00:00:00,2018-01-24 08:52:00,3,"rev","act"
"1400EB0289","esuadtjm",,,"The Rising",,,,"The Rising",,"Langney Rise",,,,"adj",,"SE","E0010503","Langney","Eastbourne",,,,,,0,"U",562896,102651,0.31025445282,50.8005287776,"BCT","MKD","TIP",,,,"079",2005-08-08 00:00:00,2016-12-22 13:41:00,3,"rev","act"
"1400EB0290","esuadtjp",,,"Pensford Drive",,,,"Post Box",,"The Rising",,,,"adj",,"NE","E0010503","Langney","Eastbourne",,,,,,0,"U",562905,102700,0.31040377845,50.8009665258,"BCT","MKD","TIP",,,,"079",2005-08-08 00:00:00,2010-08-16 11:14:00,3,"rev","act"
"1400EB0229","esuadpgw",,,"Beamsley Road",,,,"Beamsley Road",,"Royal Parade",,,,"opp",,"S","E0010506","Roselands","Eastbourne",,,,,,0,"U",562280,99797,0.30026120529,50.7750574019,"BCT","MKD","OTH",,,,"079",2006-11-21 00:00:00,2018-01-24 08:55:00,3,"rev","act"
"1400EB0406","esuagamp",,,"Carlton Road",,,,"Carlton Road",,"Seaside",,,,"adj",,"SW","E0010506","Roselands","Eastbourne",,,,,,0,"U",562148,100060,0.29850652127,50.7774574346,"BCT","MKD","TIP",,,,"079",2005-08-08 00:00:00,2010-08-19 10:28:00,2,"rev","act"
"1400EB0293","esuadtma",,,"Pembury Road Shops",,,,"Pembury Road Shops",,"Sevenoaks Road",,,,"opp",,"NW","E0010503","Langney","Eastbourne",,,,,,0,"U",562680,102395,0.30707859062,50.7982891833,"BCT","MKD","TIP",,,,"079",2006-11-21 00:00:00,2010-08-16 11:29:00,1,"rev","act"
"1400EB0305","esuadtpg",,,"Carroll Walk",,,,"Jerome Close",,"The Rising",,,,"opp",,"NE","E0010503","Langney","Eastbourne",,,,,,0,"U",563009,102871,0.31195420046,50.8024737751,"BCT","MKD","TIP",,,,"079",2005-08-08 00:00:00,2010-08-16 12:16:00,3,"rev","act"
"1400EB0399","esuagajp",,,"Alexandra Arms",,,,"Alexandra Arms",,"Seaside",,,,"adj",,"SW","E0010506","Roselands","Eastbourne",,,,,,0,"U",562600,100850,0.30526118486,50.7844293687,"BCT","MKD","PTP",,,,"079",2006-11-21 00:00:00,2010-08-18 17:26:00,2,"rev","act"
"1400EB0401","esuagajw",,,"Winchelsea Road",,,,"Southbourne Road",,"Seaside",,,,"adj",,"SW","E0010506","Roselands","Eastbourne",,,,,,0,"U",562505,100707,0.30385151854,50.7831710836,"BCT","MKD","TIP",,,,"079",2005-08-08 00:00:00,2010-08-18 17:32:00,2,"rev","act"
"1400EB0306","esuadtpj",,,"Dickens Way",,,,"Dickens Way",,"The Rising",,,,"adj",,"NE","E0010503","Langney","Eastbourne",,,,,,0,"U",563200,103125,0.3147752014,50.8047022946,"BCT","MKD","TIP",,,,"079",2005-08-08 00:00:00,2010-08-16 12:19:00,2,"rev","act"
"1400EB0307","esuadtpm",,,"Dickens Way",,,,"Dickens Way",,"The Rising",,,,"opp",,"SW","E0010503","Langney","Eastbourne",,,,,,0,"U",563275,103167,0.31585734058,50.8050585591,"BCT","MKD","TIP",,,,"079",2005-08-08 00:00:00,2010-08-16 12:21:00,2,"rev","act"
"1400EB0407","esuagamt",,,"Whitley Recreation Ground",,"Whitley Rec",,"Whitley Recreation Ground",,"Seaside",,,,"adj",,"NE","E0010506","Roselands","Eastbourne",,,,,,0,"U",562055,99901,0.29711854682,50.7760547373,"BCT","MKD","TIP",,,,"079",2005-08-08 00:00:00,2018-01-24 09:54:00,4,"rev","act"
"1400EB0308","esuadtpt",,,"Priory Lane",,,,"Tennyson Walk",,"Priory Road",,,,"adj",,"SE","E0010503","Langney","Eastbourne",,,,,,0,"U",563403,103133,0.31765723078,50.8047170068,"BCT","MKD","TIP",,,,"079",2005-08-08 00:00:00,2010-08-16 12:25:00,2,"rev","act"
"1400EB0253","esuadpwd",,,"Winston Crescent",,,,"Post Office",,"St Anthony's Avenue",,,,"adj",,"NE","E0010503","Langney","Eastbourne",,,,,,0,"U",562866,101331,0.30924434875,50.7886766814,"BCT","MKD","PTP",,,,"079",2005-08-08 00:00:00,2010-08-13 14:30:00,2,"rev","act"
"1400EB75081","esuagjda",,,"MFI",,,,"Lottbridge Drove opp MFI",,"Lottbridge Drove opp MFI",,,,"Neasden",,"N","E0010506","Roselands","Eastbourne",,,,,,0,"U",562764,100995,0.30764981897,50.7856862553,"BCT","MKD","OTH",,,,"079",2005-08-08 00:00:00,2018-01-24 08:48:00,2,"del","del"
"1400EB0430","esuagdad",,,"Bridgemere Road",,,,"Ringwood Road",,"Bridgemere Road",,,,"o/s 7",,"NE","E0010506","Roselands","Eastbourne",,,,,,0,"U",561391,100521,0.28798074715,50.7818106899,"BCT","MKD","OTH",,,,"079",2006-11-21 00:00:00,2010-08-19 10:44:00,1,"rev","act"
"1400EB0254","esuadpwg",,,"Queen's Crescent",,,,"Queen's Crescent",,"St Anthony's Avenue",,,,"adj",,"SW","E0010503","Langney","Eastbourne",,,,,,0,"U",562814,101201,0.30844970465,50.7875231922,"BCT","MKD","TIP",,,,"079",2005-08-08 00:00:00,2010-08-13 14:32:00,3,"rev","act"
"1400EB0247","esuadptj",,,"Middleton Drive",,,,"Beatty Road",,"Princes Road",,,,"opp",,"S","E0010503","Langney","Eastbourne",,,,,,0,"U",563196,101052,0.31379825722,50.7860770744,"BCT","MKD","OTH",,,,"079",2005-08-08 00:00:00,2006-12-20 17:39:00,1,"rev","act"
"1400EB0432","esuagdaj",,,"Ringwood Close",,,,"Bridge",,"Ringwood Road",,,,"adj",,"SE","E0010506","Roselands","Eastbourne",,,,,,0,"U",561584,100292,0.29061557054,50.7796993314,"BCT","MKD","TIP",,,,"079",2006-11-21 00:00:00,2010-08-19 10:51:00,1,"rev","act"
"1400EB0398","esuagajm",,,"Tesco",,,,"Tesco",,"Seaside",,,,"adj",,"NE","E0010506","Roselands","Eastbourne",,,,,,0,"U",562637,100940,0.3058254008,50.7852276752,"BCT","MKD","OTH",,,,"079",2005-08-08 00:00:00,2018-01-24 09:48:00,3,"rev","act"
"1400EB0453","esuagdmg",,,"Susan's Road",,,,"Susan's Road",,"Langney Road",,,,"adj",,"NE","E0010506","Roselands","Eastbourne",,,,,,0,"U",561492,99145,0.28880846173,50.7694186797,"BCT","MKD","OTH",,,,"079",2005-08-08 00:00:00,2018-01-24 08:48:00,3,"del","del"
"1400EB0425","esuagawg",,,"Bowood Avenue",,,,"Bowood Avenue",,"Churchdale Road",,,,"opp",,"SE","E0010506","Roselands","Eastbourne",,,,,,0,"U",561901,100945,0.29539556111,50.7854784235,"BCT","MKD","OTH",,,,"079",2005-08-08 00:00:00,2010-08-19 10:39:00,2,"rev","act"
"1400EB75148","esuagjpw",,,"Linnet Close",,,,"Linnet Close",,"Kingfisher Drive",,,,"adj",,"S","E0010503","Langney","Eastbourne",,,,,,0,"U",562143,102592,0.29955197245,50.8002096601,"BCT","MKD","TIP",,,,"079",2005-08-08 00:00:00,2010-08-17 14:22:00,2,"rev","act"
"1400EB75149","esuagjta",,,"Chaffinch Road",,,,"West Rise School",,"Sevenoaks Road",,,,"adj",,"E","E0010503","Langney","Eastbourne",,,,,,0,"U",562334,102589,0.30225873276,50.8001292733,"BCT","MKD","TIP",,,,"079",2005-08-08 00:00:00,2016-12-22 12:18:00,3,"rev","act"
"1400EB0426","esuagawj",,,"Horsye Road",,,,"Horsye Road",,"Bridgemere Road",,,,"opp",,"SW","E0010506","Roselands","Eastbourne",,,,,,0,"U",561715,101029,0.29279611125,50.7862850612,"BCT","MKD","TIP",,,,"079",2006-11-21 00:00:00,2010-08-19 10:40:00,1,"rev","act"
"1400EB0444","esuagdja",,,"Dursley Road",,,,"Dursley Road",,"Cavendish Avenue",,,,"opp",,"S","E0010506","Roselands","Eastbourne",,,,,,0,"U",561587,99738,0.29041483865,50.7747205898,"BCT","MKD","OTH",,,,"079",2005-08-08 00:00:00,2010-08-19 12:30:00,2,"rev","act"
"1400EB75057","esuagdwj",,,"Langney Green",,,,"Langney Roundabout",,"Pevensey Bay Road",,,,"opp",,"SW","E0010503","Langney","Eastbourne",,,,,,0,"U",563381,101882,0.31678919957,50.7934827344,"BCT","MKD","TIP",,,,"079",2005-08-08 00:00:00,2010-08-17 14:14:00,3,"rev","act"
"1400EB75059","esuagdwm",,,"Old Martello Road",,,,"Old Martello Road",,"Pevensey Bay Road",,,,"opp",,"NE","E0010503","Langney","Eastbourne",,,,,,0,"U",564472,102876,0.33270013086,50.8021056155,"BCT","MKD","OTH",,,,"079",2005-08-08 00:00:00,2016-12-22 12:43:00,2,"rev","act"
"1400EB0423","esuagawa",,,"Southbourne Road",,,,"Hudson Court",,"Churchdale Road",,,,"adj",,"SE","E0010506","Roselands","Eastbourne",,,,,,0,"U",562119,100726,0.29838898746,50.7834497699,"BCT","MKD","OTH",,,,"079",2006-11-21 00:00:00,2010-08-19 10:37:00,2,"rev","act"
"1400EB0403","esuagamd",,,"The Archery",,,,"Romney Street",,"Seaside",,,,"opp",,"SW","E0010506","Roselands","Eastbourne",,,,,,0,"U",562318,100402,0.3010665505,50.7804828983,"BCT","MKD","TIP",,,,"079",2005-08-08 00:00:00,2018-01-24 09:53:00,4,"rev","act"
"1400EB75077","esuagjat",,,"Asda",,,,"Asda",,"Pevensey Bay Road",,,,"adj",,"SW","E0010503","Langney","Eastbourne",,,,,,0,"U",563660,102240,0.32090373883,50.7966207792,"BCT","MKD","PTP",,,,"079",2005-08-08 00:00:00,2011-06-09 12:14:00,5,"rev","act"
"1400EB75079","esuagjaw",,,"Asda",,,,"Asda",,"Pevensey Bay Road",,,,"opp",,"NE","E0010503","Langney","Eastbourne",,,,,,0,"U",563559,102173,0.31944203275,50.7960472616,"BCT","MKD","PTP",,,,"079",2005-08-08 00:00:00,2011-06-09 12:14:00,6,"rev","act"
"1400EB0404","esuagamg",,,"Beach Road",,,,"Beach Road",,"Seaside",,,,"adj",,"SW","E0010506","Roselands","Eastbourne",,,,,,0,"U",562216,100192,0.29952837679,50.778624498,"BCT","MKD","TIP",,,,"079",2005-08-08 00:00:00,2010-08-19 10:24:00,2,"rev","act"
"1400EB0424","esuagawd",,,"Bowood Avenue",,,,"Bowood Avenue",,"Churchdale Road",,,,"adj",,"NW","E0010506","Roselands","Eastbourne",,,,,,0,"U",561899,100924,0.29535797024,50.7852902892,"BCT","MKD","OTH",,,,"079",2005-08-08 00:00:00,2010-08-19 10:38:00,2,"rev","act"
"1400EB75089","esuagjdp",,,"The Rising",,,,"The Rising",,"Langney Rise",,,,"opp",,"NW","E0010503","Langney","Eastbourne",,,,,,0,"U",562834,102694,0.3093944389,50.800932554,"BCT","MKD","OTH",,,,"079",2005-08-08 00:00:00,2006-12-20 15:16:00,1,"rev","act"
"1400EB9297","esuagmdw",,,"Chaffinch Road",,,,"West Rise School",,"Sevenoaks Road",,,,"opp",,"W","E0010503","Langney","Eastbourne",,,,,,0,"U",562269,102578,0.30133227791,50.8000486255,"BCT","MKD","OTH",,,,"079",2005-08-08 00:00:00,2010-10-04 15:39:00,4,"rev","act"
"1400EB0445","esuagdjd",,,"Bourne Street",,,,"Bourne Street",,"Cavendish Avenue",,,,"before",,"S","E0010506","Roselands","Eastbourne",,,,,,0,"U",561540,99519,0.28965269678,50.7727658683,"BCT","MKD","OTH",,,,"079",2005-08-08 00:00:00,2017-01-13 10:56:00,2,"rev","act"
"1400EB0447","esuagdjm",,,"Langney Road",,,,"Cavendish Place",,"Cavendish Place",,,,"adj",,"NW","E0010506","Roselands","Eastbourne",,,,,,0,"U",561557,99239,0.2897707125,50.7702452244,"BCT","MKD","OTH",,,,"079",2005-08-08 00:00:00,2018-01-24 08:47:00,3,"del","del"
"1400EB0312","esuadtwg",,,"Spring Lodge Close",,,,"Spring Lodge Close",,"Netherfield Avenue",,,,"nr",,"W","E0010503","Langney","Eastbourne",,,,,,0,"U",563510,102609,0.31894130472,50.7999786148,"BCT","MKD","TIP",,,,"079",2005-08-08 00:00:00,2016-12-22 12:52:00,4,"rev","act"
"1400EB75103","esuagjgm",,,"Old Martello Road",,,,"Old Martello Road",,"Pevensey Bay Road",,,,"adj",,"SW","E0010503","Langney","Eastbourne",,,,,,0,"U",564474,102856,0.33271953718,50.8019253466,"BCT","MKD","OTH",,,,"079",2005-08-08 00:00:00,2016-12-22 12:42:00,2,"rev","act"
"1400EB0316","esuadtwt",,,"Tidebrook Gardens",,,,"Tidebrook Gardens",,"Telscombe Road",,,,"opp",,"N","E0010503","Langney","Eastbourne",,,,,,0,"U",563805,102538,0.32309222556,50.7992574236,"BCT","MKD","TIP",,,,"079",2005-08-08 00:00:00,2010-08-16 13:09:00,2,"rev","act"
"1400EB0317","esuadwad",,,"Priory Road south",,"Priory Road",,"Sevenoaks Road",,"Langney Rise",,,,"adj",,"S","E0010503","Langney","Eastbourne",,,,,,0,"U",563161,101994,0.31372011775,50.7945509995,"BCT","MKD","TIP",,,,"079",2005-08-08 00:00:00,2011-06-09 11:59:00,6,"rev","act"
"1400EB0318","esuadwag",,,"Priory Road south",,"Priory Road",,"Priory Road",,"Langney Rise",,,,"opp",,"NW","E0010503","Langney","Eastbourne",,,,,,0,"U",563085,102109,0.31269370759,50.7956056723,"BCT","MKD","TIP",,,,"079",2005-08-08 00:00:00,2011-06-09 11:58:00,5,"rev","act"
"1400EB0328","esuadwdp",,,"Friday Street",,,,"Friday Street",,"Pennine Way",,,,"SW-bound",,"SW","E0010503","Langney","Eastbourne",,,,,,0,"U",562289,103454,0.30200273855,50.8079141329,"BCT","MKD","OTH",,,,"079",2005-08-08 00:00:00,2006-12-20 14:24:00,1,"rev","act"
"1400EB0329","esuadwdt",,,"Priory Road north",,"Priory Road",,"Roundabout",,"Eastbourne Road",,,,"adj",,"SW","E0010503","Langney","Eastbourne",,,,,,0,"U",563252,103488,0.31567383973,50.80794928,"BCT","MKD","OTH",,,,"079",2006-11-21 00:00:00,2011-06-22 16:12:00,3,"rev","act"
"1400EB0321","esuadwap",,,"Crematorium",,,,"Crematorium",,"Hide Hollow",,,,"adj",,"SW","E0010503","Langney","Eastbourne",,,,,,0,"U",562854,103267,0.30993195528,50.806075474,"BCT","MKD","OTH",,,,"079",2005-08-08 00:00:00,2010-08-16 13:20:00,2,"rev","act"
"1400EB0322","esuadwat",,,"Crematorium",,,,"Crematorium",,"Hide Hollow",,,,"opp",,"NE","E0010503","Langney","Eastbourne",,,,,,0,"U",562855,103288,0.30995544377,50.8062638828,"BCT","MKD","TIP",,,,"079",2005-08-08 00:00:00,2010-08-16 13:22:00,2,"rev","act"
"1400EB0363","esuadwpg",,,"Oak Tree Lane",,,,"Oak Tree Lane",,"Friday Street",,,,"adj",,"SE","E0010503","Langney","Eastbourne",,,,,,0,"U",562046,103713,0.29867105246,50.8103092896,"BCT","MKD","OTH",,,,"079",2005-08-08 00:00:00,2006-12-20 14:27:00,1,"rev","act"
"1400EB0360","esuadwmw",,,"Pennine Way",,,,"Pennine Way",,"Friday Street",,,,"adj",,"SE","E0010503","Langney","Eastbourne",,,,,,0,"U",562245,103459,0.30138099191,50.8079713735,"BCT","MKD","TIP",,,,"079",2005-08-08 00:00:00,2010-08-16 14:02:00,2,"rev","act"
"1400EB0361","esuadwpa",,,"Pennine Way",,,,"Pennine Way",,"Friday Street",,,,"opp",,"NW","E0010503","Langney","Eastbourne",,,,,,0,"U",562209,103478,0.30087887192,50.8081521666,"BCT","MKD","OTH",,,,"079",2005-08-08 00:00:00,2006-12-20 14:23:00,1,"rev","act"
"1400EB0362","esuadwpd",,,"Oak Tree Lane",,,,"Oak Tree Lane",,"Friday Street",,,,"opp",,"NW","E0010503","Langney","Eastbourne",,,,,,0,"U",561928,103798,0.29703510039,50.8111060103,"BCT","MKD","OTH",,,,"079",2005-08-08 00:00:00,2016-12-22 12:38:00,2,"rev","act"
"1400EB10026","esudjdpj",,,"Langney Roundabout South",,,,"Langney Roundabout",,"St Anthony's Avenue",,,,"SW-bound",,"SW","E0010503","Langney","Eastbourne",,"Eastbourne",,,,0,"U",563139,101712,0.31328310801,50.7920233547,"BCT","MKD","OTH",,,,"079",2010-09-13 14:54:00,2016-12-22 12:23:00,6,"del","del"
"1400EB75039","esuagdtd",,,"Tanbridge Road",,,,"Tanbridge Road",,"Pevensey Bay Road",,,,"adj",,"NE","E0010503","Langney","Eastbourne",,,,,,0,"U",563861,102439,0.32384205594,50.798352075,"BCT","MKD","TIP",,,,"079",2005-08-08 00:00:00,2016-12-22 12:55:00,4,"rev","act"
"1400EB75037","esuagdta",,,"Langney Green",,,,"Langney Roundabout",,"Pevensey Bay Road",,,,"adj",,"NE","E0010503","Langney","Eastbourne",,,,,,0,"U",563319,101876,0.31590760511,50.7934462819,"BCT","MKD","TIP",,,,"079",2005-08-08 00:00:00,2010-08-16 14:10:00,4,"rev","act"
"1400EB75035","esuagdpw",,,"Langney Roundabout South",,,,"Langney Roundabout",,"St Anthony's Avenue",,,,"NE-bound",,"NE","E0010503","Langney","Eastbourne",,,,,,0,"U",563134,101745,0.31322686946,50.7923212731,"BCT","MKD","OTH",,,,"079",2005-08-08 00:00:00,2011-04-04 14:41:00,5,"rev","act"
"1400EB75055","esuagdwg",,,"Tanbridge Road",,,,"Tanbridge Road",,"Pevensey Bay Road",,,,"opp",,"SW","E0010503","Langney","Eastbourne",,,,,,0,"U",563871,102423,0.32397669955,50.7982054874,"BCT","MKD","OTH",,,,"079",2005-08-08 00:00:00,2016-12-22 12:54:00,2,"rev","act"
"1400EB10061","esudjpda",,,"Eridge Road",,,,"Eridge Road",,"Selmeston Road",,,,"opp",,"N","E0010508","Upperton","Eastbourne",,,,,,0,"U",559387,101068,0.25981455552,50.7872796554,"BCT","CUS","OTH",,,,"079",2011-11-30 09:07:00,2011-11-30 09:07:00,0,"new","act"
"1400EB10063","esudjpat",,,"Selsfield Close",,,,"Selsfield Close",,"Westfield Road",,,,"adj",,"E","E0010508","Upperton","Eastbourne",,,,,,0,"U",559780,100811,0.26527366088,50.7848622832,"BCT","MKD","TIP",,,,"079",2011-11-30 09:29:00,2011-12-05 10:18:00,5,"rev","act"
"1400EB0095","esuadgwj",,,"Burton Road",,,,"Burton Road",,"King's Drive",,,,"opp",,"SE","E0010508","Upperton","Eastbourne",,,,,,0,"U",560189,100450,0.27091369175,50.7815057528,"BCT","MKD","TIP",,,,"079",2005-08-08 00:00:00,2017-01-17 10:43:00,2,"rev","act"
"1400EB0167","esuadmgp",,,"Highland Lodge",,,,"Highland Lodge",,"Carew Road",,,,"opp",,"SW","E0010508","Upperton","Eastbourne",,,,,,0,"U",560506,99933,0.27518104663,50.7767726714,"BCT","MKD","PPT",,,,"079",2005-08-08 00:00:00,2017-01-17 10:59:00,4,"rev","act"
"1400EB0097","esuadgwp",,,"King's Avenue",,,,"King's Avenue",,"King's Drive",,,,"opp",,"E","E0010508","Upperton","Eastbourne",,,,,,0,"U",560383,100376,0.2736310132,50.7807872451,"BCT","MKD","TIP",,,,"079",2005-08-08 00:00:00,2017-01-17 11:00:00,5,"rev","act"
"1400EB0025","esuadamj",,,"Long Acre Close",,,,"Willingdon Road",,"Eldon Road",,,,"adj",,"W","E0010508","Upperton","Eastbourne",,,,,,0,"U",559666,100273,0.26342431889,50.7800594359,"BCT","MKD","OTH",,,,"079",2005-08-08 00:00:00,2010-08-20 12:07:00,2,"rev","act"
"1400EB0093","esuadgwd",,,"District General Hospital",,,,"District General Hospital",,"King's Drive",,,,"opp",,"N","E0010508","Upperton","Eastbourne",,,,,,0,"U",559911,100975,0.26720177142,50.786299823,"BCT","MKD","PTP",,,,"079",2005-08-08 00:00:00,2017-01-17 10:47:00,3,"rev","act"
"1400EB0094","esuadgwg",,,"District General Hospital",,,,"District General Hospital",,"King's Drive",,,,"adj",,"S","E0010508","Upperton","Eastbourne",,,,,,0,"U",559943,100923,0.26763274717,50.785823756,"BCT","MKD","PTP",,,,"079",2005-08-08 00:00:00,2017-01-17 10:47:00,3,"rev","act"
"1400EB0054","esuadgap",,,"Selwyn Road",,,,"Selwyn Road",,"Upperton Road",,,,"adj",,"SE","E0010508","Upperton","Eastbourne",,,,,,0,"U",559939,99785,0.26708137806,50.7755993253,"BCT","MKD","TIP",,,,"079",2005-08-08 00:00:00,2010-08-20 15:10:00,2,"rev","act"
"1400EB0101","esuadjaj",,,"St Clement's Court",,,,"St Clement's Court",,"Framfield Way",,,,"o/s",,"S","E0010508","Upperton","Eastbourne",,,,,,0,"U",559941,100768,0.26753700436,50.7844315515,"BCT","MKD","OTH",,,,"079",2005-08-08 00:00:00,2017-01-17 11:06:00,4,"rev","act"
"1400EB75146","esuagjpt",,,"Enys Road",,,,"Carew Road",,"Enys Road",,,,"NE-bound",,"NE","E0010508","Upperton","Eastbourne",,,,,,0,"U",560876,99818,0.28037426676,50.7756369116,"BCT","MKD","OTH",,,,"079",2005-08-08 00:00:00,2006-12-18 12:00:00,2,"rev","act"
"1400EB75129","esuagjmp",,,"District General Hospital Grounds",,,,"District General Hospital",,"Hospital Grounds",,,,"o/s",,"S","E0010508","Upperton","Eastbourne",,,,,,0,"U",560061,100881,0.26928705408,50.7854138266,"BCT","MKD","PPT",,,,"079",2005-08-08 00:00:00,2011-04-01 15:53:00,4,"rev","act"
"1400EB75151","esuagjtd",,,"Enys Road",,,,"Lewes Road",,"Enys Road",,,,"S-bound",,"S","E0010508","Upperton","Eastbourne",,,,,,0,"U",560942,99905,0.28134761263,50.7764003499,"BCT","MKD","OTH",,,,"079",2005-08-08 00:00:00,2006-12-18 11:59:00,2,"rev","act"
"1400EB75195","esuagmaw",,,"Henleaze",,,,"Michel Grove",,"Upperton Road",,,,"adj",,"NW","E0010508","Upperton","Eastbourne",,,,,,0,"U",560345,99513,0.27271643989,50.7730432576,"BCT","MKD","OTH",,,,"079",2005-08-08 00:00:00,2011-04-04 09:33:00,4,"rev","act"
"1400WE80769","esudawgd",,,"British Queen",,,,"British Queen",,"The Triangle",,,,"adj",,"N","E0010851","Lower Willingdon","Eastbourne",,,,,,0,"U",558600,103200,0.24957863701,50.8066526475,"BCT","MKD","OTH",,,,"079",2006-11-21 00:00:00,2006-11-21 00:00:00,0,"del","del"
"1400EB0437","esuagdga",,,"Thurrock Close",,,,"Thurrock Close",,"Eastbourne Road",,,,"adj",,"N","E0010851","Lower Willingdon","Eastbourne",,,,,,0,"U",558580,103563,0.24945171373,50.80991989,"BCT","MKD","OTH",,,,"079",2005-08-08 00:00:00,2018-03-20 09:23:00,2,"rev","act"
"1400EB75177","esuagmad",,,"Arundel Road",,,,"Arundel Road",,"Carew Road",,,,"NW-bound",,"NW","E0010508","Upperton","Eastbourne",,,,,,0,"U",560793,99834,0.27920504334,50.7758036767,"BCT","MKD","OTH",,,,"079",2005-08-08 00:00:00,2010-08-23 13:30:00,3,"rev","act"
"1400EB0166","esuadmgm",,,"St Anne's Road",,,,"The Old Vicarage",,"Carew Road",,,,"opp",,"E","E0010508","Upperton","Eastbourne",,,,,,0,"U",560312,99908,0.27242085571,50.7766016474,"BCT","MKD","OTH",,,,"079",2005-08-08 00:00:00,2010-08-23 14:04:00,3,"rev","act"
"1400WE0160","esuawgpj",,,"Post Office",,,,"Co-Op",,"Coppice Avenue",,,,"adj",,"SE","E0010851","Lower Willingdon","Eastbourne",,,,,,0,"U",558452,103340,0.24754023961,50.8079510967,"BCT","MKD","PTP",,,,"079",2006-11-21 00:00:00,2015-07-09 15:03:00,4,"rev","act"
"1400EB0441","esuagdgp",,,"The Triangle",,,,"The British Queen",,"Eastbourne Road",,,,"opp",,"S","E0010851","Lower Willingdon","Eastbourne",,,,,,0,"U",558560,103257,0.24903600001,50.8071757667,"BCT","MKD","PTP",,,,"079",2006-11-21 00:00:00,2018-03-20 09:21:00,5,"rev","act"
"1400EB0186","esuadmtd",,,"The Hawthorns",,,,"The Hawthorns",,"Carew Road",,,,"adj",,"SE","E0010508","Upperton","Eastbourne",,,,,,0,"U",560974,99719,0.28171974835,50.7747201829,"BCT","MKD","TIP",,,,"079",2005-08-08 00:00:00,2010-08-23 13:22:00,2,"rev","act"
"1400EB0187","esuadmtg",,,"The Hawthorns",,,,"The Hawthorns",,"Carew Road",,,,"opp",,"NW","E0010508","Upperton","Eastbourne",,,,,,0,"U",560937,99726,0.28119848387,50.7747933405,"BCT","MKD","OTH",,,,"079",2005-08-08 00:00:00,2010-08-23 13:25:00,2,"rev","act"
"1400EB0169","esuadmgw",,,"Arundel Road",,,,"Mill Gap Road",,"Carew Road",,,,"SE-bound",,"SE","E0010508","Upperton","Eastbourne",,,,,,0,"U",560743,99902,0.2785261775,50.7764285369,"BCT","MKD","OTH",,,,"079",2005-08-08 00:00:00,2006-12-08 17:22:00,1,"rev","act"
"1400EB0164","esuadmgd",,,"Prideaux Road",,,,"Prideaux Road",,"Mill Road",,,,"adj",,"SE","E0010508","Upperton","Eastbourne",,,,,,0,"U",560120,100025,0.26975080833,50.7777059501,"BCT","MKD","OTH",,,,"079",2005-08-08 00:00:00,2010-08-23 13:13:00,3,"rev","act"
"1400EB0168","esuadmgt",,,"Highland Lodge",,,,"Highland Lodge",,"Carew Road",,,,"adj",,"E","E0010508","Upperton","Eastbourne",,,,,,0,"U",560525,99956,0.27546033981,50.7769740832,"BCT","MKD","PPT",,,,"079",2005-08-08 00:00:00,2010-08-23 13:20:00,2,"rev","act"
"1400EB0090","esuadgtp",,,"Park Avenue",,,,"Park Avenue",,"King's Drive",,,,"adj",,"N","E0010508","Upperton","Eastbourne",,,,,,0,"U",559780,101479,0.26556385966,50.7908646178,"BCT","MKD","OTH",,,,"079",2005-08-08 00:00:00,2017-01-17 11:13:00,4,"rev","act"
"1400WE0161","esuawgpm",,,"Post Office",,,,"Co-Op",,"Coppice Avenue",,,,"opp",,"NW","E0010851","Lower Willingdon","Eastbourne",,,,,,0,"U",558430,103349,0.24723213148,50.8080379792,"BCT","MKD","PTP",,,,"079",2006-11-21 00:00:00,2018-03-20 09:18:00,3,"rev","act"
"1400WE0164","esuawgta",,,"Broad Road",,,,"Broad Road",,"Coppice Avenue",,,,"NW-bound",,"NW","E0010851","Lower Willingdon","Eastbourne",,,,,,0,"U",558073,103730,0.2423333246,50.8115589487,"BCT","MKD","TIP",,,,"079",2006-11-21 00:00:00,2018-03-20 09:12:00,6,"rev","act"
"1400EB0091","esuadgtw",,,"Selmeston Road",,,,"Colleges",,"King's Drive",,,,"opp",,"S","E0010508","Upperton","Eastbourne",,,,,,0,"U",559824,101368,0.26613936112,50.789855105,"BCT","MKD","OTH",,,,"079",2005-08-08 00:00:00,2017-01-17 11:15:00,6,"rev","act"
"1400EB0098","esuadgwt",,,"King's Avenue",,,,"King's Avenue",,"King's Drive",,,,"adj",,"W","E0010508","Upperton","Eastbourne",,,,,,0,"U",560430,100363,0.27429146917,50.7806574433,"BCT","MKD","OTH",,,,"079",2005-08-08 00:00:00,2017-01-17 11:00:00,5,"rev","act"
"1400WE0159","esuawgpg",,,"The Triangle",,,,"The British Queen",,"The Triangle",,,,"adj",,"N","E0010851","Lower Willingdon","Eastbourne",,,,,,0,"U",558506,103302,0.2482896361,50.8075948837,"BCT","MKD","PTP",,,,"079",2006-11-21 00:00:00,2018-03-20 09:22:00,5,"rev","act"
"1400EB0137","esuadjtg",,,"Henfield Road",,,,"Henfield Road",,"Brodrick Road",,,,"adj",,"W","E0010851","Lower Willingdon","Eastbourne",,,,,,0,"U",560163,102799,0.27156835704,50.8026198434,"BCT","MKD","OTH",,,,"079",2006-11-21 00:00:00,2018-03-20 08:57:00,2,"del","del"
"1400EB0092","esuadgwa",,,"Selmeston Road",,,,"Colleges",,"King's Drive",,,,"adj",,"N","E0010508","Upperton","Eastbourne",,,,,,0,"U",559819,101292,0.26603545494,50.7891735826,"BCT","MKD","TIP",,,,"079",2005-08-08 00:00:00,2017-01-17 11:15:00,3,"rev","act"
"1400EB10062","esudjpdg",,,"St Clement's Court",,,,"St Clement's Court",,"Framfield Way",,,,"opp",,"N","E0010508","Upperton","Eastbourne",,,,,,0,"U",559939,100720,0.26748778728,50.7840007976,"BCT","MKD","OTH",,,,"079",2011-11-30 09:20:00,2017-01-17 11:06:00,2,"rev","act"
"1400EB0138","esuadjtj",,,"Henfield Road",,,,"Henfield Road",,"Brodrick Road",,,,"opp",,"E","E0010851","Lower Willingdon","Eastbourne",,,,,,0,"U",560135,102813,0.27117743205,50.8027533726,"BCT","MKD","OTH",,,,"079",2006-11-21 00:00:00,2018-03-20 08:57:00,2,"del","del"
"1400EB0139","esuadjtm",,,"Lindfield Road",,,,"Lindfield Road",,"Brodrick Road",,,,"opp",,"E","E0010851","Lower Willingdon","Eastbourne",,,,,,0,"U",559800,102714,0.26638422775,50.8019562183,"BCT","MKD","OTH",,,,"079",2006-11-21 00:00:00,2018-03-20 08:57:00,3,"del","del"
"1400EB0102","esuadjam",,,"Selsfield Close",,,,"Selsfield Close",,"Westfield Road",,,,"opp",,"W","E0010508","Upperton","Eastbourne",,,,,,0,"U",559782,100798,0.26529636256,50.7847449205,"BCT","CUS","OTH",,,,"079",2005-08-08 00:00:00,2011-11-29 15:49:00,2,"rev","act"
"1400EB0103","esuadjap",,,"Westfield Road",,,,"64",,"Westfield Road",,,,"N-bound",,"N","E0010508","Upperton","Eastbourne",,,,,,0,"U",559664,100920,0.2636767668,50.7858736371,"BCT","MKD","OTH",,,,"079",2005-08-08 00:00:00,2006-12-08 18:30:00,1,"rev","act"
"1400EB0438","esuagdgd",,,"Thurrock Close",,,,"Thurrock Close",,"Eastbourne Road",,,,"opp",,"S","E0010851","Lower Willingdon","Eastbourne",,,,,,0,"U",558599,103583,0.24972980523,50.8100944046,"BCT","MKD","OTH",,,,"079",2005-08-08 00:00:00,2018-03-20 09:24:00,3,"rev","act"
"1400WE0165","esuawgtd",,,"Broad Road",,,,"Broad Road",,"Farmlands Avenue",,,,"SE-bound",,"SE","E0010851","Lower Willingdon","Eastbourne",,,,,,0,"U",558055,103782,0.24210041681,50.8120311096,"BCT","MKD","TIP",,,,"079",2006-11-21 00:00:00,2010-08-17 15:50:00,2,"rev","act"
"1400EB0099","esuadjad",,,"St Thomas A Becket School",,,,"St Thomas A Becket School",,"Lewes Road",,,,"adj",,"SE","E0010508","Upperton","Eastbourne",,,,,,0,"U",560727,100144,0.2784051265,50.7786074505,"BCT","MKD","TIP",,,,"079",2005-08-08 00:00:00,2010-08-23 13:06:00,2,"rev","act"
"1400EB0100","esuadjag",,,"St Thomas A Becket School",,,,"Prideaux Road",,"Lewes Road",,,,"opp",,"NW","E0010508","Upperton","Eastbourne",,,,,,0,"U",560698,100151,0.27799719078,50.7786783788,"BCT","MKD","TIP",,,,"079",2005-08-08 00:00:00,2010-08-25 15:46:00,4,"rev","act"
"1400EB0104","esuadjat",,,"Westfield Road",,,,"44",,"Westfield Road",,,,"S-bound",,"S","E0010508","Upperton","Eastbourne",,,,,,0,"U",559682,100940,0.26394059001,50.7860483947,"BCT","MKD","OTH",,,,"079",2005-08-08 00:00:00,2006-12-08 18:30:00,1,"rev","act"
"1400WE0163","esuawgpw",,,"Tott Yew Road",,,,"Tott Yew Road",,"Coppice Avenue",,,,"adj",,"SE","E0010851","Lower Willingdon","Eastbourne",,,,,,0,"U",558269,103601,0.24505750162,50.8103463274,"BCT","MKD","TIP",,,,"079",2005-08-08 00:00:00,2018-03-20 09:26:00,4,"rev","act"
"1400WE0162","esuawgpt",,,"Tott Yew Road",,,,"Tott Yew Road",,"Coppice Avenue",,,,"opp",,"NW","E0010851","Lower Willingdon","Eastbourne",,,,,,0,"U",558310,103547,0.24561569412,50.8098499098,"BCT","MKD","TIP",,,,"079",2005-08-08 00:00:00,2018-03-20 09:27:00,3,"rev","act"
"1400EB0105","esuadjaw",,,"Tovey Close",,,,"Westfield Road",,"Selmeston Road",,,,"adj",,"W","E0010508","Upperton","Eastbourne",,,,,,0,"U",559610,100952,0.26292522915,50.786176031,"BCT","MKD","OTH",,,,"079",2005-08-08 00:00:00,2006-12-08 17:46:00,1,"rev","act"
"1400EB0106","esuadjda",,,"Tovey Close",,,,"Tovey Close",,"Selmeston Road",,,,"opp",,"E","E0010508","Upperton","Eastbourne",,,,,,0,"U",559567,100958,0.2623183242,50.7862417709,"BCT","MKD","OTH",,,,"079",2005-08-08 00:00:00,2006-12-08 17:47:00,1,"rev","act"
"1400EB0439","esuagdgj",,,"Broad Road end",,"Broad Road",,"Broad Road",,"Eastbourne Road",,,,"opp",,"SE","E0010851","Lower Willingdon","Eastbourne",,,,,,0,"U",558440,103954,0.24763490971,50.8134715384,"BCT","MKD","OTH",,,,"079",2005-08-08 00:00:00,2011-06-09 12:00:00,2,"rev","act"
"1400EB0440","esuagdgm",,,"Broad Road end",,"Broad Road",,"Broad Road",,"Eastbourne Road",,,,"adj",,"NW","E0010851","Lower Willingdon","Eastbourne",,,,,,0,"U",558365,104019,0.24659921284,50.814076097,"BCT","MKD","OTH",,,,"079",2005-08-08 00:00:00,2018-03-20 09:15:00,4,"rev","act"
"1400EB0107","esuadjdg",,,"Chalvington Road",,,,"Chalvington Road",,"Selmeston Road",,,,"opp",,"W","E0010508","Upperton","Eastbourne",,,,,,0,"U",559642,101225,0.26349730966,50.7886202813,"BCT","MKD","OTH",,,,"079",2005-08-08 00:00:00,2011-11-29 15:48:00,2,"rev","act"
"1400EB0108","esuadjdj",,,"Eridge Road",,,,"Eridge Road",,"Selmeston Road",,,,"adj",,"SE","E0010508","Upperton","Eastbourne",,,,,,0,"U",559413,101048,0.26017443611,50.7870928013,"BCT","MKD","OTH",,,,"079",2005-08-08 00:00:00,2017-01-17 10:51:00,6,"rev","act"
"1400EB0096","esuadgwm",,,"Burton Road",,,,"Burton Road",,"King's Drive",,,,"adj",,"NW","E0010508","Upperton","Eastbourne",,,,,,0,"U",560162,100468,0.27053885346,50.781674944,"BCT","MKD","OTH",,,,"079",2005-08-08 00:00:00,2017-01-17 10:41:00,2,"rev","act"
"1400EB0165","esuadmgj",,,"Ashburnham Road",,,,"The Old Vicarage",,"Mill Road",,,,"opp",,"NW","E0010508","Upperton","Eastbourne",,,,,,0,"U",560218,99935,0.27110047789,50.7768702105,"BCT","MKD","OTH",,,,"079",2005-08-08 00:00:00,2017-01-17 10:38:00,3,"rev","act"
"1400EB0022","esuadama",,,"Rutland Close",,,,"Rutland Close",,"Rodmill Drive",,,,"adj",,"NE","E0010508","Upperton","Eastbourne",,,,,,0,"U",559853,100596,0.26621495129,50.7829102884,"BCT","MKD","OTH",,,,"079",2006-11-21 00:00:00,2006-12-07 10:29:00,1,"rev","act"
"1400EB0023","esuadamd",,,"Rutland Close",,,,"Rutland Close",,"Rodmill Drive",,,,"opp",,"S","E0010508","Upperton","Eastbourne",,,,,,0,"U",559852,100552,0.26618165981,50.7825152004,"BCT","MKD","TIP",,,,"079",2006-11-21 00:00:00,2010-08-19 16:49:00,3,"rev","act"
"1400EB0049","esuadawt",,,"The Goffs",,,,"The Goffs",,"Upperton Road",,,,"adj",,"NW","E0010508","Upperton","Eastbourne",,,,,,0,"U",560454,99409,0.27421569456,50.7720786483,"BCT","MKD","TIP",,,,"079",2005-08-08 00:00:00,2010-08-20 14:29:00,2,"rev","act"
"1400EB0050","esuadgad",,,"Henleaze",,,,"Arundel Road",,"Upperton Road",,,,"opp",,"SE","E0010508","Upperton","Eastbourne",,,,,,0,"U",560402,99491,0.27351457322,50.7728298297,"BCT","MKD","TIP",,,,"079",2005-08-08 00:00:00,2011-04-04 09:33:00,4,"rev","act"
"1400EB0051","esuadgag",,,"Moat Croft Road",,,,"Moat Croft Road",,"Upperton Road",,,,"adj",,"NW","E0010508","Upperton","Eastbourne",,,,,,0,"U",560179,99582,0.27039415463,50.7737090862,"BCT","MKD","TIP",,,,"079",2005-08-08 00:00:00,2010-08-20 14:32:00,2,"rev","act"
"1400EB0052","esuadgaj",,,"Moat Croft Road",,,,"Moat Croft Road",,"Upperton Road",,,,"opp",,"SE","E0010508","Upperton","Eastbourne",,,,,,0,"U",560169,99607,0.27026332557,50.7739364835,"BCT","MKD","TIP",,,,"079",2005-08-08 00:00:00,2010-08-20 14:34:00,2,"rev","act"
"1400EB0053","esuadgam",,,"Selwyn Road",,,,"Selmeston House",,"Upperton Road",,,,"opp",,"NW","E0010508","Upperton","Eastbourne",,,,,,0,"U",559942,99759,0.26711259348,50.7753648746,"BCT","MKD","TIP",,,,"079",2005-08-08 00:00:00,2010-08-20 14:49:00,2,"rev","act"
"1400EB0055","esuadgat",,,"Hurst Arms",,,,"Church",,"Willingdon Road",,,,"opp",,"N","E0010508","Upperton","Eastbourne",,,,,,0,"U",559748,100153,0.26453438667,50.7789586051,"BCT","MKD","TIP",,,,"079",2006-11-21 00:00:00,2010-08-20 15:52:00,3,"rev","act"
"1400EB0374","esuadwtg",,,"Dittons Farm",,"Dittons Farm",,"Business Park",,"Dittons Road",,,,"adj",,"W","E0010775","Dittons","Eastbourne",,,,,,0,"U",560281,104681,0.27406277794,50.8194978465,"BCT","MKD","OTH",,,,"079",2005-08-08 00:00:00,2016-12-15 15:28:00,3,"rev","act"
"1400EB75144","esuagjpm",,,"Dittons Farm",,"Dittons Farm",,"Business Park",,"Dittons Road",,,,"opp",,"E","E0010775","Dittons","Eastbourne",,,,,,0,"U",560284,104696,0.27411188046,50.8196317982,"BCT","MKD","OTH",,,,"079",2005-08-08 00:00:00,2016-12-15 15:25:00,3,"rev","act"
"1400EB0056","esuadgaw",,,"Hurst Arms",,,,"Church",,"Willingdon Road",,,,"adj",,"S","E0010508","Upperton","Eastbourne",,,,,,0,"U",559756,100175,0.26465731707,50.7791540852,"BCT","MKD","OTH",,,,"079",2006-11-21 00:00:00,2010-08-20 15:56:00,1,"rev","act"
"1400EB0026","esuadamp",,,"Long Acre Close",,,,"Willingdon Road",,"Eldon Road",,,,"opp",,"E","E0010508","Upperton","Eastbourne",,,,,,0,"U",559658,100285,0.26331614383,50.7801694634,"BCT","MKD","OTH",,,,"079",2005-08-08 00:00:00,2010-08-20 12:09:00,2,"rev","act"
"1400EB10029","esudjdmg",,,"Downley",,,,"Downley",,"Dittons Road",,,,"adj",,"NW","E0010775","Dittons","Eastbourne",,"Eastbourne",,,,0,"U",559692,104799,0.26575935565,50.8207207257,"BCT","MKD","OTH",,,,"079",2010-09-15 13:09:00,2010-09-15 13:09:00,0,"new","act"
"1400EB10030","esudjdmd",,,"Downley",,,,"Downley",,"Dittons Road",,,,"opp",,"SE","E0010775","Dittons","Eastbourne",,"Eastbourne",,,,0,"U",559703,104811,0.2659206113,50.8208255202,"BCT","MKD","OTH",,,,"079",2010-09-15 13:14:00,2010-09-15 13:14:00,0,"new","act"
"1400EB83994","esuagmdt",,,"Chalvington Road",,,,"Chalvington Road",,"Selmeston Road",,,,"adj",,"E","E0010508","Upperton","Eastbourne",,,,,,0,"U",559622,101231,0.26321640715,50.7886796972,"BCT","MKD","OTH",,,,"079",2005-08-08 00:00:00,2017-01-17 10:45:00,3,"rev","act"
"1400EB0373","esuadwtd",,,"Nursery",,"Nursery",,"Nursery",,"Dittons Road",,,,"adj",,"E","E0010775","Dittons","Eastbourne",,,,,,0,"U",560455,104656,0.27651996374,50.8192250643,"BCT","MKD","OTH",,,,"079",2005-08-08 00:00:00,2016-11-11 16:10:00,3,"rev","act"
"1400EB0370","esuadwpt",,,"Bluebell Barn",,"Bluebell Barn",,"Bluebell Barn",,"Dittons Road",,,,"adj",,"W","E0010775","Dittons","Eastbourne",,,,,,0,"U",560774,104520,0.28098524254,50.8179146477,"BCT","CUS","OTH",,,,"079",2005-08-08 00:00:00,2016-12-12 14:39:00,3,"rev","act"
"1400EB0371","esuadwpw",,,"Bluebell Barn",,"Bluebell Barn",,"Bluebell Barn",,"Dittons Road",,,,"opp",,"E","E0010775","Dittons","Eastbourne",,,,,,0,"U",560780,104535,0.28107691517,50.8180477641,"BCT","MKD","OTH",,,,"079",2005-08-08 00:00:00,2016-11-11 16:07:00,3,"rev","act"
"1400EB0375","esuadwtj",,,"Chaucer Industrial Estate",,"Chaucer Industrial Estate",,"White Swan Garage",,"Dittons Road",,,,"adj",,"W","E0010775","Dittons","Eastbourne",,,,,,0,"U",559998,104712,0.27006204554,50.8198545919,"BCT","MKD","OTH",,,,"079",2005-08-08 00:00:00,2010-08-10 14:19:00,2,"rev","act"
"1400EB0372","esuadwta",,,"Nursery",,"Nursery",,"Nursery",,"Dittons Road",,,,"opp",,"NW","E0010775","Dittons","Eastbourne",,,,,,0,"U",560582,104579,0.27828771054,50.818498014,"BCT","MKD","OTH",,,,"079",2005-08-08 00:00:00,2010-08-10 14:11:00,2,"rev","act"
"1400EB0376","esuadwtm",,,"Chaucer Industrial Estate",,"Chaucer Industrial Estate",,"White Swan Garage",,"Dittons Road",,,,"opp",,"E","E0010775","Dittons","Eastbourne",,,,,,0,"U",559987,104731,0.26991429358,50.8200283522,"BCT","MKD","OTH",,,,"079",2005-08-08 00:00:00,2010-08-10 14:25:00,3,"rev","act"
"1400EB10075","esudjtmw",,,"Belle Vue",,,,"Belle Vue",,"Hailsham Road",,,,"adj",,"SE","E0010932","Stone Cross","Eastbourne",,,,,,1,"U",561454,104759,0.29073542816,50.8198731158,"BCT","MKD","OTH",,,,"079",2012-10-10 16:26:00,2018-01-03 13:52:00,1,"rev","act"
"1400EB10041","esudjgjg",,,"Dallaway Drive",,,,"Dallaway Drive",,"Rattle Road",,,,"adj",,"E","E0010932","Stone Cross","Eastbourne",,"Eastbourne",,,,0,"U",561734,104407,0.29455202754,50.8166322186,"BCT","MKD","TIP",,,,"079",2010-09-17 12:33:00,2018-01-03 14:03:00,1,"rev","act"
"1400EB10039","esudjgja",,,"Windmill Green",,,,"Windmill",,"Rattle Road",,,,"adj",,"W","E0010932","Stone Cross","Eastbourne",,"Eastbourne",,,,0,"U",561988,104386,0.2981453652,50.816372597,"BCT","MKD","TIP",,,,"079",2010-09-17 12:22:00,2018-01-03 14:09:00,1,"rev","act"
"1400EB10038","esudjgdw",,,"Uplands Farm",,,,"Uplands Farm",,"Rattle Road",,,,"opp",,"E","E0010932","Stone Cross","Eastbourne",,"Eastbourne",,,,0,"U",562355,104359,0.30333871483,50.8160273132,"BCT","MKD","OTH",,,,"079",2010-09-17 12:16:00,2018-01-03 14:06:00,2,"rev","act"
"1400EB10042","esudjgjm",,,"Primary School",,,,"Primary School",,"Adur Drive",,,,"opp",,"NW","E0010932","Stone Cross","Eastbourne",,"Eastbourne",,,,0,"U",561385,104302,0.28955582419,50.8157860368,"BCT","MKD","TIP",,,,"079",2010-09-17 12:40:00,2018-01-03 13:43:00,2,"rev","act"
"1400EB10040","esudjgjd",,,"Windmill Green",,,,"Windmill",,"Rattle Road",,,,"opp",,"E","E0010932","Stone Cross","Eastbourne",,"Eastbourne",,,,0,"U",562008,104405,0.2984374158,50.8165377275,"BCT","MKD","TIP",,,,"079",2010-09-17 12:27:00,2018-01-03 14:10:00,2,"rev","act"
"1400WE1214","esudjtmp",,,"Hilliers Garden Centre",,,,"Hilliers Garden Centre",,"Hailsham Road",,,,"opp",,"NW","E0010932","Stone Cross","Eastbourne",,,,,,1,"U",560076,106426,0.27191613126,50.8352340825,"BCT","CUS","OTH",,,,"079",2012-10-09 15:30:00,2012-10-09 15:30:00,0,"new","act"
"1400EB75087","esuagjdm",,,"Patcham Mill Road",,,,"Patcham Mill Road",,"Lion Hill",,,,"adj",,"SE","E0010932","Stone Cross","Eastbourne",,,,,,0,"U",561733,104184,0.29443962669,50.8146287743,"BCT","MKD","OTH",,,,"079",2005-08-08 00:00:00,2018-01-03 13:58:00,3,"rev","act"
"1400EB10074","esudjtmt",,,"Belle Vue",,,,"Belle Vue",,"Hailsham Road",,,,"opp",,"NW","E0010932","Stone Cross","Eastbourne",,,,,,1,"U",561444,104747,0.2905883059,50.8197680777,"BCT","CUS","OTH",,,,"079",2012-10-10 16:16:00,2018-01-03 13:53:00,1,"rev","act"
"1400WE1213","esudjtmj",,,"Hilliers Garden Centre",,,,"Hilliers Garden Centre",,"Hailsham Road",,,,"adj",,"SE","E0010932","Stone Cross","Eastbourne",,,,,,1,"U",560082,106440,0.27200737742,50.8353582202,"BCT","CUS","OTH",,,,"079",2012-10-09 15:26:00,2012-10-09 15:27:00,1,"rev","act"
"1400EB0357","esuadwmj",,,"The Crossways",,,,"Crossroads",,"Dittons Road",,,,"opp",,"W","E0010932","Stone Cross","Eastbourne",,,,,,0,"U",561468,104436,0.29079196103,50.8169669556,"BCT","MKD","OTH",,,,"079",2005-08-08 00:00:00,2018-01-03 13:55:00,4,"rev","act"
"1400EB0359","esuadwmt",,,"Arun Way",,,,"Arun Way",,"Dittons Road",,,,"opp",,"E","E0010932","Stone Cross","Eastbourne",,,,,,0,"U",560930,104494,0.28318655159,50.817637734,"BCT","MKD","OTH",,,,"079",2005-08-08 00:00:00,2018-01-03 14:02:00,4,"rev","act"
"1400EB75186","esuagmap",,,"Milton Street",,,,"Milton Street",,"Hailsham Road",,,,"adj",,"SE","E0010932","Stone Cross","Eastbourne",,,,,,0,"U",561373,104874,0.28963703248,50.8209289884,"BCT","MKD","OTH",,,,"079",2005-08-08 00:00:00,2017-01-16 15:28:00,3,"rev","act"
"1400EB10078","esudjwtm",,,"Medical Centre",,,,"Medical Centre",,"Mimram Road",,,,"o/s",,"W","E0010932","Stone Cross","Eastbourne",,,,,,1,"U",561442,104390,0.29040296141,50.8165608729,"BCT","CUS","OTH",,,,"079",2013-06-17 12:00:00,2016-04-28 15:50:00,1,"del","del"
"1400EB75083","esuagjdg",,,"The Red Lion",,,,"The Red Lion",,"Lion Hill",,,,"opp",,"SE","E0010932","Stone Cross","Eastbourne",,,,,,0,"U",561591,104331,0.29249033955,50.8159892189,"BCT","MKD","PTP",,,,"079",2005-08-08 00:00:00,2018-01-03 13:47:00,5,"rev","act"
"1400EB10037","esudjgdt",,,"Uplands Farm",,,,"Uplands Farm",,"Rattle Road",,,,"adj",,"W","E0010932","Stone Cross","Eastbourne",,"Eastbourne",,,,0,"U",562365,104342,0.3034730303,50.8158717629,"BCT","MKD","TIP",,,,"079",2010-09-17 11:10:00,2017-01-16 15:44:00,1,"rev","act"
"1400EB75069","esuagjag",,,"Medina Drive",,,,"Medina Drive",,"Adur Drive",,,,"adj",,"SW","E0010932","Stone Cross","Eastbourne",,,,,,0,"U",561577,104258,0.29225965205,50.8153371933,"BCT","MKD","PTP",,,,"079",2005-08-08 00:00:00,2018-01-03 13:42:00,5,"rev","act"
"1400EB10085","esudmjag",,,"Crossroads",,,,"Crossroads",,"Hailsham Road",,,,"N-bound",,"N","E0010932","Stone Cross","Eastbourne",,,,,,1,"U",561494,104536,0.29120471858,50.8178582444,"BCT","CUS","OTH",,,,"079",2015-11-02 14:52:00,2018-01-03 12:50:00,2,"del","del"
"1400EB75188","esuagmat",,,"Milton Street",,,,"Milton Street",,"Hailsham Road",,,,"opp",,"NW","E0010932","Stone Cross","Eastbourne",,,,,,0,"U",561368,104854,0.28955731677,50.8207506741,"BCT","MKD","OTH",,,,"079",2005-08-08 00:00:00,2018-01-03 13:50:00,2,"rev","act"
"1400EB0367","esuadwpm",,,"The Red Lion",,,,"The Red Lion",,"Lion Hill",,,,"o/s",,"N","E0010932","Stone Cross","Eastbourne",,,,,,0,"U",561540,104390,0.2917929453,50.8165335686,"BCT","MKD","PPT",,,,"079",2005-08-08 00:00:00,2018-01-03 13:45:00,4,"rev","act"
"1400EB0358","esuadwmp",,,"Arun Way",,,,"Arun Way",,"Dittons Road",,,,"adj",,"W","E0010932","Stone Cross","Eastbourne",,,,,,0,"U",560935,104477,0.28325001989,50.8174835943,"BCT","MKD","TIP",,,,"079",2005-08-08 00:00:00,2018-01-03 14:01:00,5,"rev","act"
"1400EB75085","esuagjdj",,,"Patcham Mill Road",,,,"Patcham Mill Road",,"Lion Hill",,,,"opp",,"NW","E0010932","Stone Cross","Eastbourne",,,,,,0,"U",561697,104209,0.29394005024,50.8148634505,"BCT","MKD","OTH",,,,"079",2005-08-08 00:00:00,2018-01-03 13:59:00,3,"rev","act"
"1400EB0350","esuadwmg",,,"The Crossways",,,,"Crossroads",,"Dittons Road",,,,"adj",,"E","E0010932","Stone Cross","Eastbourne",,,,,,0,"U",561416,104456,0.29006320367,50.8171611461,"BCT","MKD","OTH",,,,"079",2005-08-08 00:00:00,2018-01-03 13:56:00,4,"rev","act"
"1400EB0043","esuadawa",,,"St Elisabeth's Church",,"St Elisabeth's Church",,"Command Road",,"Victoria Drive",,,,"opp",,"N","N0076015","Downside","Eastbourne",,,,,,0,"U",559012,100564,0.25428106455,50.7828538025,"BCT","MKD","OTH",,,,"079",2005-08-08 00:00:00,2017-04-03 10:25:00,5,"rev","act"
"1400EB0038","esuadatg",,,"Burrow Down",,,,"Burrow Down",,"Priory Heights",,,,"adj",,"W","N0076015","Downside","Eastbourne",,,,,,0,"U",558530,100166,0.24727784266,50.7794093857,"BCT","MKD","OTH",,,,"079",2005-08-08 00:00:00,2006-12-20 11:32:00,2,"rev","act"
"1400EB0039","esuadatj",,,"Central Avenue",,"Central Avenue",,"Eldon Road",,"Victoria Drive",,,,"opp",,"S","N0076015","Downside","Eastbourne",,,,,,0,"U",559104,100196,0.25542590893,50.7795218845,"BCT","MKD","PTP",,,,"079",2005-08-08 00:00:00,2010-08-11 11:27:00,4,"rev","act"
"1400EB0040","esuadatm",,,"Beechy Avenue",,"Beechy Avenue",,"Beechy Avenue",,"Victoria Drive",,,,"adj",,"N","N0076015","Downside","Eastbourne",,,,,,0,"U",559112,100076,0.25548740291,50.7784414186,"BCT","MKD","OTH",,,,"079",2005-08-08 00:00:00,2010-08-11 12:00:00,3,"rev","act"
"1400EB0041","esuadatp",,,"Central Avenue",,"Central Avenue",,"Central Avenue",,"Victoria Drive",,,,"adj",,"N","N0076015","Downside","Eastbourne",,,,,,0,"U",559061,100329,0.25487397818,50.7807287567,"BCT","MKD","PTP",,,,"079",2005-08-08 00:00:00,2010-08-11 12:01:00,4,"rev","act"
"1400EB0042","esuadatw",,,"Command Road",,"Command Road",,"Elizabeth Court",,"Victoria Drive",,,,"opp",,"S","N0076015","Downside","Eastbourne",,,,,,0,"U",559054,100439,0.25482231904,50.781719092,"BCT","MKD","TIP",,,,"079",2005-08-08 00:00:00,2010-08-11 12:06:00,5,"rev","act"
"1400EB0037","esuadatd",,,"Filching Road",,"Filching Road",,"84",,"Filching Road",,,,"o/s 84",,"S","N0076015","Downside","Eastbourne",,,,,,0,"U",558575,100359,0.2479987904,50.7811313229,"BCT","MKD","OTH",,,,"079",2005-08-08 00:00:00,2010-08-11 11:23:00,3,"rev","act"
"1400EB0024","esuadamg",,,"Rodmill Drive Top",,"Rodmill Drive Top",,"Willingdon Road",,"Rodmill Drive",,,,"nr",,"NE","N0076015","Downside","Eastbourne",,,,,,0,"U",559732,100372,0.26440269687,50.7809308442,"BCT","MKD","OTH",,,,"079",2005-08-08 00:00:00,2010-08-10 14:54:00,2,"rev","act"
"1400EB0033","esuadapm",,,"Palesgate Way",,"Palesgate Way",,"Palesgate Way",,"Filching Road",,,,"adj",,"E","N0076015","Downside","Eastbourne",,,,,,0,"U",558695,100187,0.24962539226,50.7795529916,"BCT","MKD","OTH",,,,"079",2005-08-08 00:00:00,2016-12-15 16:00:00,4,"rev","act"
"1400EB0034","esuadapt",,,"Palesgate Way",,"Palesgate Way",,"Church",,"Filching Road",,,,"opp",,"W","N0076015","Downside","Eastbourne",,,,,,0,"U",558720,100174,0.24997410283,50.779429342,"BCT","MKD","OTH",,,,"079",2005-08-08 00:00:00,2016-12-15 15:59:00,4,"rev","act"
"1400EB0044","esuadawd",,,"St Elisabeth's Church",,"St Elisabeth's Church",,"Downs Avenue",,"Victoria Drive",,,,"adj",,"S","N0076015","Downside","Eastbourne",,,,,,0,"U",559015,100631,0.25435254517,50.7834550162,"BCT","MKD","TIP",,,,"079",2005-08-08 00:00:00,2017-04-03 10:25:00,5,"rev","act"
"1400EB0017","esuadajg",,,"Northiam Road",,"Northiam Road",,"Northiam Road",,"Green Street",,,,"opp",,"SE","N0076015","Downside","Eastbourne",,,,,,0,"U",559316,99856,0.25828331352,50.7764086283,"BCT","MKD","OTH",,,,"079",2005-08-08 00:00:00,2010-08-11 14:28:00,5,"rev","act"
"1400EB0032","esuadapj",,,"Cavalry Crescent",,"Cavalry Crescent",,"Cavalry Crescent",,"Central Avenue",,,,"nr",,"E","N0076015","Downside","Eastbourne",,,,,,0,"U",558870,100245,0.2521306572,50.780026281,"BCT","MKD","OTH",,,,"079",2005-08-08 00:00:00,2010-08-10 15:36:00,2,"rev","act"
"1400EB0057","esuadgda",,,"Cobbold Avenue",,,,"Cobbold Avenue",,"Willingdon Road",,,,"adj",,"N","N0076015","Downside","Eastbourne",,,,,,0,"U",559609,100523,0.26272492219,50.782321504,"BCT","MKD","OTH",,,,"079",2006-11-21 00:00:00,2006-11-21 00:00:00,0,"new","act"
"1400EB0058","esuadgdg",,,"Cobbold Avenue",,,,"Cobbold Avenue",,"Willingdon Road",,,,"opp",,"S","N0076015","Downside","Eastbourne",,,,,,0,"U",559610,100560,0.26275514749,50.7826536945,"BCT","MKD","OTH",,,,"079",2006-11-21 00:00:00,2016-12-15 15:44:00,1,"rev","act"
"1400EB0059","esuadgdj",,,"Saxon Place",,,,"Saxon Place",,"Willingdon Road",,,,"adj",,"N","N0076015","Downside","Eastbourne",,,,,,0,"U",559508,100727,0.26138185395,50.7841823286,"BCT","MKD","OTH",,,,"079",2006-11-21 00:00:00,2013-02-19 16:29:00,1,"rev","act"
"1400EB0045","esuadawg",,,"Ocklynge School",,"Ocklynge School",,"School",,"Victoria Drive",,,,"o/s",,"S","N0076015","Downside","Eastbourne",,,,,,0,"U",559050,100891,0.25496104463,50.7857816807,"BCT","MKD","PTP",,,,"079",2005-08-08 00:00:00,2010-08-11 12:18:00,1,"rev","act"
"1400EB0018","esuadajm",,,"Northiam Road",,"Northiam Road",,"Northiam Road",,"Green Street",,,,"adj",,"NW","N0076015","Downside","Eastbourne",,,,,,0,"U",559260,99879,0.25749965155,50.7766306647,"BCT","MKD","OTH",,,,"079",2005-08-08 00:00:00,2010-08-11 14:31:00,2,"rev","act"
"1400EB0027","esuadamt",,,"Cavendish School",,,,"Cavendish School",,"Eldon Road",,,,"o/s",,"E","N0076015","Downside","Eastbourne",,,,,,0,"U",559415,100275,0.25986782032,50.7801464055,"BCT","MKD","PTP",,,,"079",2006-11-21 00:00:00,2010-08-10 15:01:00,2,"rev","act"
"1400EB0046","esuadawj",,,"Ocklynge School",,"Ocklynge School",,"School",,"Victoria Drive",,,,"opp",,"N","N0076015","Downside","Eastbourne",,,,,,0,"U",559050,100943,0.25498352935,50.7862489318,"BCT","MKD","PPT",,,,"079",2006-11-21 00:00:00,2016-12-15 15:46:00,2,"rev","act"
"1400EB0035","esuadapw",,,"Bracken Road",,,,"Bracken Road",,"Priory Heights",,,,"opp",,"N","N0076015","Downside","Eastbourne",,,,,,0,"U",558440,100310,0.24606430411,50.7807278973,"BCT","MKD","OTH",,,,"079",2005-08-08 00:00:00,2006-12-20 11:33:00,2,"rev","act"
"1400EB0036","esuadata",,,"Hill Road",,"Hill Road",,"Priory Heights",,"Hill Road",,,,"o/s 34",,"E","N0076015","Downside","Eastbourne",,,,,,0,"U",558530,100482,0.24741399351,50.7822488522,"BCT","MKD","PPT",,,,"079",2005-08-08 00:00:00,2010-08-11 11:21:00,4,"rev","act"
"1400EB0031","esuadapg",,,"The Crescent",,"The Crescent",,"The Crescent",,"Central Avenue",,,,"nr",,"W","N0076015","Downside","Eastbourne",,,,,,0,"U",558965,100247,0.25347794019,50.7800182393,"BCT","MKD","OTH",,,,"079",2005-08-08 00:00:00,2010-08-10 15:38:00,4,"rev","act"
"1400EB0028","esuadamw",,,"Cavendish School",,,,"Cavendish School",,"Eldon Road",,,,"opp",,"W","N0076015","Downside","Eastbourne",,,,,,0,"U",559391,100253,0.25951814307,50.7799553146,"BCT","MKD","PTP",,,,"079",2006-11-21 00:00:00,2010-08-10 15:04:00,2,"rev","act"
"1400EB0060","esuadgdm",,,"Saxon Place",,,,"Saxon Place",,"Willingdon Road",,,,"opp",,"S","N0076015","Downside","Eastbourne",,,,,,0,"U",559512,100766,0.26145546092,50.7845316659,"BCT","MKD","OTH",,,,"079",2006-11-21 00:00:00,2013-02-19 16:30:00,1,"rev","act"
"1400EB0029","esuadapa",,,"Victoria Drive",,,,"Library",,"Eldon Road",,,,"adj",,"W","N0076015","Downside","Eastbourne",,,,,,0,"U",559130,100238,0.25581256128,50.7798921517,"BCT","MKD","OTH",,,,"079",2005-08-08 00:00:00,2010-08-10 15:08:00,2,"del","del"
"1400EB0030","esuadapd",,,"Victoria Drive",,"Victoria Drive",,"Victoria Drive",,"Eldon Road",,,,"nr",,"E","N0076015","Downside","Eastbourne",,,,,,0,"U",559123,100253,0.25571983864,50.780028855,"BCT","MKD","TIP",,,,"079",2005-08-08 00:00:00,2010-08-10 15:20:00,2,"rev","act"
"1400EB10065","esudjpmg",,,"Warren Hill Car Park",,,,"Car Park",,"Warren Hill",,,,"opp",,"NW","N0076459","Beachy Head","Eastbourne",,,,,,0,"U",558735,97834,0.24917786744,50.7583988006,"BCT","CUS","OTH",,,,"079",2012-02-01 10:31:00,2015-10-19 11:13:00,1,"del","del"
"1400EB10008","esudgtga",,,"Bullock Down Farm",,"Bullock Down Farm",,"Bullock Down Farm",,"Beachy Head Road",,,,"adj",,"N","N0076459","Beachy Head","Eastbourne",,,,,,0,"U",559218,96635,0.25550216649,50.7474928097,"BCT","CUS","PPT",,,,"079",2009-08-10 16:55:00,2017-12-08 10:51:00,3,"rev","act"
"1400EB81569","esuagmdm",,,"Beachy Head Pub",,,,"Beachy Head",,"Beachy Head Road",,,,"opp",,"SW","N0076459","Beachy Head","Eastbourne",,,,,,0,"U",558987,95770,0.25185753438,50.7397834477,"BCT","MKD","OTH",,,,"079",2005-08-08 00:00:00,2016-11-09 13:51:00,1,"rev","act"
"1400EB10011","esudgtgm",,,"Black Robin Farm",,"Black Robin Farm",,"Black Robin Farm",,"Beachy Head Road",,,,"opp",,"S","N0076459","Beachy Head","Eastbourne",,,,,,0,"U",559016,97407,0.25297431555,50.7544850613,"BCT","CUS","PPT",,,,"079",2009-08-10 17:00:00,2016-11-09 14:18:00,2,"rev","act"
"1400EB10004","esudgtdm",,,"Hodcombe Farm",,"Hodcombe Farm",,"Hodcombe Farm",,"Beachy Head Road",,,,"opp",,"W","N0076459","Beachy Head","Eastbourne",,,,,,0,"U",557162,95533,0.22591290972,50.7381501679,"BCT","CUS","PPT",,,,"079",2009-08-10 16:44:00,2016-11-09 14:23:00,2,"rev","act"
"1400EB10005","esudgtdp",,,"Hodcombe Farm",,"Hodcombe Farm",,"Hodcombe Farm",,"Beachy Head Road",,,,"adj",,"E","N0076459","Beachy Head","Eastbourne",,,,,,0,"U",557156,95547,0.22583391222,50.7382775922,"BCT","CUS","PPT",,,,"079",2009-08-10 16:45:00,2016-11-09 14:23:00,1,"rev","act"
"1400EB10006","esudgtdt",,,"Beachy Head",,"Beachy Head",,"Beachy Head",,"Beachy Head Road",,,,"opp",,"E","N0076459","Beachy Head","Eastbourne",,,,,,0,"U",558624,95668,0.24667331783,50.7389660895,"BCT","MKD","PPT",,,,"079",2009-08-10 16:50:00,2016-11-09 13:46:00,2,"rev","act"
"1400EB10003","esudgtdg",,,"Belle Tout",,"Belle Tout",,"Belle Tout Lighthouse",,"Beachy Head Road",,,,"opp",,"E","N0076459","Beachy Head","Eastbourne",,,,,,0,"U",556767,95435,0.22027786172,50.7373762223,"BCT","MKD","PPT",,,,"079",2009-08-10 16:40:00,2016-11-09 13:59:00,2,"rev","act"
"1400EB10064","esudjpmd",,,"Warren Hill Car Park",,,,"Car Park",,"Warren Hill",,,,"adj",,"SE","N0076459","Beachy Head","Eastbourne",,,,,,0,"U",558758,97843,0.24950757149,50.7584733854,"BCT","CUS","OTH",,,,"079",2012-02-01 10:24:00,2016-04-05 13:00:00,2,"rev","act"
"1400EB10007","esudgtdw",,,"Beachy Head",,"Beachy Head",,"Beachy Head",,"Beachy Head Road",,,,"adj",,"W","N0076459","Beachy Head","Eastbourne",,,,,,0,"U",558725,95666,0.2481026663,50.7389205446,"BCT","MKD","PPT",,,,"079",2009-08-10 16:50:00,2016-11-09 13:53:00,3,"rev","act"
"1400EB81567","esuagmdj",,,"Beachy Head Pub",,,,"Beachy Head",,"Beachy Head Road",,,,"o/s",,"NE","N0076459","Beachy Head","Eastbourne",,,,,,0,"U",559042,95879,0.25268337877,50.7407478394,"BCT","MKD","OTH",,,,"079",2006-11-21 00:00:00,2016-11-09 13:52:00,1,"rev","act"
"1400EB10002","esudgtdj",,,"Belle Tout",,"Belle Tout",,"Belle Tout Lighthouse",,"Beachy Head Road",,,,"adj",,"W","N0076459","Beachy Head","Eastbourne",,,,,,0,"U",556717,95415,0.21956135029,50.7372099876,"BCT","MKD","PPT",,,,"079",2009-08-10 16:39:00,2017-12-08 10:47:00,3,"rev","act"
"1400EB10010","esudgtgj",,,"Black Robin Farm",,"Black Robin Farm",,"Black Robin Farm",,"Beachy Head Road",,,,"adj",,"N","N0076459","Beachy Head","Eastbourne",,,,,,0,"U",559004,97397,0.25280001914,50.7543984895,"BCT","MKD","PPT",,,,"079",2009-08-10 16:58:00,2017-12-08 10:50:00,3,"rev","act"
"1400EB10009","esudgtgd",,,"Bullock Down Farm",,"Bullock Down Farm",,"Bullock Down Farm",,"Beachy Head Road",,,,"opp",,"S","N0076459","Beachy Head","Eastbourne",,,,,,0,"U",559234,96637,0.25572963811,50.7475063964,"BCT","CUS","PPT",,,,"079",2009-08-10 16:55:00,2017-12-08 10:52:00,3,"rev","act"
"1400EB0204","esuadpat",,,"Hospital Gardens",,,,"Hospital Gardens",,"Chesterfield Road",,,,"o/s",,"NW","N0076463","Meads","Eastbourne",,,,,,0,"U",560386,97494,0.27241818751,50.7548901631,"BCT","MKD","TIP",,,,"079",2005-08-08 00:00:00,2010-08-17 17:08:00,2,"rev","act"
"1400EB0195","esuadmwj",,,"Jevington Gardens",,,,"Jevington Gardens",,"Grange Road",,,,"opp",,"N","N0076463","Meads","Eastbourne",,,,,,0,"U",560843,98161,0.27918278609,50.7607571272,"BCT","MKD","OTH",,,,"079",2006-11-21 00:00:00,2018-03-19 12:33:00,2,"rev","act"
"1400EB10031","esudjgag",,,"Naomi Close",,,,"Naomi Close",,"Carlisle Road",,,,"opp",,"W","N0076463","Meads","Eastbourne",,"Eastbourne",,,,0,"U",560284,98220,0.27128920814,50.76144182,"BCT","MKD","OTH",,,,"079",2010-09-16 15:01:00,2018-03-19 12:37:00,1,"rev","act"
"1400EB0197","esuadmwp",,,"Eastbourne College",,,,"Grange Road",,"Blackwater Road",,,,"nr",,"E","N0076463","Meads","Eastbourne",,,,,,0,"U",560756,98494,0.27809561469,50.7637733842,"BCT","MKD","OTH",,,,"079",2006-11-21 00:00:00,2010-08-17 16:56:00,1,"rev","act"
"1400EB0198","esuadmwt",,,"Wargrave House",,,,"Wargrave House",,"Blackwater Road",,,,"adj",,"E","N0076463","Meads","Eastbourne",,,,,,0,"U",560601,98468,0.27588828446,50.763582649,"BCT","MKD","OTH",,,,"079",2005-08-08 00:00:00,2018-03-19 12:51:00,3,"rev","act"
"1400EB0194","esuadmwg",,,"Jevington Gardens",,,,"Jevington Gardens",,"Grange Road",,,,"adj",,"S","N0076463","Meads","Eastbourne",,,,,,0,"U",560863,98121,0.27944865331,50.7603921685,"BCT","MKD","OTH",,,,"079",2006-11-21 00:00:00,2010-08-17 16:56:00,1,"rev","act"
"1400EB0196","esuadmwm",,,"Eastbourne College",,,,"Eastbourne College",,"Grange Road",,,,"o/s",,"S","N0076463","Meads","Eastbourne",,,,,,0,"U",560809,98471,0.27883645885,50.7635520437,"BCT","MKD","OTH",,,,"079",2006-11-21 00:00:00,2010-08-17 16:56:00,1,"rev","act"
"1400EB0205","esuadpaw",,,"Cliff Road",,,,"Cliff Road",,"King Edwards Parade",,,,"adj",,"NE","N0076463","Meads","Eastbourne",,,,,,0,"U",560208,97323,0.26982246111,50.7534027526,"BCT","MKD","OTH",,,,"079",2005-08-08 00:00:00,2018-03-19 12:04:00,3,"del","del"
"1400EB0207","esuadpdg",,,"Edensor Road",,,,"Rowsley Road",,"Wellcombe Crescent",,,,"opp",,"S","N0076463","Meads","Eastbourne",,,,,,0,"U",559779,97299,0.26373540967,50.7533052515,"BCT","MKD","OTH",,,,"079",2005-08-08 00:00:00,2006-12-18 23:39:00,1,"rev","act"
"1400EB0208","esuadpdj",,,"Chesterfield Road",,,,"Dalton Road",,"Milnthorpe Road",,,,"adj",,"S","N0076463","Meads","Eastbourne",,,,,,0,"U",560183,97717,0.26963962356,50.7569499557,"BCT","MKD","OTH",,,,"079",2005-08-08 00:00:00,2010-08-17 17:15:00,3,"rev","act"
"1400EB0209","esuadpdm",,,"St John's Road",,,,"Meads Road",,"Milnthorpe Road",,,,"before",,"S","N0076463","Meads","Eastbourne",,,,,,0,"U",560162,97882,0.26941387287,50.7584383629,"BCT","MKD","OTH",,,,"079",2005-08-08 00:00:00,2018-03-19 12:45:00,3,"rev","act"
"1400EB0202","esuadpam",,,"The Ship",,,,"Darley Road",,"Meads Street",,,,"opp",,"N","N0076463","Meads","Eastbourne",,,,,,0,"U",560052,97505,0.26769182604,50.7550811276,"BCT","MKD","PTP",,,,"079",2005-08-08 00:00:00,2010-08-17 17:07:00,3,"rev","act"
"1400EB0190","esuadmtp",,,"Winter Garden",,,,"Winter Garden",,"Compton Street",,,,"opp",,"SW","N0076463","Meads","Eastbourne",,,,,,0,"U",561241,98384,0.28491875521,50.7626505205,"BCT","MKD","PPT",,,,"079",2005-08-08 00:00:00,2018-03-19 12:56:00,4,"rev","act"
"1400EB0193","esuadmwd",,,"Grand Hotel",,,,"Grand Hotel",,"Compton Street",,,,"adj",,"SW","N0076463","Meads","Eastbourne",,,,,,0,"U",561060,98129,0.28224297539,50.7604094537,"BCT","MKD","TIP",,,,"079",2005-08-08 00:00:00,2018-03-19 12:20:00,5,"rev","act"
"1400EB0206","esuadpda",,,"Foot of Beachy Head",,,,"Bede's School",,"Duke's Drive",,,,"nr",,"NE","N0076463","Meads","Eastbourne",,,,,,0,"U",560121,97244,0.2685558125,50.7527168797,"BCT","MKD","PTP",,,,"079",2005-08-08 00:00:00,2018-03-19 12:17:00,4,"rev","act"
"1400EB0201","esuadpaj",,,"Dalton Road",,,,"Dalton Road",,"Meads Street",,,,"opp",,"NW","N0076463","Meads","Eastbourne",,,,,,0,"U",560029,97708,0.26745419406,50.7569115347,"BCT","MKD","OTH",,,,"079",2005-08-08 00:00:00,2018-03-19 12:09:00,3,"rev","act"
"1400EB0383","esuagadj",,,"Cornish Close",,,,"Cornish Close",,"Larkspur Drive",,,,"opp",,"W","N0079150","Shinewater","Eastbourne",,,,,,0,"U",561855,103833,0.29601525132,50.8114408814,"BCT","MKD","OTH",,,,"079",2005-08-08 00:00:00,2017-01-13 15:46:00,3,"rev","act"
"1400EB0396","esuagajd",,,"Alverstone Close",,,,"Alverstone Close",,"Milfoil Drive",,,,"adj",,"N","N0079150","Shinewater","Eastbourne",,,,,,0,"U",561747,103608,0.29438452568,50.8094493284,"BCT","MKD","OTH",,,,"079",2005-08-08 00:00:00,2017-01-13 15:41:00,3,"rev","act"
"1400EB0387","esuagadw",,,"Causeway School",,,,"Causeway School",,"Larkspur Drive",,,,"adj",,"N","N0079150","Shinewater","Eastbourne",,,,,,0,"U",561515,103499,0.29104652693,50.8085346053,"BCT","MKD","TIP",,,,"079",2005-08-08 00:00:00,2017-01-13 15:45:00,3,"rev","act"
"1400EB0394","esuagagw",,,"Shinewater Lane",,,,"Shinewater Lane",,"Milfoil Drive",,,,"opp",,"NW","N0079150","Shinewater","Eastbourne",,,,,,0,"U",561950,103313,0.29713328327,50.8067419948,"BCT","MKD","OTH",,,,"079",2005-08-08 00:00:00,2010-10-01 17:21:00,2,"rev","act"
"1400EB0192","esuadmwa",,,"Grand Hotel",,,,"Grand Hotel",,"Compton Street",,,,"opp",,"NE","N0076463","Meads","Eastbourne",,,,,,0,"U",561070,98169,0.28240213193,50.7607660991,"BCT","MKD","TIP",,,,"079",2005-08-08 00:00:00,2018-03-19 12:22:00,2,"rev","act"
"1400EB10035","esudjgat",,,"Brighton University",,,,"Brighton University",,"Carlisle Road",,,,"adj",,"E","N0076463","Meads","Eastbourne",,"Eastbourne",,,,0,"U",560121,98210,0.26897563066,50.7613969286,"BCT","MKD","PTP",,,,"079",2010-09-16 15:30:00,2018-03-19 11:59:00,1,"rev","act"
"1400EB0395","esuagaja",,,"Shinewater Lane",,,,"Shinewater Lane",,"Milfoil Drive",,,,"adj",,"SE","N0079150","Shinewater","Eastbourne",,,,,,0,"U",561891,103400,0.29633497146,50.8075401929,"BCT","MKD","TIP",,,,"079",2005-08-08 00:00:00,2010-10-01 17:23:00,2,"rev","act"
"1400EB0388","esuagaga",,,"Bembridge Road",,,,"Bembridge Road",,"Larkspur Drive",,,,"opp",,"NW","N0079150","Shinewater","Eastbourne",,,,,,0,"U",561582,103344,0.29192848541,50.8071232099,"BCT","MKD","OTH",,,,"079",2005-08-08 00:00:00,2010-10-01 17:04:00,2,"rev","act"
"1400EB10066","esudjpmj",,,"Bede's School",,,,"Bede's School",,"Upper Duke's Drive",,,,"adj",,"NW","N0076463","Meads","Eastbourne",,,,,,0,"U",560024,97151,0.26714147955,50.751907949,"BCT","MKD","OTH",,,,"079",2012-02-01 10:54:00,2018-03-19 12:17:00,7,"rev","act"
"1400EB10067","esudjpmp",,,"Western Lawns",,,,"Grand Hotel",,"King Edward's Parade",,,,"adj",,"SW","N0076463","Meads","Eastbourne",,,,,,0,"U",561186,98116,0.28402227941,50.7602576868,"BCT","MKD","OTH",,,,"079",2012-02-01 13:35:00,2018-03-19 12:25:00,6,"rev","act"
"1400EB0389","esuagagd",,,"Bembridge Road",,,,"Honeysuckle Close",,"Larkspur Drive",,,,"adj",,"SE","N0079150","Shinewater","Eastbourne",,,,,,0,"U",561665,103264,0.29307027607,50.8063812472,"BCT","MKD","OTH",,,,"079",2005-08-08 00:00:00,2010-10-01 17:07:00,2,"rev","act"
"1400EB0390","esuagagj",,,"Foxglove Road",,,,"Foxglove Road",,"Larkspur Drive",,,,"opp",,"NW","N0079150","Shinewater","Eastbourne",,,,,,0,"U",561820,102986,0.29514580336,50.8038400918,"BCT","MKD","PTP",,,,"079",2005-08-08 00:00:00,2010-10-01 17:11:00,2,"rev","act"
"1400EB75159","esuagjtp",,,"Chelmsford Court",,,,"Carlisle Road",,"Granville Road",,,,"adj",,"S","N0076463","Meads","Eastbourne",,,,,,0,"U",560585,98156,0.27552557602,50.7607835954,"BCT","MKD","OTH",,,,"079",2005-08-08 00:00:00,2018-03-19 12:06:00,2,"rev","act"
"1400EB10070","esudjpta",,,"All Saints",,,,"All Saints",,"King Edward's Parade",,,,"opp",,"SW","N0076463","Meads","Eastbourne",,,,,,0,"U",560442,97482,0.27320620509,50.7547668721,"BCT","MKD","OTH",,,,"079",2012-02-01 13:59:00,2018-03-19 11:56:00,4,"rev","act"
"1400EB0391","esuagagm",,,"Foxglove Road",,,,"Foxglove Road",,"Larkspur Drive",,,,"adj",,"SE","N0079150","Shinewater","Eastbourne",,,,,,0,"U",561849,102970,0.29554996501,50.8036882333,"BCT","MKD","PTP",,,,"079",2005-08-08 00:00:00,2010-10-01 17:12:00,2,"rev","act"
"1400EB0392","esuagagp",,,"Sorrel Drive",,,,"Car Park",,"Sorrel Drive",,,,"opp",,"NW","N0079150","Shinewater","Eastbourne",,,,,,0,"U",562111,103179,0.29935721328,50.8054929746,"BCT","MKD","OTH",,,,"079",2005-08-08 00:00:00,2010-10-01 17:18:00,2,"rev","act"
"1400EB0191","esuadmtw",,,"Winter Garden",,,,"Winter Garden",,"Compton Street",,,,"adj",,"NE","N0076463","Meads","Eastbourne",,,,,,0,"U",561231,98397,0.28478277323,50.7627701078,"BCT","MKD","PPT",,,,"079",2005-08-08 00:00:00,2018-03-19 12:54:00,4,"rev","act"
"1400EB10036","esudjgaw",,,"Naomi Close",,,,"Naomi Close",,"Carlisle Road",,,,"adj",,"E","N0076463","Meads","Eastbourne",,"Eastbourne",,,,0,"U",560265,98231,0.27102482039,50.7615459045,"BCT","MKD","TIP",,,,"079",2010-09-16 15:34:00,2018-03-19 12:37:00,1,"rev","act"
"1400EB0393","esuagagt",,,"Sorrel Drive",,,,"Sorrel Drive",,"Milfoil Drive",,,,"adj",,"SE","N0079150","Shinewater","Eastbourne",,,,,,0,"U",562099,103207,0.2991994054,50.8057479176,"BCT","MKD","TIP",,,,"079",2005-08-08 00:00:00,2010-10-01 17:19:00,2,"rev","act"
"1400EB0397","esuagajg",,,"Alverstone Close",,,,"Alverstone Close",,"Milfoil Drive",,,,"opp",,"S","N0079150","Shinewater","Eastbourne",,,,,,0,"U",561740,103706,0.29432840693,50.8103318423,"BCT","MKD","PPT",,,,"079",2005-08-08 00:00:00,2010-10-01 17:26:00,2,"rev","act"
"1400EB10033","esudjgam",,,"Hillbrow",,,,"Gaudick Close",,"Gaudick Road",,,,"opp",,"S","N0076463","Meads","Eastbourne",,"Eastbourne",,,,0,"U",560089,98054,0.26845448775,50.7600040041,"BCT","MKD","OTH",,,,"079",2010-09-16 15:19:00,2018-03-19 12:29:00,2,"rev","act"
"1400EB0200","esuadpag",,,"St John's Road",,,,"Gaudick Road",,"Meads Road",,,,"opp",,"NE","N0076463","Meads","Eastbourne",,,,,,0,"U",560119,97890,0.26880820514,50.7585221032,"BCT","MKD","OTH",,,,"079",2005-08-08 00:00:00,2018-03-19 12:47:00,5,"rev","act"
"1400EB10048","esudjgpg",,,"Cornish Close",,,,"Cornish Close",,"Larkspur Drive",,,,"adj",,"E","N0079150","Shinewater","Eastbourne",,,,,,0,"U",561829,103842,0.29565048683,50.8115290076,"BCT","CUS","OTH",,,,"079",2010-10-01 17:39:00,2015-10-21 12:32:00,1,"del","del"
"1400EB0384","esuagadm",,,"Hadlow Avenue",,,,"Hadlow Avenue",,"Larkspur Drive",,,,"adj",,"E","N0079150","Shinewater","Eastbourne",,,,,,0,"U",561611,103832,0.29255441764,50.8114999679,"BCT","MKD","OTH",,,,"079",2005-08-08 00:00:00,2010-10-01 16:44:00,2,"rev","act"
"1400EB75071","esuagjaj",,,"Cunningham Drive",,,,"Princes Road",,"Beatty Road",,,,"opp",,"W","N0079148","Langney Point","Eastbourne",,,,,,0,"U",563225,100935,0.31415738732,50.7850176456,"BCT","MKD","TIP",,,,"079",2005-08-08 00:00:00,2010-10-01 14:40:00,2,"rev","act"
"1400EB75135","esuagjpa",,,"Sturdee Close",,,,"Sturdee Close",,"Ramsay Way",,,,"opp",,"NW","N0079148","Langney Point","Eastbourne",,,,,,0,"U",563750,101122,0.32168181569,50.786549958,"BCT","MKD","TIP",,,,"079",2005-08-08 00:00:00,2010-10-01 14:46:00,3,"rev","act"
"1400EB0260","esuadtag",,,"Aylesbury Avenue",,,,"Aylesbury Avenue",,"Ramsay Way",,,,"opp",,"W","N0079148","Langney Point","Eastbourne",,,,,,0,"U",563287,101458,0.31526834679,50.7896994719,"BCT","MKD","TIP",,,,"079",2005-08-08 00:00:00,2010-10-01 14:17:00,3,"rev","act"
"1400EB10068","esudjpmt",,,"Western Lawns",,,,"Grand Hotel",,"King Edward's Parade",,,,"opp",,"NE","N0076463","Meads","Eastbourne",,,,,,0,"U",561172,98122,0.28382657276,50.7603154848,"BCT","CUS","OTH",,,,"079",2012-02-01 13:38:00,2018-03-19 12:26:00,7,"rev","act"
"1400EB10032","esudjgaj",,,"Brighton University",,,,"Brighton University",,"Carlisle Road",,,,"opp",,"W","N0076463","Meads","Eastbourne",,"Eastbourne",,,,0,"U",560193,98207,0.26999435293,50.7613501162,"BCT","MKD","PTP",,,,"079",2010-09-16 15:10:00,2018-03-19 12:01:00,2,"rev","act"
"1400EB0261","esuadtaj",,,"Aylesbury Avenue",,,,"Aylesbury Avenue",,"Ramsay Way",,,,"adj",,"E","N0079148","Langney Point","Eastbourne",,,,,,0,"U",563250,101481,0.31475407642,50.7899165443,"BCT","MKD","TIP",,,,"079",2005-08-08 00:00:00,2010-10-01 14:25:00,4,"rev","act"
"1400EB0248","esuadptm",,,"Ramsay Way",,,,"Ramsay Way",,"Princes Road",,,,"opp",,"N","N0079148","Langney Point","Eastbourne",,,,,,0,"U",563185,101529,0.31385398695,50.7903661214,"BCT","MKD","TIP",,,,"079",2005-08-08 00:00:00,2010-10-01 12:13:00,2,"rev","act"
"1400EB0385","esuagadp",,,"Hadlow Avenue",,,,"Hadlow Avenue",,"Larkspur Drive",,,,"opp",,"SW","N0079150","Shinewater","Eastbourne",,,,,,0,"U",561523,103770,0.29127913896,50.8109674026,"BCT","MKD","OTH",,,,"079",2005-08-08 00:00:00,2010-10-01 16:50:00,2,"rev","act"
"1400EB0386","esuagadt",,,"Causeway School",,,,"Causeway School",,"Larkspur Drive",,,,"opp",,"S","N0079150","Shinewater","Eastbourne",,,,,,0,"U",561521,103514,0.29113820867,50.8086677138,"BCT","MKD","OTH",,,,"079",2005-08-08 00:00:00,2010-10-01 16:52:00,2,"rev","act"
"1400EB10015","esudgwma",,,"Carlisle Road",,"Carlisle Road",,"University of Brighton",,"Carlisle Road",,"Ascham Place",,"adj",,"W","N0076463","Meads","Eastbourne",,,,,,0,"U",560205,98205,0.27016348735,50.761328835,"BCT","MKD","OTH",,,,"079",2010-04-08 10:20:00,2012-12-04 16:21:00,1,"del","del"
"1400EB0257","esuadpwp",,,"Hardy Drive",,,,"Shops",,"Beatty Road",,,,"opp",,"NE","N0079148","Langney Point","Eastbourne",,,,,,0,"U",563516,101043,0.31832994456,50.7859061181,"BCT","MKD","PTP",,,,"079",2005-08-08 00:00:00,2010-10-01 12:23:00,3,"rev","act"
"1400EB0258","esuadpwt",,,"Wade Close",,,,"Wade Close",,"Ramsay Way",,,,"adj",,"SE","N0079148","Langney Point","Eastbourne",,,,,,0,"U",563607,101265,0.31971852285,50.7878751793,"BCT","MKD","TIP",,,,"079",2005-08-08 00:00:00,2010-11-19 13:39:00,3,"rev","act"
"1400EB10013","esudgwjt",,,"University of Brighton",,,,"University of Brighton",,"Gaudick Road",,"Carlisle Road",,"adj",,"NW","N0076463","Meads","Eastbourne",,,,,,0,"U",560043,98130,0.26783584165,50.7606995843,"BCT","MKD","OTH",,,,"079",2010-04-08 10:13:00,2012-12-04 16:20:00,1,"del","del"
"1400EB0364","esuadwpj",,,"Larkspur Drive",,,,"Larkspur Drive",,"Friday Street",,,,"adj",,"N","N0079150","Shinewater","Eastbourne",,,,,,0,"U",561879,103870,0.29637192431,50.8117666364,"BCT","MKD","OTH",,,,"079",2005-08-08 00:00:00,2010-10-01 16:39:00,3,"rev","act"
"1400EB0163","esuadmga",,,"B and Q",,,,"B and Q",,"Lottbridge Drove",,,,"adj",,"NW","N0080097","Highfield","Eastbourne",,,,,,0,"U",561071,102110,0.28414130037,50.7961774177,"BCT","MKD","TIP",,,,"079",2005-08-08 00:00:00,2018-01-03 14:12:00,5,"rev","act"
"1400EB0249","esuadptp",,,"Ramsay Way",,,,"Church",,"Princes Road",,,,"nr",,"S","N0079148","Langney Point","Eastbourne",,,,,,0,"U",563210,101687,0.31427849739,50.7917787536,"BCT","MKD","TIP",,,,"079",2005-08-08 00:00:00,2010-10-01 12:15:00,2,"rev","act"
"1400EB0262","esuadtam",,,"Columbus Drive",,,,"Hardy Drive",,"Ramsay Way",,,,"opp",,"NW","N0079148","Langney Point","Eastbourne",,,,,,0,"U",563876,101020,0.32342231037,50.7855978982,"BCT","MKD","TIP",,,,"079",2005-08-08 00:00:00,2010-10-01 14:27:00,3,"rev","act"
"1400EB0162","esuadmdw",,,"B and Q",,,,"Aldi",,"Lottbridge Drove",,,,"opp",,"SE","N0080097","Highfield","Eastbourne",,,,,,0,"U",560957,102223,0.28257455114,50.7972244146,"BCT","MKD","TIP",,,,"079",2005-08-08 00:00:00,2018-01-03 14:15:00,7,"rev","act"
"1400EB10093","esudmptp",,,"Morrisons",,,,"Morrisons",,"Lottbridge Drove",,,,"adj",,"SE","N0080097","Highfield","Eastbourne",,,,,,1,"U",561085,102121,0.28434460417,50.7962723693,"BCT","MKD","TIP",,,,"079",2017-09-14 09:39:00,2018-01-03 14:13:00,1,"rev","act"
"1400EB0244","esuadpta",,,"Sovereign Roundabout North",,,,"Coach Park",,"Lottbridge Drove",,,,"NW-bound",,"NW","N0079148","Langney Point","Eastbourne",,,,,,0,"U",563046,100765,0.31154493681,50.7835404776,"BCT","MKD","TIP",,,,"079",2006-11-21 00:00:00,2010-10-01 12:09:00,2,"rev","act"
"1400EB0280","esuadtgd",,,"Gardners Books",,,,"Gardners Books",,"Willingdon Drove",,,,"adj",,"SW","N0080097","Highfield","Eastbourne",,,,,,0,"U",561341,102193,0.28800562122,50.7968481648,"BCT","MKD","PTP",,,,"079",2006-11-21 00:00:00,2018-01-03 14:17:00,3,"rev","act"
"1400EB0283","esuadtgp",,,"Gardners Books",,,,"Becks Garage",,"Willingdon Drove",,,,"opp",,"NE","N0080097","Highfield","Eastbourne",,,,,,0,"U",561300,102200,0.28742741192,50.7969224657,"BCT","MKD","PTP",,,,"079",2006-11-21 00:00:00,2011-05-25 16:13:00,3,"rev","act"
"1400EB0245","esuadptd",,,"Sovereign Roundabout North",,,,"Coach Park",,"Lottbridge Drove",,,,"SE-bound",,"SE","N0079148","Langney Point","Eastbourne",,,,,,0,"U",563084,100751,0.31207731645,50.7834040061,"BCT","MKD","TIP",,,,"079",2006-11-21 00:00:00,2010-10-01 12:12:00,3,"rev","act"
"1400EB0256","esuadpwm",,,"Hardy Drive",,,,"Shops",,"Beatty Road",,,,"adj",,"SW","N0079148","Langney Point","Eastbourne",,,,,,0,"U",563485,101005,0.31787366236,50.7855734154,"BCT","MKD","PTP",,,,"079",2005-08-08 00:00:00,2010-10-01 12:20:00,2,"rev","act"
"1400EB0263","esuadtap",,,"Columbus Drive",,,,"Columbus Drive",,"Ramsay Way",,,,"adj",,"SE","N0079148","Langney Point","Eastbourne",,,,,,0,"U",563943,100975,0.32435189987,50.7851746397,"BCT","MKD","TIP",,,,"079",2005-08-08 00:00:00,2010-10-01 14:32:00,3,"rev","act"
"1400EB0156","esuadmda",,,"Attfield Walk",,,,"Attfield Walk",,"Wilton Avenue",,,,"adj",,"SE","N0080174","Winkney Farm","Eastbourne",,,,,,0,"U",560669,103048,0.2788520203,50.8047172425,"BCT","MKD","PTP",,,,"079",2006-11-21 00:00:00,2011-05-31 13:04:00,2,"rev","act"
"1400EB0157","esuadmdg",,,"Tugwell Road",,,,"Tugwell Road",,"Wilton Avenue",,,,"adj",,"SE","N0080174","Winkney Farm","Eastbourne",,,,,,0,"U",560790,102898,0.28050216776,50.8033358913,"BCT","MKD","OTH",,,,"079",2005-08-08 00:00:00,2011-05-31 13:04:00,3,"rev","act"
"1400EB0255","esuadpwj",,,"Cunningham Drive",,,,"Princes Road",,"Beatty Road",,,,"adj",,"E","N0079148","Langney Point","Eastbourne",,,,,,0,"U",563228,100950,0.31420656459,50.7851515801,"BCT","MKD","TIP",,,,"079",2005-08-08 00:00:00,2010-10-01 12:18:00,2,"rev","act"
"1400EB0259","esuadtad",,,"Wade Close",,,,"Wade Close",,"Ramsay Way",,,,"opp",,"NW","N0079148","Langney Point","Eastbourne",,,,,,0,"U",563478,101345,0.31792556424,50.7886303566,"BCT","MKD","TIP",,,,"079",2005-08-08 00:00:00,2016-12-22 13:48:00,4,"rev","act"
"1400EB75140","esuagjpj",,,"Sovereign Park",,,,"Sovereign Park",,"Prince William Parade",,,,"opp",,"NE","N0079148","Langney Point","Eastbourne",,,,,,0,"U",564083,100986,0.32634112001,50.7852339049,"BCT","MKD","OTH",,,,"079",2006-11-21 00:00:00,2016-12-22 13:42:00,3,"rev","act"
"1400EB75137","esuagjpd",,,"Sovereign Park",,,,"Sovereign Park",,"Prince William Parade",,,,"adj",,"SW","N0079148","Langney Point","Eastbourne",,,,,,0,"U",564101,100981,0.32659401566,50.7851838889,"BCT","MKD","TIP",,,,"079",2006-11-21 00:00:00,2016-12-22 13:41:00,3,"rev","act"
"1400EB0158","esuadmdj",,,"Dovedale Gardens",,,,"Dovedale Gardens",,"Wilton Avenue",,,,"opp",,"SE","N0080174","Winkney Farm","Eastbourne",,,,,,0,"U",560852,102820,0.28134716114,50.8026178351,"BCT","MKD","OTH",,,,"079",2005-08-08 00:00:00,2017-12-01 14:06:00,4,"rev","act"
"1400EB0155","esuadmaw",,,"Percival Road",,,,"The Paddock",,"Percival Road",,,,"o/s 69",,"N","N0080174","Winkney Farm","Eastbourne",,,,,,0,"U",560578,102836,0.27746899192,50.8028375383,"BCT","MKD","OTH",,,,"079",2005-08-08 00:00:00,2017-12-01 14:09:00,5,"rev","act"
"1400EB75133","esuagjmw",,,"Sturdee Close",,,,"Sturdee Close",,"Ramsay Way",,,,"adj",,"SE","N0079148","Langney Point","Eastbourne",,,,,,0,"U",563761,101132,0.32184218331,50.7866367053,"BCT","MKD","OTH",,,,"079",2005-08-08 00:00:00,2016-12-22 13:46:00,5,"rev","act"
"1400EB10014","esudgwjw",,,"Carlisle Road",,"Carlisle Road",,"University of Brighton",,"Carlisle Road",,"St Vincents Place",,"opp",,"S","N0076463","Meads","Eastbourne",,,,,,0,"U",560076,98120,0.26829900196,50.760600634,"BCT","MKD","OTH",,,,"079",2010-04-08 10:17:00,2012-12-04 16:21:00,5,"del","del"
"1400EB10012","esudgwjp",,,"University of Brighton",,,,"University of Brighton",,"Gaudick Road",,"Gaudick Close",,"opp",,"SE","N0076463","Meads","Eastbourne",,,,,,0,"U",560087,98061,0.26842919651,50.7600674543,"BCT","MKD","OTH",,,,"079",2010-04-08 10:11:00,2012-12-04 16:19:00,1,"del","del"
"1400EB0203","esuadpap",,,"All Saints",,,,"All Saints",,"Darley Road",,,,"o/s",,"W","N0076463","Meads","Eastbourne",,,,,,0,"U",560103,97468,0.26839817244,50.7547346074,"BCT","MKD","PPT",,,,"079",2005-08-08 00:00:00,2018-03-19 11:52:00,2,"rev","act"
"1400EB10034","esudjgap",,,"Hillbrow",,,,"Gaudick Close",,"Gaudick Road",,,,"adj",,"N","N0076463","Meads","Eastbourne",,"Eastbourne",,,,0,"U",560048,98119,0.26790189656,50.7605993653,"BCT","MKD","TIP",,,,"079",2010-09-16 15:25:00,2018-03-19 12:28:00,2,"rev","act"
"1400EB75169","esuagjwj",,,"Carlisle Road",,,,"Carlisle Road",,"Meads Road",,,,"opp",,"SW","N0076463","Meads","Eastbourne",,,,,,0,"U",560293,98177,0.27139799939,50.761052958,"BCT","MKD","OTH",,,,"079",2005-08-08 00:00:00,2018-03-19 12:02:00,4,"del","del"
"1400EB75161","esuagjtw",,,"Chelmsford Court",,,,"Carlisle Road",,"Granville Road",,,,"opp",,"N","N0076463","Meads","Eastbourne",,,,,,0,"U",560562,98218,0.27522676482,50.7613470563,"BCT","MKD","TIP",,,,"079",2005-08-08 00:00:00,2011-06-07 09:27:00,3,"rev","act"
"1400EB75163","esuagjwa",,,"Fairfield Road",,,,"Fairfield Road",,"Silverdale Road",,,,"adj",,"N","N0076463","Meads","Eastbourne",,,,,,0,"U",560372,98182,0.27251936236,50.7610760758,"BCT","MKD","OTH",,,,"079",2005-08-08 00:00:00,2011-06-07 09:22:00,2,"rev","act"
"1400EB75165","esuagjwd",,,"Fairfield Road",,,,"Fairfield Road",,"Silverdale Road",,,,"opp",,"S","N0076463","Meads","Eastbourne",,,,,,0,"U",560381,98203,0.27265600805,50.7612622866,"BCT","MKD","OTH",,,,"079",2005-08-08 00:00:00,2011-06-07 09:20:00,2,"rev","act"
"1400EB75167","esuagjwg",,,"Carlisle Road",,,,"Carlisle Road",,"Meads Road",,,,"adj",,"NE","N0076463","Meads","Eastbourne",,,,,,0,"U",560283,98206,0.27126894912,50.7613162985,"BCT","MKD","OTH",,,,"079",2005-08-08 00:00:00,2018-03-19 12:02:00,6,"del","del"
"1400EB10069","esudjpmw",,,"Bolsover Road",,,,"Bolsover Road",,"King Edward's Parade",,,,"opp",,"SW","N0076463","Meads","Eastbourne",,,,,,0,"U",560665,97670,0.27644697027,50.7563945131,"BCT","MKD","OTH",,,,"079",2012-02-01 13:54:00,2012-02-01 13:54:00,0,"new","act"
"1400EB10057","esudjmtd",,,"Link Road",,,,"Link Road",,"Carlisle Road",,,,"adj",,"NE","N0076463","Meads","Eastbourne",,,,,,0,"U",559856,98102,0.26517448593,50.76049949,"BCT","CUS","OTH",,,,"079",2011-07-07 14:10:00,2011-07-07 14:10:00,0,"new","act"
"1400EB10058","esudjmtg",,,"Link Road",,,,"Link Road",,"Carlisle Road",,,,"opp",,"SW","N0076463","Meads","Eastbourne",,,,,,0,"U",559865,98092,0.26529764742,50.760407157,"BCT","CUS","OTH",,,,"079",2011-07-07 14:11:00,2011-07-07 14:11:00,0,"new","act"
"1400EB10059","esudjmtj",,,"Grange Road",,,,"Grange Road",,"Carlisle Road",,,,"E-bound",,"E","N0076463","Meads","Eastbourne",,,,,,0,"U",560811,98315,0.27879668266,50.762149754,"BCT","CUS","OTH",,,,"079",2011-07-07 14:20:00,2012-12-04 16:21:00,1,"del","del"
"1400EB10060","esudjmtm",,,"Grange Road",,,,"Grange Road",,"Carlisle Road",,,,"W-bound",,"W","N0076463","Meads","Eastbourne",,,,,,0,"U",560842,98303,0.279230625,50.7620333432,"BCT","CUS","OTH",,,,"079",2011-07-07 14:22:00,2012-12-04 16:22:00,1,"del","del"
"1400EB75175","esuagjwt",,,"Saffrons Park",,,,"Saffrons Park",,"Meads Road",,,,"opp",,"SW","N0076463","Meads","Eastbourne",,,,,,0,"U",560553,98607,0.27526883376,50.7648449073,"BCT","MKD","OTH",,,,"079",2005-08-08 00:00:00,2018-03-19 12:42:00,5,"rev","act"
"1400EB0199","esuadpad",,,"Wargrave House",,,,"Wargrave House",,"Blackwater Road",,,,"opp",,"W","N0076463","Meads","Eastbourne",,,,,,0,"U",560588,98449,0.27569582069,50.7634155196,"BCT","MKD","OTH",,,,"079",2005-08-08 00:00:00,2018-03-19 12:52:00,3,"rev","act"
"1400EB10071","esudjptd",,,"Holywell Gardens",,,,"Holywell Gardens",,"King Edward's Parade",,,,"adj",,"SW","N0076463","Meads","Eastbourne",,,,,,0,"U",560208,97300,0.26981246214,50.7531960848,"BCT","CUS","OTH",,,,"079",2012-02-01 14:12:00,2017-01-03 12:56:00,3,"rev","act"
"1400EB75171","esuagjwm",,,"Rowsley Road",,,,"Darley Road",,"Wellcombe Crescent",,,,"opp",,"SW","N0076463","Meads","Eastbourne",,,,,,0,"U",559795,97391,0.26400193783,50.7541275251,"BCT","MKD","OTH",,,,"079",2005-08-08 00:00:00,2018-03-19 12:39:00,5,"rev","act"
"1400EB75173","esuagjwp",,,"Saffrons Park",,,,"Saffrons Park",,"Meads Road",,,,"adj",,"N","N0076463","Meads","Eastbourne",,,,,,0,"U",560467,98518,0.27401160365,50.7640689684,"BCT","MKD","OTH",,,,"079",2005-08-08 00:00:00,2018-03-19 12:41:00,5,"rev","act"
"1400EB10046","esudjgpa",,,"Terminus Road Arrivals",,"Terminus Road",,"Arndale Centre",,"Terminus Road",,,,"E-bound",,"E","N0079147","Eastbourne Town Centre","Eastbourne",,"Eastbourne",,,,0,"U",560991,99085,0.28168339059,50.7690186909,"BCT","CUS","PPT",,,,"079",2010-10-01 16:12:00,2018-03-15 09:45:00,5,"rev","act"
"1400EB10091","esudmjdm",,,"Cornfield Road",,,,"Hyde Gardens",,"Cornfield Road",,,,"Stop D",,"NW","N0079147","Eastbourne Town Centre","Eastbourne",,,,,,1,"U",561151,98990,0.28390888456,50.7681206858,"BCT","MKD","PTP",,,,"079",2015-12-22 11:09:00,2017-01-18 11:34:00,1,"del","del"
"1400EB0417","esuagatd",,,"Memorial Roundabout",,,,"Memorial Roundabout",,"Cornfield Road",,,,"before",,"SE","N0079147","Eastbourne Town Centre","Eastbourne",,"Eastbourne",,,,0,"U",561216,98865,0.28477513617,50.7669794611,"BCT","MKD","TIP",,,,"079",2005-08-08 00:00:00,2018-03-15 09:13:00,6,"rev","act"
"1400EB10095","esudmtgt",,,"Gildredge Road",,,,"West Terrace",,"Gildredge Road",,,,"Stop G",,"N","N0079147","Eastbourne Town Centre","Eastbourne",,,,,,1,"U",560972,98957,0.28135821519,50.7678738199,"BCT","MKD","PTP",,,,"079",2018-03-15 08:09:00,2018-03-15 08:14:00,0,"new","act"
"1400EB0415","esuagapw",,,"Trinity Place",,"Trinity Place",,"Trinity Place",,"Trinity Trees",,,,"opp",,"E","N0079147","Eastbourne Town Centre","Eastbourne",,,,,,0,"U",561474,98924,0.28845649487,50.7674379091,"BCT","MKD","TIP",,,,"079",2005-08-08 00:00:00,2018-03-15 09:57:00,4,"rev","act"
"1400EB10088","esudmjda",,,"Cornfield Road",,,,"Hyde Gardens",,"Cornfield Road",,,,"Stop A",,"SE","N0079147","Eastbourne Town Centre","Eastbourne",,,,,,1,"U",561170,98982,0.2841745925,50.7680435285,"BCT","MKD","PTP",,,,"079",2015-12-22 11:00:00,2017-01-18 11:33:00,1,"del","del"
"1400HA10056","esudjmdt",,,"Town Hall",,,,"Town Hall",,"Grove Road",,,,"opp",,"S","N0079147","Eastbourne Town Centre","Eastbourne",,,,,,0,"U",560769,98831,0.27842691449,50.7667978939,"BCT","MKD","OTH",,,,"079",2011-05-31 16:15:00,2018-03-15 09:55:00,2,"rev","act"
"1400EB0454","esudgdmp",,,"Terminus Road",,,,"Arndale Centre",,"Terminus Road",,,,"Stop A",,"E","N0079147","Eastbourne Town Centre","Eastbourne",,"Eastbourne",,,,0,"U",561013,99080,0.28199292693,50.7689676629,"BCT","MKD","PTP",,,,"079",2006-11-20 00:00:00,2018-03-15 09:38:00,9,"rev","act"
"1400EB0459","esuagdpa",,,"Terminus Road",,,,"Arndale Centre",,"Terminus Road",,,,"Stop C",,"E","N0079147","Eastbourne Town Centre","Eastbourne",,"Eastbourne",,,,0,"U",561060,99067,0.28265319274,50.7688378159,"BCT","MKD","PTP",,,,"079",2005-08-08 00:00:00,2018-03-15 09:43:00,5,"rev","act"
"1400RA0024","esuapgjm",,,"Railway Station",,,,"Arndale Centre",,"Ashford Road",,,,"o/s",,"NE","N0079147","Eastbourne Town Centre","Eastbourne",,,,,,0,"U",560987,99119,0.28164158007,50.7693253056,"BCT","MKD","OTH",,,,"079",2005-08-08 00:00:00,2016-01-06 10:02:00,4,"del","del"
"1400EB10086","esudmjat",,,"Railway Station",,,,"Railway Station",,"Terminus Road",,,,"adj",,"E","N0079147","Eastbourne Town Centre","Eastbourne",,,,,,1,"U",560890,99117,0.28026628112,50.7693342229,"BCT","MKD","OTH",,,,"079",2015-12-22 10:48:00,2018-03-15 09:16:00,2,"rev","act"
"1400EB10087","esudmjaw",,,"Railway Station",,,,"Railway Station",,"Terminus Road",,,,"opp",,"W","N0079147","Eastbourne Town Centre","Eastbourne",,,,,,1,"U",560923,99086,0.28072031978,50.7690465278,"BCT","CUS","OTH",,"MKD stop requested to be added but never seems to have been installed.",,"079",2015-12-22 10:52:00,2018-03-15 09:26:00,2,"rev","act"
"1400EB10094","esudmtgp",,,"Gildredge Road",,,,"Ivy Terrace",,"Gildredge Road",,,,"Stop F",,"N","N0079147","Eastbourne Town Centre","Eastbourne",,,,,,1,"U",560963,99037,0.28126566789,50.768595152,"BCT","MKD","PTP",,,,"079",2018-03-15 08:06:00,2018-03-15 08:09:00,1,"rev","act"
"1400EB0455","esuagdmj",,,"Terminus Road",,,,"Arndale Centre",,"Terminus Road",,,,"Stop M",,"W","N0079147","Eastbourne Town Centre","Eastbourne",,"Eastbourne",,,,0,"U",560998,99068,0.28177514156,50.768863997,"BCT","MKD","PTP",,,,"079",2005-08-08 00:00:00,2018-03-15 09:52:00,5,"rev","act"
"1400EB0456","esuagdmp",,,"Terminus Road",,,,"Arndale Centre",,"Terminus Road",,,,"Stop L",,"W","N0079147","Eastbourne Town Centre","Eastbourne",,"Eastbourne",,,,0,"U",561014,99062,0.28199922451,50.7688056473,"BCT","MKD","PTP",,,,"079",2005-08-08 00:00:00,2018-03-15 09:54:00,3,"rev","act"
"1400EB0458","esuagdmw",,,"Terminus Road",,,,"Arndale Centre",,"Terminus Road",,,,"Stop K",,"W","N0079147","Eastbourne Town Centre","Eastbourne",,"Eastbourne",,,,0,"U",561044,99055,0.28242123742,50.7687344287,"BCT","MKD","PTP",,,,"079",2005-08-08 00:00:00,2018-03-15 09:51:00,3,"rev","act"
"1400EB0418","esuagatg",,,"Memorial Roundabout",,,,"Memorial Roundabout",,"South Street",,,,"after",,"W","N0079147","Eastbourne Town Centre","Eastbourne",,,,,,0,"U",561180,98799,0.28423617835,50.766396416,"BCT","MKD","OTH",,,,"079",2005-08-08 00:00:00,2018-04-09 12:54:00,6,"rev","act"
"1400EB10090","esudmjdj",,,"Cornfield Road",,,,"Hyde Gardens",,"Cornfield Road",,,,"Stop C",,"NW","N0079147","Eastbourne Town Centre","Eastbourne",,,,,,1,"U",561166,98951,0.28410434813,50.76776609,"BCT","MKD","PTP",,,,"079",2015-12-22 11:06:00,2017-01-18 11:34:00,1,"del","del"
"1400EB0414","esuagapt",,,"Trinity Place",,,,"Trinity Place",,"Trinity Trees",,,,"adj",,"W","N0079147","Eastbourne Town Centre","Eastbourne",,,,,,0,"U",561489,98915,0.28866507797,50.7673528686,"BCT","MKD","OTH",,,,"079",2005-08-08 00:00:00,2011-05-12 09:13:00,2,"rev","act"
"1400HA10057","esudjmdw",,,"Calverley Walk",,,,"Calverley Walk",,"South Street",,,,"adj",,"E","N0079147","Eastbourne Town Centre","Eastbourne",,,,,,0,"U",560912,98793,0.28043641497,50.7664168344,"BCT","MKD","OTH",,,,"079",2011-05-31 16:16:00,2011-06-01 09:22:00,1,"rev","act"
"1400EB0450","esuagdjw",,,"Bingo Hall",,,,"Bingo Hall",,"Pevensey Road",,,,"o/s",,"SW","N0079147","Eastbourne Town Centre","Eastbourne",,,,,,0,"U",561468,99019,0.28841314227,50.7682931924,"BCT","MKD","TIP",,,,"079",2005-08-08 00:00:00,2018-03-15 08:43:00,3,"rev","act"
"1400EB0451","esuagdma",,,"Ashford Road",,,,"Susan's Road",,"Ashford Road",,,,"o/s 95",,"SW","N0079147","Eastbourne Town Centre","Eastbourne",,,,,,0,"U",561351,99316,0.28688553434,50.7709943898,"BCT","MKD","OTH",,,,"079",2005-08-08 00:00:00,2018-03-15 08:40:00,6,"rev","act"
"1400EB0452","esuagdmd",,,"All Souls Church",,,,"Tideswell Road",,"Susan's Road",,,,"o/s",,"SE","N0079147","Eastbourne Town Centre","Eastbourne",,,,,,0,"U",561414,99222,0.28773701601,50.7701322477,"BCT","MKD","OTH",,,,"079",2005-08-08 00:00:00,2018-03-15 08:39:00,3,"rev","act"
"1400EB0457","esuagdmt",,,"Terminus Road",,,,"Arndale Centre",,"Terminus Road",,,,"Stop B",,"E","N0079147","Eastbourne Town Centre","Eastbourne",,"Eastbourne",,,,0,"U",561033,99074,0.28227368684,50.7689082034,"BCT","MKD","PTP",,,,"079",2005-08-08 00:00:00,2018-03-15 09:39:00,4,"rev","act"
"1400HA10055","esudjmdp",,,"Library",,,,"Library",,"Grove Road",,,,"opp",,"SW","N0079147","Eastbourne Town Centre","Eastbourne",,,,,,0,"U",560849,98987,0.27962854618,50.7681774718,"BCT","MKD","OTH",,,,"079",2011-05-31 16:09:00,2018-03-15 09:05:00,2,"rev","act"
"1400EB94192","esudgapm",,,"Railway Station",,,,"Railway Station",,"Ashford Road",,,,"o/s",,"NE","N0079147","Eastbourne Town Centre","Eastbourne",,,,,,0,"U",561009,99135,0.28196030202,50.7694629723,"BCT","CUS","OTH",,,,"079",2006-11-21 00:00:00,2018-03-15 09:36:00,9,"rev","act"
"1400EB10047","esudjgpd",,,"Terminus Road Arrivals",,"Terminus Road",,"Arndale Centre",,"Terminus Road",,,,"W-bound",,"W","N0079147","Eastbourne Town Centre","Eastbourne",,"Eastbourne",,,,0,"U",561118,99035,0.28346100084,50.7685341893,"BCT","CUS","PPT",,,,"079",2010-10-01 16:18:00,2018-03-15 09:46:00,5,"rev","act"
"1400EB0463","esuagdpm",,,"Cornfield Road",,,,"Hyde Gardens",,"Cornfield Road",,,,"Stop E",,"S","N0079147","Eastbourne Town Centre","Eastbourne",,"Eastbourne",,,,0,"U",561169,98984,0.28416129902,50.7680617769,"BCT","MKD","PTP",,,,"079",2005-08-08 00:00:00,2018-03-15 08:56:00,8,"rev","act"
"1400EB0461","esuagdpg",,,"Cornfield Road",,,,"Natwest Bank",,"Cornfield Road",,,,"Stop D",,"S","N0079147","Eastbourne Town Centre","Eastbourne",,"Eastbourne",,,,0,"U",561159,99012,0.2840318652,50.7683161452,"BCT","MKD","PTP",,,,"079",2005-08-08 00:00:00,2018-03-15 08:54:00,5,"rev","act"
"1400EB0130","esuadjpj",,,"Malvern Close",,,,"Malvern Close",,"Hazelwood Avenue",,,,"opp",,"E","N0079146","Willingdon Trees","Eastbourne",,,,,,0,"U",559974,103572,0.26922500215,50.8096177881,"BCT","MKD","PTP",,,,"079",2005-08-08 00:00:00,2017-01-17 15:04:00,3,"rev","act"
"1400EB0127","esuadjpa",,,"St Martins Road",,,,"Croxden Way",,"Hazelwood Avenue",,,,"adj",,"NE","N0079146","Willingdon Trees","Eastbourne",,,,,,0,"U",559705,103387,0.26532970883,50.8080296336,"BCT","MKD","TIP",,,,"079",2005-08-08 00:00:00,2010-10-04 11:15:00,4,"rev","act"
"1400EB0135","esuadjta",,,"Mulberry Close",,,,"Brodrick Road",,"Hazelwood Avenue",,,,"adj",,"NE","N0079146","Willingdon Trees","Eastbourne",,,,,,0,"U",560445,102930,0.2756241598,50.8037189832,"BCT","MKD","OTH",,,,"079",2006-11-21 00:00:00,2010-10-04 11:39:00,2,"rev","act"
"1400EB0462","esuagdpj",,,"Terminus Road",,,,"Arndale Centre",,"Terminus Road",,,,"Stop H",,"W","N0079147","Eastbourne Town Centre","Eastbourne",,"Eastbourne",,,,0,"U",561088,99042,0.28303899143,50.7686054117,"BCT","MKD","PTP",,,,"079",2005-08-08 00:00:00,2018-03-15 09:47:00,3,"rev","act"
"1400EB0136","esuadjtd",,,"Mulberry Close",,,,"Brodrick Road",,"Hazelwood Avenue",,,,"opp",,"SW","N0079146","Willingdon Trees","Eastbourne",,,,,,0,"U",560450,102889,0.27567715641,50.8033491966,"BCT","MKD","TIP",,,,"079",2006-11-21 00:00:00,2010-10-04 11:41:00,1,"rev","act"
"1400EB0128","esuadjpd",,,"St Martins Road",,,,"Croxden Way",,"Hazelwood Avenue",,,,"opp",,"SW","N0079146","Willingdon Trees","Eastbourne",,,,,,0,"U",559763,103422,0.26616743811,50.8083281469,"BCT","MKD","TIP",,,,"079",2005-08-08 00:00:00,2010-10-04 11:18:00,3,"rev","act"
"1400EB0126","esuadjmw",,,"Rowan Avenue",,,,"Rowan Avenue",,"Hazelwood Avenue",,,,"adj",,"SW","N0079146","Willingdon Trees","Eastbourne",,,,,,0,"U",559628,103220,0.26416519614,50.8065502583,"BCT","MKD","TIP",,,,"079",2005-08-08 00:00:00,2010-10-04 11:13:00,2,"rev","act"
"1400EB0129","esuadjpg",,,"Malvern Close",,,,"Malvern Close",,"Hazelwood Avenue",,,,"adj",,"SW","N0079146","Willingdon Trees","Eastbourne",,,,,,0,"U",559968,103554,0.26913207379,50.8094577051,"BCT","MKD","PTP",,,,"079",2005-08-08 00:00:00,2010-10-04 11:20:00,2,"rev","act"
"1400EB10089","esudmjdg",,,"Cornfield Road",,,,"Lushington Road",,"Cornfield Road",,,,"Stop B",,"SE","N0079147","Eastbourne Town Centre","Eastbourne",,,,,,1,"U",561197,98915,0.28452782154,50.7674340084,"BCT","MKD","PTP",,,,"079",2015-12-22 11:04:00,2017-01-18 11:34:00,1,"del","del"
"1400EB0131","esuadjpm",,,"Croxden Way",,,,"Fountains Close",,"Hazelwood Avenue",,,,"adj",,"NW","N0079146","Willingdon Trees","Eastbourne",,,,,,0,"U",560273,103401,0.27339069307,50.8079986964,"BCT","MKD","TIP",,,,"079",2005-08-08 00:00:00,2017-01-17 14:58:00,3,"rev","act"
"1400EB0124","esuadjmp",,,"Elderwood Close",,,,"Maywood Avenue",,"Hazelwood Avenue",,,,"adj",,"S","N0079146","Willingdon Trees","Eastbourne",,,,,,0,"U",559678,102820,0.26470040558,50.8029422875,"BCT","MKD","TIP",,,,"079",2005-08-08 00:00:00,2010-10-04 11:05:00,4,"rev","act"
"1400EB10092","esudmjdp",,,"Lushington Road",,,,"Lushington Lane",,"Lushington Road",,,,"Stop E",,"E","N0079147","Eastbourne Town Centre","Eastbourne",,,,,,1,"U",561173,98905,0.28418339514,50.7673508164,"BCT","MKD","PTP",,,,"079",2015-12-22 11:11:00,2017-01-18 11:35:00,1,"del","del"
"1400EB0143","esuadjwd",,,"Magnolia Drive",,,,"Sumach Close",,"Maywood Avenue",,,,"adj",,"NE","N0079146","Willingdon Trees","Eastbourne",,,,,,0,"U",560123,103045,0.27110837336,50.8048413155,"BCT","MKD","PTP",,,,"079",2005-08-08 00:00:00,2010-10-04 11:52:00,4,"rev","act"
"1400EB0144","esuadjwg",,,"Ash Close",,,,"Hazelwood Avenue",,"Maywood Avenue",,,,"opp",,"SW","N0079146","Willingdon Trees","Eastbourne",,,,,,0,"U",560348,103147,0.2743434175,50.8056956561,"BCT","MKD","OTH",,,,"079",2005-08-08 00:00:00,2010-10-04 11:59:00,3,"rev","act"
"1400EB10096","esudmtgw",,,"Gildredge Road",,,,"Hyde Road",,"Gildredge Road",,,,"arrivals",,"N","N0079147","Eastbourne Town Centre","Eastbourne",,,,,,1,"U",560976,98882,0.28138210251,50.7671988012,"BCT","CUS","OTH",,,,"079",2018-03-20 08:22:00,2018-03-20 08:22:00,0,"new","act"
"1400EB0460","esuagdpd",,,"Terminus Road",,,,"Arndale Centre",,"Terminus Road",,,,"Stop J",,"W","N0079147","Eastbourne Town Centre","Eastbourne",,"Eastbourne",,,,0,"U",561070,99047,0.28278613511,50.7686553328,"BCT","MKD","PTP",,,,"079",2005-08-08 00:00:00,2018-03-15 09:50:00,4,"rev","act"
"1400EB0145","esuadjwj",,,"Ash Close",,,,"Hazelwood Avenue",,"Maywood Avenue",,,,"adj",,"NE","N0079146","Willingdon Trees","Eastbourne",,,,,,0,"U",560349,103162,0.27436414421,50.8058301613,"BCT","MKD","OTH",,,,"079",2005-08-08 00:00:00,2017-01-17 14:57:00,4,"rev","act"
"1400EB0140","esuadjtp",,,"Acacia Road",,,,"Acacia Road",,"Maywood Avenue",,,,"opp",,"E","N0079146","Willingdon Trees","Eastbourne",,,,,,0,"U",559717,102805,0.26524689233,50.8027967647,"BCT","MKD","OTH",,,,"079",2005-08-08 00:00:00,2010-10-04 11:44:00,2,"rev","act"
"1400EB0141","esuadjtw",,,"Acacia Road",,,,"Acacia Road",,"Maywood Avenue",,,,"adj",,"W","N0079146","Willingdon Trees","Eastbourne",,,,,,0,"U",559754,102795,0.26576719013,50.802696718,"BCT","MKD","OTH",,,,"079",2005-08-08 00:00:00,2017-01-17 14:56:00,3,"rev","act"
"1400EB0142","esuadjwa",,,"Magnolia Drive",,,,"Sumach Close",,"Maywood Avenue",,,,"opp",,"SW","N0079146","Willingdon Trees","Eastbourne",,,,,,0,"U",560096,102993,0.2707028523,50.8043815261,"BCT","MKD","PTP",,,,"079",2005-08-08 00:00:00,2010-10-04 11:52:00,4,"rev","act"
"1400EB0085","esuadgta",,,"Jordans Lane",,,,"Hazelwood Avenue",,"Seven Sisters Road",,,,"nr",,"E","N0079146","Willingdon Trees","Eastbourne",,,,,,0,"U",559582,103208,0.2635076693,50.8064550942,"BCT","MKD","OTH",,,,"079",2005-08-08 00:00:00,2017-01-17 15:02:00,5,"rev","act"
"1400EB0123","esuadjmj",,,"Elderwood Close",,,,"Maywood Avenue",,"Hazelwood Avenue",,,,"opp",,"NW","N0079146","Willingdon Trees","Eastbourne",,,,,,0,"U",559641,102889,0.26420573417,50.8035724749,"BCT","MKD","OTH",,,,"079",2005-08-08 00:00:00,2017-01-17 15:01:00,5,"rev","act"
"1400EB0134","esuadjpw",,,"Maywood Avenue",,,,"Maywood Avenue",,"Hazelwood Avenue",,,,"opp",,"SE","N0079146","Willingdon Trees","Eastbourne",,,,,,0,"U",560441,103097,0.2756403595,50.8052206587,"BCT","MKD","TIP",,,,"079",2005-08-08 00:00:00,2017-01-17 15:06:00,4,"rev","act"
"1400EB0133","esuadjpt",,,"Maywood Avenue",,,,"Maywood Avenue",,"Hazelwood Avenue",,,,"adj",,"NW","N0079146","Willingdon Trees","Eastbourne",,,,,,0,"U",560377,103208,0.27478127533,50.8062357479,"BCT","MKD","TIP",,,,"079",2005-08-08 00:00:00,2017-01-17 15:05:00,4,"rev","act"
"1400EB0125","esuadjmt",,,"Larch Gardens",,,,"Larch Gardens",,"Hazelwood Avenue",,,,"opp",,"N","N0079146","Willingdon Trees","Eastbourne",,,,,,0,"U",559569,103133,0.26329074687,50.8057847583,"BCT","MKD","OTH",,,,"079",2005-08-08 00:00:00,2017-01-17 15:03:00,3,"rev","act"
"1400EB75067","esuagjad",,,"Croxden Way",,,,"Croxden Way",,"Hazelwood Avenue",,,,"opp",,"SE","N0079146","Willingdon Trees","Eastbourne",,,,,,0,"U",560322,103349,0.27406287382,50.807517906,"BCT","MKD","TIP",,,,"079",2005-08-08 00:00:00,2017-01-17 15:00:00,3,"rev","act"
"1400EB0269","esuadtdm",,,"Plymouth Close",,,,"Canary Quay",,"Atlantic Drive",,,,"opp",,"S","N0076681","Sovereign Harbour South","Eastbourne",,,,,,0,"U",563711,101699,0.32138587798,50.7917454107,"BCT","MKD","TIP",,,,"079",2006-11-21 00:00:00,2017-01-16 11:58:00,3,"rev","act"
"1400EB0264","esuadtat",,,"The Portlands",,,,"The Portlands",,"Atlantic Drive",,,,"opp",,"SE","N0076681","Sovereign Harbour South","Eastbourne",,,,,,0,"U",564038,101229,0.3258116751,50.7874300203,"BCT","MKD","TIP",,,,"079",2006-11-21 00:00:00,2010-09-22 15:06:00,2,"rev","act"
"1400EB0265","esuadtaw",,,"The Portlands",,,,"The Portlands",,"Atlantic Drive",,,,"adj",,"NW","N0076681","Sovereign Harbour South","Eastbourne",,,,,,0,"U",564017,101227,0.3255131218,50.7874179867,"BCT","MKD","OTH",,,,"079",2006-11-21 00:00:00,2010-09-22 15:08:00,1,"rev","act"
"1400EB0270","esuadtdp",,,"Daytona Quay",,,,"Daytona Quay",,"Atlantic Drive",,,,"adj",,"SW","N0076681","Sovereign Harbour South","Eastbourne",,,,,,0,"U",563783,101865,0.32248046969,50.7932166254,"BCT","MKD","PTP",,,,"079",2006-11-21 00:00:00,2010-09-22 15:20:00,1,"rev","act"
"1400EB0271","esuadtdt",,,"Daytona Quay",,,,"Car Park",,"Atlantic Drive",,,,"opp",,"NE","N0076681","Sovereign Harbour South","Eastbourne",,,,,,0,"U",563782,101892,0.32247832077,50.7934595071,"BCT","MKD","PPT",,,,"079",2006-11-21 00:00:00,2010-09-22 15:22:00,1,"rev","act"
"1400EB0268","esuadtdj",,,"Plymouth Close",,,,"Canary Quay",,"Atlantic Drive",,,,"adj",,"N","N0076681","Sovereign Harbour South","Eastbourne",,,,,,0,"U",563688,101680,0.32105137889,50.7915811825,"BCT","MKD","OTH",,,,"079",2006-11-21 00:00:00,2010-09-22 15:14:00,2,"rev","act"
"1400EB0266","esuadtda",,,"Galveston Close",,,,"Galveston Close",,"Atlantic Drive",,,,"adj",,"NW","N0076681","Sovereign Harbour South","Eastbourne",,,,,,0,"U",563856,101405,0.32331035195,50.789062836,"BCT","MKD","OTH",,,,"079",2006-11-21 00:00:00,2010-09-22 15:10:00,1,"rev","act"
"1400EB0267","esuadtdg",,,"Galveston Close",,,,"Galveston Close",,"Atlantic Drive",,,,"opp",,"SE","N0076681","Sovereign Harbour South","Eastbourne",,,,,,0,"U",563841,101446,0.32311599476,50.789435464,"BCT","MKD","TIP",,,,"079",2006-11-21 00:00:00,2010-09-22 15:12:00,1,"rev","act"
"1400EB75053","esuagdwd",,,"Tasmania Way",,,,"Tasmania Way",,"Pacific Drive",,,,"adj",,"SW","N0079151","Sovereign Harbour North","Eastbourne",,,,,,0,"U",564404,102631,0.33162637899,50.7999235495,"BCT","MKD","TIP",,,,"079",2005-08-08 00:00:00,2017-01-16 11:52:00,4,"rev","act"
"1400EB75051","esuagdwa",,,"Samoa Way",,,,"Samoa Way",,"Pacific Drive",,,,"opp",,"NW","N0079151","Sovereign Harbour North","Eastbourne",,,,,,0,"U",564559,102581,0.3338015909,50.7994303361,"BCT","MKD","TIP",,,,"079",2005-08-08 00:00:00,2017-01-16 11:51:00,4,"rev","act"
"1400EB10073","esudjtgm",,,"Medical Centre",,,,"Medical Centre",,"Pacific Drive",,,,"adj",,"NE","N0079151","Sovereign Harbour North","Eastbourne",,,,,,0,"U",564231,102533,0.32912977979,50.7990920241,"BCT","MKD","OTH",,,,"079",2012-08-02 15:42:00,2017-01-16 11:49:00,1,"rev","act"
"1400EB75041","esuagdtg",,,"Tasmania Way",,,,"Tasmania Way",,"Pacific Drive",,,,"opp",,"NE","N0079151","Sovereign Harbour North","Eastbourne",,,,,,0,"U",564431,102670,0.33202663503,50.8002663137,"BCT","MKD","OTH",,,,"079",2005-08-08 00:00:00,2017-01-16 11:54:00,5,"rev","act"
"1400EB75045","esuagdtm",,,"Eugene Way",,,,"Eugene Way",,"Pacific Drive",,,,"adj",,"SW","N0079151","Sovereign Harbour North","Eastbourne",,,,,,0,"U",564628,102312,0.3346593863,50.7969937681,"BCT","MKD","OTH",,,,"079",2005-08-08 00:00:00,2017-01-16 11:44:00,4,"rev","act"
"1400EB75047","esuagdtp",,,"Macquarie Quay",,,,"Macquarie Quay",,"Pacific Drive",,,,"opp",,"NE","N0079151","Sovereign Harbour North","Eastbourne",,,,,,0,"U",564322,101917,0.33014461271,50.7935314213,"BCT","MKD","PTP",,,,"079",2005-08-08 00:00:00,2017-01-16 11:47:00,5,"rev","act"
"1400EB75049","esuagdtw",,,"Eugene Way",,,,"Eugene Way",,"Pacific Drive",,,,"opp",,"NE","N0079151","Sovereign Harbour North","Eastbourne",,,,,,0,"U",564623,102331,0.33459700941,50.7971659037,"BCT","MKD","TIP",,,,"079",2005-08-08 00:00:00,2017-01-16 11:45:00,4,"rev","act"
"1400EB75043","esuagdtj",,,"Samoa Way",,,,"Samoa Way",,"Pacific Drive",,,,"adj",,"SE","N0079151","Sovereign Harbour North","Eastbourne",,,,,,0,"U",564553,102613,0.33373085018,50.7997195611,"BCT","MKD","OTH",,,,"079",2005-08-08 00:00:00,2010-10-01 12:02:00,2,"rev","act"
"1400EB10072","esudjtgj",,,"Medical Centre",,,,"Medical Centre",,"Pacific Drive",,,,"opp",,"SW","N0079151","Sovereign Harbour North","Eastbourne",,,,,,0,"U",564261,102537,0.32955690263,50.7991194687,"BCT","MKD","OTH",,,,"079",2012-08-02 15:38:00,2012-08-02 15:38:00,0,"new","act"
"1400EB0080","esuadgpg",,,"Oxendean Gardens",,,,"Oxendean Gardens",,"Seven Sisters Road",,,,"opp",,"SW","N0080173","Hamlands","Eastbourne",,,,,,0,"U",558894,103460,0.25386027042,50.8089084039,"BCT","MKD","OTH",,,,"079",2005-08-08 00:00:00,2011-05-31 12:32:00,3,"rev","act"
"1400EB0081","esuadgpj",,,"Swinburne Avenue",,,,"Hawksbridge Close",,"Seven Sisters Road",,,,"opp",,"E","N0080173","Hamlands","Eastbourne",,,,,,0,"U",559037,103515,0.25591204277,50.8093634014,"BCT","MKD","OTH",,,,"079",2005-08-08 00:00:00,2018-03-20 08:52:00,5,"rev","act"
"1400EB0077","esuadgmw",,,"The Seven Sisters",,,,"The Seven Sisters",,"Seven Sisters Road",,,,"o/s",,"S","N0080173","Hamlands","Eastbourne",,,,,,0,"U",558800,103201,0.25241524897,50.8066068925,"BCT","MKD","PPT",,,,"079",2005-08-08 00:00:00,2018-03-20 08:55:00,5,"rev","act"
"1400EB0079","esuadgpd",,,"Oxendean Gardens",,,,"Oxendean Gardens",,"Seven Sisters Road",,,,"adj",,"NE","N0080173","Hamlands","Eastbourne",,,,,,0,"U",558877,103466,0.25362177878,50.808966976,"BCT","MKD","OTH",,,,"079",2005-08-08 00:00:00,2018-03-20 08:40:00,3,"rev","act"
"1400EB75157","esuagjtm",,,"Anderida Road",,,,"Anderida Road",,"Seven Sisters Road",,,,"adj",,"NW","N0080173","Hamlands","Eastbourne",,,,,,0,"U",559409,103302,0.26109518629,50.8073473216,"BCT","MKD","OTH",,,,"079",2006-11-21 00:00:00,2018-03-20 08:27:00,3,"rev","act"
"1400EB0082","esuadgpm",,,"Swinburne Avenue",,,,"Swinburne Avenue",,"Seven Sisters Road",,,,"adj",,"W","N0080173","Hamlands","Eastbourne",,,,,,0,"U",559061,103490,0.25624157801,50.8091321785,"BCT","MKD","OTH",,,,"079",2005-08-08 00:00:00,2018-03-20 08:53:00,4,"rev","act"
"1400EB0083","esuadgpt",,,"Seven Sisters Road",,,,,,"Seven Sisters Road",,,,"o/s 60",,"NW","N0080173","Hamlands","Eastbourne",,,,,,0,"U",559204,103428,0.25824267596,50.8085358253,"BCT","MKD","OTH",,,,"079",2005-08-08 00:00:00,2018-03-20 08:49:00,5,"rev","act"
"1400EB0084","esuadgpw",,,"Seven Sisters Road",,,,,,"Seven Sisters Road",,,,"o/s 163",,"SE","N0080173","Hamlands","Eastbourne",,,,,,0,"U",559262,103411,0.25905782718,50.8083671419,"BCT","MKD","OTH",,,,"079",2005-08-08 00:00:00,2018-03-20 08:47:00,5,"rev","act"
"1400EB0078","esuadgpa",,,"Hamlands Lane",,,,"Hamlands Lane",,"Seven Sisters Road",,,,"opp",,"N","N0080173","Hamlands","Eastbourne",,,,,,0,"U",558766,103315,0.25198236349,50.8076405599,"BCT","MKD","PPT",,,,"079",2005-08-08 00:00:00,2018-03-20 08:29:00,4,"rev","act"
"1400EB0076","esuadgmt",,,"Huggett's Lane",,,,"Recreation Ground",,"Huggett's Lane",,,,"NE-bound",,"NE","N0080173","Hamlands","Eastbourne",,,,,,0,"U",558733,103032,0.25139211748,50.8051066737,"BCT","MKD","OTH",,,,"079",2005-08-08 00:00:00,2018-03-20 08:31:00,6,"rev","act"
"1400EB0075","esuadgmp",,,"Huggett's Lane",,,,"Recreation Ground",,"Huggett's Lane",,,,"SW-bound",,"SW","N0080173","Hamlands","Eastbourne",,,,,,0,"U",558734,103003,0.25139376977,50.8048458178,"BCT","MKD","OTH",,,,"079",2005-08-08 00:00:00,2018-03-20 08:37:00,8,"rev","act"
